{"type": "FeatureCollection", "features": [{"type": "Feature", "id": 2, "geometry": {"type": "Point", "coordinates": [-120.9847, 47.5011]}, "properties": {"OBJECTID": 2, "SITE_ID": 2, "SITE_NAME": "Van Epps", "ALTERNATE_NAMES": "King Solomon, Snook and Ellen", "PRIMARY_COMMODITY": "Antimony (Sb)", "COMMODITIES": "Antimony, gold, silver, lead, zinc, nickel", "ORE_MINERALS": "Arsenopyrite, millerite, chalcopyrite, galena, stibnite, berthierite, sphalerite", "GANGUE": "Quartz, carbonate minerals", "LOCATION_DESCRIPTION": "At head of Solomon Creek on W end of Solomon Mtn.", "LEGAL_DESCRIPTION": "SW 1/4 of sec. 4, T23N, R15E", "LOCATION_ACCURACY": "coordinate accuracy highly variable", "COUNTY": "Chelan", "LATITUDE": 47.5011, "LONGITUDE": -120.9847, "MINING_DISTRICT": "", "LOCATION_SOURCE": "USGS MAS/MILS Database ", "ASSAYS": "yes", "PRODUCTION": "", "COMMENTS": "Assays are in Bulletin 37."}}, {"type": "Feature", "id": 42, "geometry": {"type": "Point", "coordinates": [-120.7686, 47.4064]}, "properties": {"OBJECTID": 42, "SITE_ID": 45, "SITE_NAME": "Negro Creek", "ALTERNATE_NAMES": "", "PRIMARY_COMMODITY": "Chromium (Cr)", "COMMODITIES": "Chromium", "ORE_MINERALS": "Chromite", "GANGUE": "", "LOCATION_DESCRIPTION": "Just E of the divide between Negro and Stafford Creeks", "LEGAL_DESCRIPTION": "SW 1/4 of sec. 12, T22N, R16E", "LOCATION_ACCURACY": "coordinate accuracy highly variable", "COUNTY": "Chelan", "LATITUDE": 47.4064, "LONGITUDE": -120.7686, "MINING_DISTRICT": "", "LOCATION_SOURCE": "USGS MAS/MILS Database ", "ASSAYS": "", "PRODUCTION": "", "COMMENTS": ""}}, {"type": "Feature", "id": 49, "geometry": {"type": "Point", "coordinates": [-120.982467, 47.441722]}, "properties": {"OBJECTID": 49, "SITE_ID": 52, "SITE_NAME": "Mount Hawkins", "ALTERNATE_NAMES": "Crowe, Gallagher Head, Skipper", "PRIMARY_COMMODITY": "Chromium (Cr)", "COMMODITIES": "Chromium", "ORE_MINERALS": "Chromite", "GANGUE": "Serpentine", "LOCATION_DESCRIPTION": "In Drew Creek drainage on SE slope of Mt. Hawkins, near small lake", "LEGAL_DESCRIPTION": "SW 1/4 of the NW 1/4 of sec. 33, T23N, R15E", "LOCATION_ACCURACY": "generally from USGS 7.5-minute topographic map", "COUNTY": "Kittitas", "LATITUDE": 47.441722, "LONGITUDE": -120.982467, "MINING_DISTRICT": "", "LOCATION_SOURCE": "Open File Report 90-18", "ASSAYS": "yes", "PRODUCTION": "yes", "COMMENTS": "Assays are in Bulletin 37. Production information is in Bulletin 37 and in OFR 90-18."}}, {"type": "Feature", "id": 50, "geometry": {"type": "Point", "coordinates": [-120.8369, 47.4053]}, "properties": {"OBJECTID": 50, "SITE_ID": 53, "SITE_NAME": "Standup Creek", "ALTERNATE_NAMES": "", "PRIMARY_COMMODITY": "Chromium (Cr)", "COMMODITIES": "Chromium", "ORE_MINERALS": "Chromite", "GANGUE": "", "LOCATION_DESCRIPTION": "On Standup Creek", "LEGAL_DESCRIPTION": "sec. 9, T22N, R16E", "LOCATION_ACCURACY": "coordinate accuracy highly variable", "COUNTY": "Kittitas", "LATITUDE": 47.4053, "LONGITUDE": -120.8369, "MINING_DISTRICT": "", "LOCATION_SOURCE": "USGS MAS/MILS Database ", "ASSAYS": "", "PRODUCTION": "", "COMMENTS": ""}}, {"type": "Feature", "id": 126, "geometry": {"type": "Point", "coordinates": [-120.9553, 47.5253]}, "properties": {"OBJECTID": 126, "SITE_ID": 129, "SITE_NAME": "Bald Eagle and Gray Eagle", "ALTERNATE_NAMES": "Bald Eagle, Gray Eagle", "PRIMARY_COMMODITY": "Copper (Cu)", "COMMODITIES": "Copper", "ORE_MINERALS": "Tetrahedrite", "GANGUE": "", "LOCATION_DESCRIPTION": "On a fork of Jack Creek, a tributary of Icicle Creek", "LEGAL_DESCRIPTION": "", "LOCATION_ACCURACY": "coordinate accuracy highly variable", "COUNTY": "Chelan", "LATITUDE": 47.5253, "LONGITUDE": -120.9553, "MINING_DISTRICT": "", "LOCATION_SOURCE": "USGS MAS/MILS Database ", "ASSAYS": "", "PRODUCTION": "", "COMMENTS": ""}}, {"type": "Feature", "id": 127, "geometry": {"type": "Point", "coordinates": [-120.6819, 47.6178]}, "properties": {"OBJECTID": 127, "SITE_ID": 130, "SITE_NAME": "Black Republican", "ALTERNATE_NAMES": "", "PRIMARY_COMMODITY": "Copper (Cu)", "COMMODITIES": "Copper, nickel, cobalt", "ORE_MINERALS": "", "GANGUE": "", "LOCATION_DESCRIPTION": "", "LEGAL_DESCRIPTION": "", "LOCATION_ACCURACY": "coordinate accuracy highly variable", "COUNTY": "Chelan", "LATITUDE": 47.6178, "LONGITUDE": -120.6819, "MINING_DISTRICT": "Leavenworth", "LOCATION_SOURCE": "USGS MAS/MILS Database ", "ASSAYS": "", "PRODUCTION": "", "COMMENTS": ""}}, {"type": "Feature", "id": 140, "geometry": {"type": "Point", "coordinates": [-120.867118, 47.441456]}, "properties": {"OBJECTID": 140, "SITE_ID": 144, "SITE_NAME": "Grand View", "ALTERNATE_NAMES": "", "PRIMARY_COMMODITY": "Copper (Cu)", "COMMODITIES": "Copper, gold", "ORE_MINERALS": "Native copper, cuprite", "GANGUE": "", "LOCATION_DESCRIPTION": "On E side of Fourth Creek about 3 mi SE of Mt. Stuart", "LEGAL_DESCRIPTION": "", "LOCATION_ACCURACY": "coordinates estimated from location description", "COUNTY": "Chelan", "LATITUDE": 47.4414558246465, "LONGITUDE": -120.867117822833, "MINING_DISTRICT": "", "LOCATION_SOURCE": "Bulletin 37", "ASSAYS": "", "PRODUCTION": "", "COMMENTS": ""}}, {"type": "Feature", "id": 145, "geometry": {"type": "Point", "coordinates": [-120.6944, 47.4281]}, "properties": {"OBJECTID": 145, "SITE_ID": 149, "SITE_NAME": "Leo", "ALTERNATE_NAMES": "", "PRIMARY_COMMODITY": "Copper (Cu)", "COMMODITIES": "Copper, gold, silver", "ORE_MINERALS": "", "GANGUE": "", "LOCATION_DESCRIPTION": "On Negro Creek", "LEGAL_DESCRIPTION": "", "LOCATION_ACCURACY": "coordinate accuracy highly variable", "COUNTY": "Chelan", "LATITUDE": 47.4281, "LONGITUDE": -120.6944, "MINING_DISTRICT": "", "LOCATION_SOURCE": "USGS MAS/MILS Database ", "ASSAYS": "", "PRODUCTION": "", "COMMENTS": ""}}, {"type": "Feature", "id": 150, "geometry": {"type": "Point", "coordinates": [-120.9875, 47.3986]}, "properties": {"OBJECTID": 150, "SITE_ID": 154, "SITE_NAME": "Mountain Sheik", "ALTERNATE_NAMES": "", "PRIMARY_COMMODITY": "Copper (Cu)", "COMMODITIES": "Copper, silver", "ORE_MINERALS": "", "GANGUE": "", "LOCATION_DESCRIPTION": "On Flat Creek near Sunset prospect", "LEGAL_DESCRIPTION": "", "LOCATION_ACCURACY": "coordinate accuracy highly variable", "COUNTY": "Chelan", "LATITUDE": 47.3986, "LONGITUDE": -120.9875, "MINING_DISTRICT": "Stehekin", "LOCATION_SOURCE": "USGS MAS/MILS Database ", "ASSAYS": "yes", "PRODUCTION": "", "COMMENTS": "Assays are in Bulletin 37."}}, {"type": "Feature", "id": 153, "geometry": {"type": "Point", "coordinates": [-120.975, 47.4981]}, "properties": {"OBJECTID": 153, "SITE_ID": 157, "SITE_NAME": "Pickwick", "ALTERNATE_NAMES": "Copper King, King Solomon, Nelson, Van Epps Copper", "PRIMARY_COMMODITY": "Copper (Cu)", "COMMODITIES": "Copper, gold, silver", "ORE_MINERALS": "Bornite, chalcopyrite, pyrite, copper carbonate, pyrrhotite", "GANGUE": "Decomposed quartz", "LOCATION_DESCRIPTION": "In basin at head of Jack Creek, a tributary to Icicle Creek near its source", "LEGAL_DESCRIPTION": "secs. 9 and 10, T23N, R15E", "LOCATION_ACCURACY": "coordinate accuracy highly variable", "COUNTY": "Chelan", "LATITUDE": 47.4981, "LONGITUDE": -120.975, "MINING_DISTRICT": "", "LOCATION_SOURCE": "USGS MAS/MILS Database ", "ASSAYS": "yes", "PRODUCTION": "yes", "COMMENTS": "Assays are in Bulletin 37. Production information is in Bulletin 37."}}, {"type": "Feature", "id": 244, "geometry": {"type": "Point", "coordinates": [-120.982579, 47.479572]}, "properties": {"OBJECTID": 244, "SITE_ID": 258, "SITE_NAME": "Big Bug", "ALTERNATE_NAMES": "", "PRIMARY_COMMODITY": "Copper (Cu)", "COMMODITIES": "Copper, silver", "ORE_MINERALS": "", "GANGUE": "", "LOCATION_DESCRIPTION": "On Fortune Creek", "LEGAL_DESCRIPTION": "", "LOCATION_ACCURACY": "coordinates estimated from location description", "COUNTY": "Kittitas", "LATITUDE": 47.4795719121283, "LONGITUDE": -120.982579334644, "MINING_DISTRICT": "Cle Elum", "LOCATION_SOURCE": "Bulletin 37", "ASSAYS": "", "PRODUCTION": "", "COMMENTS": ""}}, {"type": "Feature", "id": 248, "geometry": {"type": "Point", "coordinates": [-120.9889, 47.4408]}, "properties": {"OBJECTID": 248, "SITE_ID": 262, "SITE_NAME": "Boyles", "ALTERNATE_NAMES": "", "PRIMARY_COMMODITY": "Copper (Cu)", "COMMODITIES": "Copper, gold, silver", "ORE_MINERALS": "", "GANGUE": "", "LOCATION_DESCRIPTION": "", "LEGAL_DESCRIPTION": "sec. 31, T23N, R15E", "LOCATION_ACCURACY": "coordinate accuracy highly variable", "COUNTY": "Kittitas", "LATITUDE": 47.4408, "LONGITUDE": -120.9889, "MINING_DISTRICT": "Cle Elum", "LOCATION_SOURCE": "USGS MAS/MILS Database ", "ASSAYS": "", "PRODUCTION": "", "COMMENTS": ""}}, {"type": "Feature", "id": 252, "geometry": {"type": "Point", "coordinates": [-120.977922, 47.444872]}, "properties": {"OBJECTID": 252, "SITE_ID": 266, "SITE_NAME": "Dolphin", "ALTERNATE_NAMES": "Bonanza", "PRIMARY_COMMODITY": "Copper (Cu)", "COMMODITIES": "Copper, silver, gold, cobalt", "ORE_MINERALS": "Chalcopyrite", "GANGUE": "Pyrite, serpentine, quartz", "LOCATION_DESCRIPTION": "On SE slope of Mt. Hawkins", "LEGAL_DESCRIPTION": "sec. 33, T23N, R15E", "LOCATION_ACCURACY": "generally from USGS 7.5-minute topographic map", "COUNTY": "Kittitas", "LATITUDE": 47.444872, "LONGITUDE": -120.977922, "MINING_DISTRICT": "", "LOCATION_SOURCE": "Open File Report 90-18", "ASSAYS": "yes", "PRODUCTION": "yes", "COMMENTS": "Assays are in Bulletin 37. Production information is in Bulletin 37 and in OFR 90-18."}}, {"type": "Feature", "id": 254, "geometry": {"type": "Point", "coordinates": [-120.968974, 47.446434]}, "properties": {"OBJECTID": 254, "SITE_ID": 268, "SITE_NAME": "Grandview", "ALTERNATE_NAMES": "Lost", "PRIMARY_COMMODITY": "Copper (Cu)", "COMMODITIES": "Copper, gold, nickel", "ORE_MINERALS": "Native copper", "GANGUE": "", "LOCATION_DESCRIPTION": "About 0.75 mi E of Fourth Creek", "LEGAL_DESCRIPTION": "sec. 33, T23N, R15E", "LOCATION_ACCURACY": "coordinates estimated from legal description", "COUNTY": "Kittitas", "LATITUDE": 47.4464340250677, "LONGITUDE": -120.968973634788, "MINING_DISTRICT": "", "LOCATION_SOURCE": "Bulletin 37", "ASSAYS": "", "PRODUCTION": "", "COMMENTS": ""}}, {"type": "Feature", "id": 257, "geometry": {"type": "Point", "coordinates": [-120.9778, 47.445]}, "properties": {"OBJECTID": 257, "SITE_ID": 271, "SITE_NAME": "Johnson", "ALTERNATE_NAMES": "", "PRIMARY_COMMODITY": "Copper (Cu)", "COMMODITIES": "Copper", "ORE_MINERALS": "", "GANGUE": "", "LOCATION_DESCRIPTION": "Near Mt. Hawkins", "LEGAL_DESCRIPTION": "", "LOCATION_ACCURACY": "coordinate accuracy highly variable", "COUNTY": "Kittitas", "LATITUDE": 47.445, "LONGITUDE": -120.9778, "MINING_DISTRICT": "", "LOCATION_SOURCE": "USGS MAS/MILS Database ", "ASSAYS": "", "PRODUCTION": "", "COMMENTS": ""}}, {"type": "Feature", "id": 258, "geometry": {"type": "Point", "coordinates": [-121.002693, 47.512456]}, "properties": {"OBJECTID": 258, "SITE_ID": 272, "SITE_NAME": "King Solomon", "ALTERNATE_NAMES": "", "PRIMARY_COMMODITY": "Copper (Cu)", "COMMODITIES": "Copper, gold, silver", "ORE_MINERALS": "", "GANGUE": "", "LOCATION_DESCRIPTION": "", "LEGAL_DESCRIPTION": "sec. 5, T23N, R15E", "LOCATION_ACCURACY": "coordinates estimated from legal description", "COUNTY": "Kittitas", "LATITUDE": 47.512455702582, "LONGITUDE": -121.002693259442, "MINING_DISTRICT": "Cle Elum", "LOCATION_SOURCE": "Bulletin 37", "ASSAYS": "", "PRODUCTION": "", "COMMENTS": ""}}, {"type": "Feature", "id": 264, "geometry": {"type": "Point", "coordinates": [-120.985, 47.4811]}, "properties": {"OBJECTID": 264, "SITE_ID": 281, "SITE_NAME": "Silver Bow", "ALTERNATE_NAMES": "", "PRIMARY_COMMODITY": "Copper (Cu)", "COMMODITIES": "Copper, gold", "ORE_MINERALS": "", "GANGUE": "", "LOCATION_DESCRIPTION": "On Mt. Hawkins", "LEGAL_DESCRIPTION": "", "LOCATION_ACCURACY": "coordinate accuracy highly variable", "COUNTY": "Kittitas", "LATITUDE": 47.4811, "LONGITUDE": -120.985, "MINING_DISTRICT": "", "LOCATION_SOURCE": "USGS MAS/MILS Database ", "ASSAYS": "yes", "PRODUCTION": "", "COMMENTS": "Assays are in Bulletin 37."}}, {"type": "Feature", "id": 266, "geometry": {"type": "Point", "coordinates": [-120.9322, 47.1139]}, "properties": {"OBJECTID": 266, "SITE_ID": 283, "SITE_NAME": "Taneum Creek", "ALTERNATE_NAMES": "", "PRIMARY_COMMODITY": "Copper (Cu)", "COMMODITIES": "Copper", "ORE_MINERALS": "Copper sulfides", "GANGUE": "", "LOCATION_DESCRIPTION": "In vicinity of the forks of Taneum Creek, 5 mi S of Cle Elum", "LEGAL_DESCRIPTION": "", "LOCATION_ACCURACY": "coordinate accuracy highly variable", "COUNTY": "Kittitas", "LATITUDE": 47.1139, "LONGITUDE": -120.9322, "MINING_DISTRICT": "", "LOCATION_SOURCE": "USGS MAS/MILS Database ", "ASSAYS": "", "PRODUCTION": "", "COMMENTS": ""}}, {"type": "Feature", "id": 1841, "geometry": {"type": "Point", "coordinates": [-120.6522, 47.3967]}, "properties": {"OBJECTID": 1841, "SITE_ID": 2041, "SITE_NAME": "Blewett", "ALTERNATE_NAMES": "Washington Nickel", "PRIMARY_COMMODITY": "Iron (Fe)", "COMMODITIES": "Iron, nickel, chromium", "ORE_MINERALS": "Hematite, magnetite, chromite, nickel silicates", "GANGUE": "Shale", "LOCATION_DESCRIPTION": "On prominent ridge N of Shaser Creek at its junction with Peshastin Creek", "LEGAL_DESCRIPTION": "secs. 13 and 14, T22N, R17E", "LOCATION_ACCURACY": "coordinate accuracy highly variable", "COUNTY": "Chelan", "LATITUDE": 47.3967, "LONGITUDE": -120.6522, "MINING_DISTRICT": "", "LOCATION_SOURCE": "USGS MAS/MILS Database ", "ASSAYS": "yes", "PRODUCTION": "", "COMMENTS": "Assays are in Bulletin 37 and in the scanned files."}}, {"type": "Feature", "id": 1842, "geometry": {"type": "Point", "coordinates": [-120.7391, 47.407667]}, "properties": {"OBJECTID": 1842, "SITE_ID": 2042, "SITE_NAME": "Negro Creek", "ALTERNATE_NAMES": "Davenport", "PRIMARY_COMMODITY": "Iron (Fe)", "COMMODITIES": "Iron, nickel, chromium", "ORE_MINERALS": "Magnetite, chromite", "GANGUE": "Serpentine, clay-rich residuum of laterites", "LOCATION_DESCRIPTION": "", "LEGAL_DESCRIPTION": "S 1/2 of the SW 1/4 and N 1/2 of the SE 1/4 of sec. 7 and NW 1/4 of the SW 1/4 of sec. 8, T22N, R17E; SE 1/4 of the SE 1/4 of sec. 12, T22, R16E", "LOCATION_ACCURACY": "generally from USGS 7.5-minute topographic map", "COUNTY": "Chelan", "LATITUDE": 47.407667000000004, "LONGITUDE": -120.7391, "MINING_DISTRICT": "", "LOCATION_SOURCE": "Open File Report 90-18", "ASSAYS": "", "PRODUCTION": "", "COMMENTS": ""}}, {"type": "Feature", "id": 1843, "geometry": {"type": "Point", "coordinates": [-120.6522, 47.3961]}, "properties": {"OBJECTID": 1843, "SITE_ID": 2043, "SITE_NAME": "Rothert", "ALTERNATE_NAMES": "Iron King", "PRIMARY_COMMODITY": "Iron (Fe)", "COMMODITIES": "Iron", "ORE_MINERALS": "", "GANGUE": "", "LOCATION_DESCRIPTION": "", "LEGAL_DESCRIPTION": "sec. 13, T22N, R17E", "LOCATION_ACCURACY": "coordinate accuracy highly variable", "COUNTY": "Chelan", "LATITUDE": 47.3961, "LONGITUDE": -120.6522, "MINING_DISTRICT": "Blewett", "LOCATION_SOURCE": "USGS MAS/MILS Database ", "ASSAYS": "", "PRODUCTION": "", "COMMENTS": ""}}, {"type": "Feature", "id": 1868, "geometry": {"type": "Point", "coordinates": [-120.85, 47.4047]}, "properties": {"OBJECTID": 1868, "SITE_ID": 2069, "SITE_NAME": "Bean Creek", "ALTERNATE_NAMES": "", "PRIMARY_COMMODITY": "Iron (Fe)", "COMMODITIES": "Iron, nickel, chromium", "ORE_MINERALS": "Magnetite, hematite", "GANGUE": "", "LOCATION_DESCRIPTION": "On both E and W side of Bean Creek", "LEGAL_DESCRIPTION": "NE 1/4 of the NE 1/4 and NE 1/4 of the NW 1/4 of sec. 17, T22N, R16E", "LOCATION_ACCURACY": "coordinate accuracy highly variable", "COUNTY": "Kittitas", "LATITUDE": 47.4047, "LONGITUDE": -120.85, "MINING_DISTRICT": "", "LOCATION_SOURCE": "USGS MAS/MILS Database ", "ASSAYS": "", "PRODUCTION": "", "COMMENTS": ""}}, {"type": "Feature", "id": 1872, "geometry": {"type": "Point", "coordinates": [-120.887348, 47.419782]}, "properties": {"OBJECTID": 1872, "SITE_ID": 2073, "SITE_NAME": "Devine", "ALTERNATE_NAMES": "", "PRIMARY_COMMODITY": "Iron (Fe)", "COMMODITIES": "Iron", "ORE_MINERALS": "", "GANGUE": "", "LOCATION_DESCRIPTION": "On Beaver Creek, about 3 mi S of Mt. Stuart, E of Teanaway River", "LEGAL_DESCRIPTION": "T22N, R16E", "LOCATION_ACCURACY": "coordinates estimated from legal description", "COUNTY": "Kittitas", "LATITUDE": 47.4197820895997, "LONGITUDE": -120.887348442393, "MINING_DISTRICT": "", "LOCATION_SOURCE": "Bulletin 37", "ASSAYS": "yes", "PRODUCTION": "", "COMMENTS": "Assays are in Bulletin 37."}}, {"type": "Feature", "id": 1873, "geometry": {"type": "Point", "coordinates": [-120.9594, 47.155]}, "properties": {"OBJECTID": 1873, "SITE_ID": 2074, "SITE_NAME": "Durrwachter", "ALTERNATE_NAMES": "Liberty Lode", "PRIMARY_COMMODITY": "Iron (Fe)", "COMMODITIES": "Iron", "ORE_MINERALS": "Hematite", "GANGUE": "Garnet, glaucophane", "LOCATION_DESCRIPTION": "2 mi from railroad at S Cle Elum", "LEGAL_DESCRIPTION": "secs. 9 and 10, T19N, R15E", "LOCATION_ACCURACY": "coordinate accuracy highly variable", "COUNTY": "Kittitas", "LATITUDE": 47.155, "LONGITUDE": -120.9594, "MINING_DISTRICT": "", "LOCATION_SOURCE": "USGS MAS/MILS Database ", "ASSAYS": "yes", "PRODUCTION": "", "COMMENTS": "Assays are in Bulletin 37."}}, {"type": "Feature", "id": 1874, "geometry": {"type": "Point", "coordinates": [-120.960411, 47.119857]}, "properties": {"OBJECTID": 1874, "SITE_ID": 2075, "SITE_NAME": "Ellensburg Improvement Co.", "ALTERNATE_NAMES": "", "PRIMARY_COMMODITY": "Iron (Fe)", "COMMODITIES": "Iron", "ORE_MINERALS": "Brown hematite", "GANGUE": "", "LOCATION_DESCRIPTION": "South of Cle Elum", "LEGAL_DESCRIPTION": "", "LOCATION_ACCURACY": "coordinates estimated from location description", "COUNTY": "Kittitas", "LATITUDE": 47.1198565390975, "LONGITUDE": -120.960410998545, "MINING_DISTRICT": "", "LOCATION_SOURCE": "Bulletin 37", "ASSAYS": "yes", "PRODUCTION": "", "COMMENTS": "Assays are in Bulletin 37."}}, {"type": "Feature", "id": 1875, "geometry": {"type": "Point", "coordinates": [-120.940323, 47.141533]}, "properties": {"OBJECTID": 1875, "SITE_ID": 2076, "SITE_NAME": "Grand Entry", "ALTERNATE_NAMES": "", "PRIMARY_COMMODITY": "Iron (Fe)", "COMMODITIES": "Iron", "ORE_MINERALS": "Brown hematite", "GANGUE": "", "LOCATION_DESCRIPTION": "South of Cle Elum", "LEGAL_DESCRIPTION": "", "LOCATION_ACCURACY": "coordinates estimated from location description", "COUNTY": "Kittitas", "LATITUDE": 47.1415330323807, "LONGITUDE": -120.940323390912, "MINING_DISTRICT": "", "LOCATION_SOURCE": "Bulletin 37", "ASSAYS": "", "PRODUCTION": "", "COMMENTS": ""}}, {"type": "Feature", "id": 1876, "geometry": {"type": "Point", "coordinates": [-120.8986, 47.4064]}, "properties": {"OBJECTID": 1876, "SITE_ID": 2077, "SITE_NAME": "Iron Peak", "ALTERNATE_NAMES": "", "PRIMARY_COMMODITY": "Iron (Fe)", "COMMODITIES": "Iron, nickel, chromium", "ORE_MINERALS": "Magnetite, hematite", "GANGUE": "", "LOCATION_DESCRIPTION": "", "LEGAL_DESCRIPTION": "SW 1/4 of the SW 1/4 of sec. 7, T22N, R16E; S 1/2 and SE 1/4 of sec. 12 and N 1/2 of sec. 11, T22N, R15E;", "LOCATION_ACCURACY": "coordinate accuracy highly variable", "COUNTY": "Kittitas", "LATITUDE": 47.4064, "LONGITUDE": -120.8986, "MINING_DISTRICT": "", "LOCATION_SOURCE": "USGS MAS/MILS Database ", "ASSAYS": "yes", "PRODUCTION": "", "COMMENTS": "Assays are in Bulletin 37."}}, {"type": "Feature", "id": 1878, "geometry": {"type": "Point", "coordinates": [-120.806783, 47.402827]}, "properties": {"OBJECTID": 1878, "SITE_ID": 2079, "SITE_NAME": "Stafford Creek", "ALTERNATE_NAMES": "", "PRIMARY_COMMODITY": "Iron (Fe)", "COMMODITIES": "Iron, nickel, chromium", "ORE_MINERALS": "Magnetite, hematite", "GANGUE": "", "LOCATION_DESCRIPTION": "On W side of Stafford Creek", "LEGAL_DESCRIPTION": "NW 1/4 of the NW 1/4 of sec. 14 and NE 1/4 of the NW 1/4 of sec. 15, T22N, R16E", "LOCATION_ACCURACY": "coordinates estimated from legal description", "COUNTY": "Kittitas", "LATITUDE": 47.4028269812451, "LONGITUDE": -120.806783038524, "MINING_DISTRICT": "", "LOCATION_SOURCE": "Bulletin 37", "ASSAYS": "", "PRODUCTION": "", "COMMENTS": ""}}, {"type": "Feature", "id": 1879, "geometry": {"type": "Point", "coordinates": [-120.989166, 47.12495]}, "properties": {"OBJECTID": 1879, "SITE_ID": 2080, "SITE_NAME": "Teanaway", "ALTERNATE_NAMES": "", "PRIMARY_COMMODITY": "Iron (Fe)", "COMMODITIES": "Iron", "ORE_MINERALS": "", "GANGUE": "", "LOCATION_DESCRIPTION": "On N Fork of Taneum Creek 12 mi SE of Easton", "LEGAL_DESCRIPTION": "", "LOCATION_ACCURACY": "coordinates estimated from location description", "COUNTY": "King", "LATITUDE": 47.12495016215, "LONGITUDE": -120.989165512534, "MINING_DISTRICT": "", "LOCATION_SOURCE": "Bulletin 37", "ASSAYS": "yes", "PRODUCTION": "", "COMMENTS": "Assays are in Bulletin 37."}}, {"type": "Feature", "id": 1881, "geometry": {"type": "Point", "coordinates": [-120.8986, 47.4064]}, "properties": {"OBJECTID": 1881, "SITE_ID": 2082, "SITE_NAME": "Teanaway", "ALTERNATE_NAMES": "", "PRIMARY_COMMODITY": "Iron (Fe)", "COMMODITIES": "Iron, nickel, chromium", "ORE_MINERALS": "", "GANGUE": "", "LOCATION_DESCRIPTION": "About 3 mi S of Mt. Stuart, E of Teanaway River", "LEGAL_DESCRIPTION": "sec. 12 probable, T22N, R15E", "LOCATION_ACCURACY": "coordinate accuracy highly variable", "COUNTY": "Kittitas", "LATITUDE": 47.4064, "LONGITUDE": -120.8986, "MINING_DISTRICT": "", "LOCATION_SOURCE": "USGS MAS/MILS Database ", "ASSAYS": "yes", "PRODUCTION": "", "COMMENTS": "Assays are in Bulletin 37."}}, {"type": "Feature", "id": 1967, "geometry": {"type": "Point", "coordinates": [-120.9583, 47.5028]}, "properties": {"OBJECTID": 1967, "SITE_ID": 2171, "SITE_NAME": "Humburg", "ALTERNATE_NAMES": "", "PRIMARY_COMMODITY": "Lead (Pb)", "COMMODITIES": "Lead, silver, gold, copper", "ORE_MINERALS": "Galena, tetrahedrite", "GANGUE": "Quartz", "LOCATION_DESCRIPTION": "In Solomon Creek Gulch near the Silver Fiend prospect", "LEGAL_DESCRIPTION": "T23N, R15E", "LOCATION_ACCURACY": "coordinate accuracy highly variable", "COUNTY": "Chelan", "LATITUDE": 47.5028, "LONGITUDE": -120.9583, "MINING_DISTRICT": "Leavenworth", "LOCATION_SOURCE": "USGS MAS/MILS Database ", "ASSAYS": "", "PRODUCTION": "", "COMMENTS": ""}}, {"type": "Feature", "id": 1974, "geometry": {"type": "Point", "coordinates": [-120.975, 47.5014]}, "properties": {"OBJECTID": 1974, "SITE_ID": 2183, "SITE_NAME": "Silver Fiend", "ALTERNATE_NAMES": "", "PRIMARY_COMMODITY": "Lead (Pb)", "COMMODITIES": "Lead, silver, gold, copper", "ORE_MINERALS": "Galena, tetrahedrite", "GANGUE": "Quartz", "LOCATION_DESCRIPTION": "In Solomon Creek Gulch", "LEGAL_DESCRIPTION": "NW 1/4 of sec. 10, T23N, R15E", "LOCATION_ACCURACY": "coordinate accuracy highly variable", "COUNTY": "Chelan", "LATITUDE": 47.5014, "LONGITUDE": -120.975, "MINING_DISTRICT": "Leavenworth", "LOCATION_SOURCE": "USGS MAS/MILS Database ", "ASSAYS": "", "PRODUCTION": "", "COMMENTS": ""}}, {"type": "Feature", "id": 1977, "geometry": {"type": "Point", "coordinates": [-120.9667, 47.5]}, "properties": {"OBJECTID": 1977, "SITE_ID": 2186, "SITE_NAME": "White Star", "ALTERNATE_NAMES": "", "PRIMARY_COMMODITY": "Lead (Pb)", "COMMODITIES": "Lead, silver, gold, copper", "ORE_MINERALS": "Galena, tetrahedrite", "GANGUE": "Quartz", "LOCATION_DESCRIPTION": "Near Silver Fiend in Solomon Creek Gulch", "LEGAL_DESCRIPTION": "T23N, R15E", "LOCATION_ACCURACY": "coordinate accuracy highly variable", "COUNTY": "Chelan", "LATITUDE": 47.5, "LONGITUDE": -120.9667, "MINING_DISTRICT": "", "LOCATION_SOURCE": "USGS MAS/MILS Database ", "ASSAYS": "", "PRODUCTION": "", "COMMENTS": ""}}, {"type": "Feature", "id": 2371, "geometry": {"type": "Point", "coordinates": [-120.409697, 47.46552]}, "properties": {"OBJECTID": 2371, "SITE_ID": 2615, "SITE_NAME": "Black", "ALTERNATE_NAMES": "", "PRIMARY_COMMODITY": "Manganese (Mn)", "COMMODITIES": "Manganese", "ORE_MINERALS": "Psilomelane, pyrolusite", "GANGUE": "", "LOCATION_DESCRIPTION": "NW of Wenatchee", "LEGAL_DESCRIPTION": "", "LOCATION_ACCURACY": "coordinates estimated from location description", "COUNTY": "Chelan", "LATITUDE": 47.465519784792, "LONGITUDE": -120.409697274698, "MINING_DISTRICT": "", "LOCATION_SOURCE": "Bulletin 37", "ASSAYS": "yes", "PRODUCTION": "", "COMMENTS": "Assays are in Bulletin 37."}}, {"type": "Feature", "id": 2488, "geometry": {"type": "Point", "coordinates": [-120.9136, 47.1531]}, "properties": {"OBJECTID": 2488, "SITE_ID": 2735, "SITE_NAME": "Denney", "ALTERNATE_NAMES": "", "PRIMARY_COMMODITY": "Manganese (Mn)", "COMMODITIES": "Manganese", "ORE_MINERALS": "Manganese oxide", "GANGUE": "", "LOCATION_DESCRIPTION": "Reportedly 5 mi N of Denney's cabin", "LEGAL_DESCRIPTION": "approx. the NW part of of T19N, R15E", "LOCATION_ACCURACY": "coordinate accuracy highly variable", "COUNTY": "Kittitas", "LATITUDE": 47.1531, "LONGITUDE": -120.9136, "MINING_DISTRICT": "", "LOCATION_SOURCE": "USGS MAS/MILS Database ", "ASSAYS": "", "PRODUCTION": "", "COMMENTS": ""}}, {"type": "Feature", "id": 2522, "geometry": {"type": "Point", "coordinates": [-120.7494, 47.4578]}, "properties": {"OBJECTID": 2522, "SITE_ID": 2769, "SITE_NAME": "Bartlett", "ALTERNATE_NAMES": "", "PRIMARY_COMMODITY": "Mercury (Hg)", "COMMODITIES": "Mercury", "ORE_MINERALS": "Cinnabar", "GANGUE": "Quartz, carbonates", "LOCATION_DESCRIPTION": "On N side of Ingalls Creek", "LEGAL_DESCRIPTION": "S 1/2 of sec. 29, T23N, R17E", "LOCATION_ACCURACY": "coordinate accuracy highly variable", "COUNTY": "Chelan", "LATITUDE": 47.4578, "LONGITUDE": -120.7494, "MINING_DISTRICT": "", "LOCATION_SOURCE": "USGS MAS/MILS Database ", "ASSAYS": "", "PRODUCTION": "", "COMMENTS": ""}}, {"type": "Feature", "id": 2523, "geometry": {"type": "Point", "coordinates": [-120.6917, 47.4119]}, "properties": {"OBJECTID": 2523, "SITE_ID": 2770, "SITE_NAME": "King Creek", "ALTERNATE_NAMES": "", "PRIMARY_COMMODITY": "Mercury (Hg)", "COMMODITIES": "Mercury", "ORE_MINERALS": "", "GANGUE": "", "LOCATION_DESCRIPTION": "At head of King Creek", "LEGAL_DESCRIPTION": "sec. 10 probable, T22N, R17E", "LOCATION_ACCURACY": "coordinate accuracy highly variable", "COUNTY": "Chelan", "LATITUDE": 47.4119, "LONGITUDE": -120.6917, "MINING_DISTRICT": "", "LOCATION_SOURCE": "USGS MAS/MILS Database ", "ASSAYS": "", "PRODUCTION": "", "COMMENTS": ""}}, {"type": "Feature", "id": 2525, "geometry": {"type": "Point", "coordinates": [-120.7244, 47.425]}, "properties": {"OBJECTID": 2525, "SITE_ID": 2772, "SITE_NAME": "Shoshone", "ALTERNATE_NAMES": "", "PRIMARY_COMMODITY": "Mercury (Hg)", "COMMODITIES": "Mercury, nickel", "ORE_MINERALS": "Cinnabar, garnierite?", "GANGUE": "Quartz", "LOCATION_DESCRIPTION": "On N side of Negro Creek at end of road", "LEGAL_DESCRIPTION": "sec. 4, T22N, R17E", "LOCATION_ACCURACY": "coordinate accuracy highly variable", "COUNTY": "Chelan", "LATITUDE": 47.425, "LONGITUDE": -120.7244, "MINING_DISTRICT": "", "LOCATION_SOURCE": "USGS MAS/MILS Database ", "ASSAYS": "", "PRODUCTION": "", "COMMENTS": ""}}, {"type": "Feature", "id": 2526, "geometry": {"type": "Point", "coordinates": [-120.345181, 47.399977]}, "properties": {"OBJECTID": 2526, "SITE_ID": 2773, "SITE_NAME": "Squaw Saddle", "ALTERNATE_NAMES": "", "PRIMARY_COMMODITY": "Mercury (Hg)", "COMMODITIES": "Mercury", "ORE_MINERALS": "Cinnabar", "GANGUE": "", "LOCATION_DESCRIPTION": "On Squaw Saddle Mtn., 3 mi from Wenatchee", "LEGAL_DESCRIPTION": "", "LOCATION_ACCURACY": "coordinates estimated from location description", "COUNTY": "Chelan", "LATITUDE": 47.3999772342259, "LONGITUDE": -120.345180824947, "MINING_DISTRICT": "", "LOCATION_SOURCE": "Bulletin 37", "ASSAYS": "", "PRODUCTION": "", "COMMENTS": ""}}, {"type": "Feature", "id": 2527, "geometry": {"type": "Point", "coordinates": [-120.7439, 47.4489]}, "properties": {"OBJECTID": 2527, "SITE_ID": 2775, "SITE_NAME": "Velma", "ALTERNATE_NAMES": "", "PRIMARY_COMMODITY": "Mercury (Hg)", "COMMODITIES": "Mercury, nickel, gold, silver, copper", "ORE_MINERALS": "Cinnabar, garnierite?", "GANGUE": "Quartz, carbonates", "LOCATION_DESCRIPTION": "On S side of Ingalls Creek", "LEGAL_DESCRIPTION": "N 1/2 of sec. 32, T23N, R17E", "LOCATION_ACCURACY": "coordinate accuracy highly variable", "COUNTY": "Chelan", "LATITUDE": 47.4489, "LONGITUDE": -120.7439, "MINING_DISTRICT": "", "LOCATION_SOURCE": "USGS MAS/MILS Database ", "ASSAYS": "yes", "PRODUCTION": "", "COMMENTS": "Assays are in Bulletin 37."}}, {"type": "Feature", "id": 2533, "geometry": {"type": "Point", "coordinates": [-120.994554, 47.447071]}, "properties": {"OBJECTID": 2533, "SITE_ID": 2781, "SITE_NAME": "Ben Nevis", "ALTERNATE_NAMES": "Near Mt Hawkins", "PRIMARY_COMMODITY": "Mercury (Hg)", "COMMODITIES": "Mercury", "ORE_MINERALS": "Cinnabar", "GANGUE": "", "LOCATION_DESCRIPTION": "Near Mt. Hawkins", "LEGAL_DESCRIPTION": "", "LOCATION_ACCURACY": "coordinates estimated from location description", "COUNTY": "Kittitas", "LATITUDE": 47.4470709449126, "LONGITUDE": -120.994553769439, "MINING_DISTRICT": "", "LOCATION_SOURCE": "Bulletin 37", "ASSAYS": "", "PRODUCTION": "", "COMMENTS": ""}}, {"type": "Feature", "id": 2534, "geometry": {"type": "Point", "coordinates": [-120.8583, 47.4114]}, "properties": {"OBJECTID": 2534, "SITE_ID": 2782, "SITE_NAME": "Big Thing", "ALTERNATE_NAMES": "", "PRIMARY_COMMODITY": "Mercury (Hg)", "COMMODITIES": "Mercury", "ORE_MINERALS": "Cinnabar", "GANGUE": "", "LOCATION_DESCRIPTION": "", "LEGAL_DESCRIPTION": "sec. 8, T22N, R16E", "LOCATION_ACCURACY": "coordinate accuracy highly variable", "COUNTY": "Kittitas", "LATITUDE": 47.4114, "LONGITUDE": -120.8583, "MINING_DISTRICT": "", "LOCATION_SOURCE": "USGS MAS/MILS Database ", "ASSAYS": "", "PRODUCTION": "", "COMMENTS": ""}}, {"type": "Feature", "id": 2535, "geometry": {"type": "Point", "coordinates": [-120.589013, 47.257238]}, "properties": {"OBJECTID": 2535, "SITE_ID": 2783, "SITE_NAME": "Boulder Creek", "ALTERNATE_NAMES": "", "PRIMARY_COMMODITY": "Mercury (Hg)", "COMMODITIES": "Mercury", "ORE_MINERALS": "Cinnabar", "GANGUE": "", "LOCATION_DESCRIPTION": "Near head of Boulder Creek", "LEGAL_DESCRIPTION": "", "LOCATION_ACCURACY": "coordinates estimated from location description", "COUNTY": "Kittitas", "LATITUDE": 47.2572379122274, "LONGITUDE": -120.589013172877, "MINING_DISTRICT": "", "LOCATION_SOURCE": "Bulletin 37", "ASSAYS": "", "PRODUCTION": "yes", "COMMENTS": "Production information is in OFR 90-18."}}, {"type": "Feature", "id": 2537, "geometry": {"type": "Point", "coordinates": [-120.956958, 47.103625]}, "properties": {"OBJECTID": 2537, "SITE_ID": 2786, "SITE_NAME": "H-O-M-E", "ALTERNATE_NAMES": "", "PRIMARY_COMMODITY": "Mercury (Hg)", "COMMODITIES": "Mercury", "ORE_MINERALS": "Cinnabar, mercury (quicksilver)", "GANGUE": "", "LOCATION_DESCRIPTION": "Near junction of Frosty and Taneum Creeks", "LEGAL_DESCRIPTION": "secs. 26, 28, and 34, T19N, R15E", "LOCATION_ACCURACY": "generally from USGS 7.5-minute topographic map", "COUNTY": "Kittitas", "LATITUDE": 47.103625, "LONGITUDE": -120.956958, "MINING_DISTRICT": "", "LOCATION_SOURCE": "Open File Report 90-18", "ASSAYS": "", "PRODUCTION": "yes", "COMMENTS": "Production information is in Bulletin 37."}}, {"type": "Feature", "id": 2538, "geometry": {"type": "Point", "coordinates": [-120.9875, 47.4425]}, "properties": {"OBJECTID": 2538, "SITE_ID": 2787, "SITE_NAME": "Keystone", "ALTERNATE_NAMES": "", "PRIMARY_COMMODITY": "Mercury (Hg)", "COMMODITIES": "Mercury, gold, nickel", "ORE_MINERALS": "", "GANGUE": "", "LOCATION_DESCRIPTION": "", "LEGAL_DESCRIPTION": "sec. 33, T23N, R15E", "LOCATION_ACCURACY": "coordinate accuracy highly variable", "COUNTY": "Kittitas", "LATITUDE": 47.4425, "LONGITUDE": -120.9875, "MINING_DISTRICT": "Cle Elum", "LOCATION_SOURCE": "USGS MAS/MILS Database ", "ASSAYS": "", "PRODUCTION": "", "COMMENTS": ""}}, {"type": "Feature", "id": 2539, "geometry": {"type": "Point", "coordinates": [-120.966086, 47.104228]}, "properties": {"OBJECTID": 2539, "SITE_ID": 2788, "SITE_NAME": "Silver Tip", "ALTERNATE_NAMES": "", "PRIMARY_COMMODITY": "Mercury (Hg)", "COMMODITIES": "Mercury", "ORE_MINERALS": "Cinnabar, mercury (quicksilver)", "GANGUE": "", "LOCATION_DESCRIPTION": "On N side of S Fork of Taneum Creek", "LEGAL_DESCRIPTION": "near center SE 1/4 of sec. 28, T19N, R15E", "LOCATION_ACCURACY": "generally from USGS 7.5-minute topographic map", "COUNTY": "Kittitas", "LATITUDE": 47.104228, "LONGITUDE": -120.966086, "MINING_DISTRICT": "", "LOCATION_SOURCE": "Open File Report 90-18", "ASSAYS": "yes", "PRODUCTION": "yes", "COMMENTS": "Assays are in Bulletin 37. Production information is in Bulletin 37."}}, {"type": "Feature", "id": 2540, "geometry": {"type": "Point", "coordinates": [-120.9933, 47.42]}, "properties": {"OBJECTID": 2540, "SITE_ID": 2789, "SITE_NAME": "Teanaway River", "ALTERNATE_NAMES": "", "PRIMARY_COMMODITY": "Mercury (Hg)", "COMMODITIES": "Mercury", "ORE_MINERALS": "Cinnabar", "GANGUE": "", "LOCATION_DESCRIPTION": "At head of Middle Fork of Teanaway River", "LEGAL_DESCRIPTION": "", "LOCATION_ACCURACY": "coordinate accuracy highly variable", "COUNTY": "Kittitas", "LATITUDE": 47.42, "LONGITUDE": -120.9933, "MINING_DISTRICT": "", "LOCATION_SOURCE": "USGS MAS/MILS Database ", "ASSAYS": "", "PRODUCTION": "yes", "COMMENTS": "Production information is in OFR 90-18."}}, {"type": "Feature", "id": 2562, "geometry": {"type": "Point", "coordinates": [-120.9344, 47.4908]}, "properties": {"OBJECTID": 2562, "SITE_ID": 2813, "SITE_NAME": "Jack Creek", "ALTERNATE_NAMES": "", "PRIMARY_COMMODITY": "Molybdenum (Mo)", "COMMODITIES": "Molybdenum, arsenic", "ORE_MINERALS": "Molybdenite", "GANGUE": "", "LOCATION_DESCRIPTION": "On Jack Creek on N side of Mt. Stuart", "LEGAL_DESCRIPTION": "", "LOCATION_ACCURACY": "coordinate accuracy highly variable", "COUNTY": "Chelan", "LATITUDE": 47.4908, "LONGITUDE": -120.9344, "MINING_DISTRICT": "", "LOCATION_SOURCE": "USGS MAS/MILS Database ", "ASSAYS": "", "PRODUCTION": "", "COMMENTS": ""}}, {"type": "Feature", "id": 2600, "geometry": {"type": "Point", "coordinates": [-120.6608, 47.4756]}, "properties": {"OBJECTID": 2600, "SITE_ID": 2852, "SITE_NAME": "Garnierite", "ALTERNATE_NAMES": "", "PRIMARY_COMMODITY": "Nickel (Ni)", "COMMODITIES": "Nickel", "ORE_MINERALS": "Garnierite", "GANGUE": "Silica-carbonate rock", "LOCATION_DESCRIPTION": "", "LEGAL_DESCRIPTION": "secs. 24 and 19, T23N, R17E; T23N, R18E", "LOCATION_ACCURACY": "coordinate accuracy highly variable", "COUNTY": "Chelan", "LATITUDE": 47.4756, "LONGITUDE": -120.6608, "MINING_DISTRICT": "", "LOCATION_SOURCE": "USGS MAS/MILS Database ", "ASSAYS": "yes", "PRODUCTION": "", "COMMENTS": "Assays are in Bulletin 37."}}, {"type": "Feature", "id": 2602, "geometry": {"type": "Point", "coordinates": [-120.9125, 47.4547]}, "properties": {"OBJECTID": 2602, "SITE_ID": 2854, "SITE_NAME": "Hardcash", "ALTERNATE_NAMES": "", "PRIMARY_COMMODITY": "Nickel (Ni)", "COMMODITIES": "Nickel, chromium", "ORE_MINERALS": "", "GANGUE": "", "LOCATION_DESCRIPTION": "Near Mt. Stuart", "LEGAL_DESCRIPTION": "sec. 25, T23N, R15E", "LOCATION_ACCURACY": "coordinate accuracy highly variable", "COUNTY": "Chelan", "LATITUDE": 47.4547, "LONGITUDE": -120.9125, "MINING_DISTRICT": "", "LOCATION_SOURCE": "USGS MAS/MILS Database ", "ASSAYS": "yes", "PRODUCTION": "", "COMMENTS": "Assays are in Bulletin 37."}}, {"type": "Feature", "id": 2603, "geometry": {"type": "Point", "coordinates": [-120.660457, 47.42018]}, "properties": {"OBJECTID": 2603, "SITE_ID": 2855, "SITE_NAME": "Peshastin", "ALTERNATE_NAMES": "", "PRIMARY_COMMODITY": "Nickel (Ni)", "COMMODITIES": "Nickel", "ORE_MINERALS": "Green stain", "GANGUE": "Quartz, calcite, magnesite", "LOCATION_DESCRIPTION": "On hillside just W of old town of Blewett", "LEGAL_DESCRIPTION": "SW 1/4 of the SW 1/4 of sec. 1, T22N, R17E", "LOCATION_ACCURACY": "coordinates estimated from legal description", "COUNTY": "Chelan", "LATITUDE": 47.4201799342576, "LONGITUDE": -120.660456958284, "MINING_DISTRICT": "", "LOCATION_SOURCE": "Bulletin 37", "ASSAYS": "", "PRODUCTION": "", "COMMENTS": ""}}, {"type": "Feature", "id": 2604, "geometry": {"type": "Point", "coordinates": [-120.6436, 47.4725]}, "properties": {"OBJECTID": 2604, "SITE_ID": 2856, "SITE_NAME": "Peshastin Creek", "ALTERNATE_NAMES": "", "PRIMARY_COMMODITY": "Nickel (Ni)", "COMMODITIES": "Nickel", "ORE_MINERALS": "Reportedly garnierite", "GANGUE": "Chalcedonic quartz, carbonates", "LOCATION_DESCRIPTION": "", "LEGAL_DESCRIPTION": "SW 1/4 of sec. 19, T23N, R18E", "LOCATION_ACCURACY": "coordinate accuracy highly variable", "COUNTY": "Chelan", "LATITUDE": 47.4725, "LONGITUDE": -120.6436, "MINING_DISTRICT": "", "LOCATION_SOURCE": "USGS MAS/MILS Database ", "ASSAYS": "yes", "PRODUCTION": "", "COMMENTS": "Assays are in Bulletin 37."}}, {"type": "Feature", "id": 2605, "geometry": {"type": "Point", "coordinates": [-120.6272, 47.475]}, "properties": {"OBJECTID": 2605, "SITE_ID": 2857, "SITE_NAME": "Stephens", "ALTERNATE_NAMES": "", "PRIMARY_COMMODITY": "Nickel (Ni)", "COMMODITIES": "Nickel", "ORE_MINERALS": "", "GANGUE": "", "LOCATION_DESCRIPTION": "", "LEGAL_DESCRIPTION": "secs. 19 and 20, T23N, R18E", "LOCATION_ACCURACY": "coordinate accuracy highly variable", "COUNTY": "Chelan", "LATITUDE": 47.475, "LONGITUDE": -120.6272, "MINING_DISTRICT": "", "LOCATION_SOURCE": "USGS MAS/MILS Database ", "ASSAYS": "", "PRODUCTION": "", "COMMENTS": ""}}, {"type": "Feature", "id": 2611, "geometry": {"type": "Point", "coordinates": [-120.9644, 47.4528]}, "properties": {"OBJECTID": 2611, "SITE_ID": 2863, "SITE_NAME": "Teanaway", "ALTERNATE_NAMES": "", "PRIMARY_COMMODITY": "Nickel (Ni)", "COMMODITIES": "Nickel, copper", "ORE_MINERALS": "Pyrrhotite, chalcopyrite", "GANGUE": "", "LOCATION_DESCRIPTION": "", "LEGAL_DESCRIPTION": "NW 1/4 of sec. 16, T23N, R15E", "LOCATION_ACCURACY": "coordinate accuracy highly variable", "COUNTY": "Kittitas", "LATITUDE": 47.4528, "LONGITUDE": -120.9644, "MINING_DISTRICT": "", "LOCATION_SOURCE": "USGS MAS/MILS Database ", "ASSAYS": "", "PRODUCTION": "", "COMMENTS": ""}}, {"type": "Feature", "id": 2647, "geometry": {"type": "Point", "coordinates": [-120.64994, 47.628204]}, "properties": {"OBJECTID": 2647, "SITE_ID": 2902, "SITE_NAME": "Leavenworth Placer", "ALTERNATE_NAMES": "", "PRIMARY_COMMODITY": "Platinum (Pt)", "COMMODITIES": "Platinum", "ORE_MINERALS": "", "GANGUE": "", "LOCATION_DESCRIPTION": "Presumably near Leavenworth", "LEGAL_DESCRIPTION": "", "LOCATION_ACCURACY": "coordinates estimated from location description", "COUNTY": "Chelan", "LATITUDE": 47.6282036966053, "LONGITUDE": -120.649939781455, "MINING_DISTRICT": "", "LOCATION_SOURCE": "Bulletin 37", "ASSAYS": "yes", "PRODUCTION": "", "COMMENTS": "Assays are in Bulletin 37."}}, {"type": "Feature", "id": 2651, "geometry": {"type": "Point", "coordinates": [-120.7856, 47.4925]}, "properties": {"OBJECTID": 2651, "SITE_ID": 2906, "SITE_NAME": "Negro Creek Placer", "ALTERNATE_NAMES": "", "PRIMARY_COMMODITY": "Platinum (Pt)", "COMMODITIES": "Platinum", "ORE_MINERALS": "", "GANGUE": "", "LOCATION_DESCRIPTION": "6 mi above the mouth of Negro Creek", "LEGAL_DESCRIPTION": "", "LOCATION_ACCURACY": "coordinate accuracy highly variable", "COUNTY": "Chelan", "LATITUDE": 47.4925, "LONGITUDE": -120.7856, "MINING_DISTRICT": "", "LOCATION_SOURCE": "USGS MAS/MILS Database ", "ASSAYS": "", "PRODUCTION": "yes", "COMMENTS": "Production information is in Bulletin 37."}}, {"type": "Feature", "id": 2940, "geometry": {"type": "Point", "coordinates": [-120.4189, 47.4731]}, "properties": {"OBJECTID": 2940, "SITE_ID": 3229, "SITE_NAME": "Monitor", "ALTERNATE_NAMES": "", "PRIMARY_COMMODITY": "Tin (Sn)", "COMMODITIES": "Tin", "ORE_MINERALS": "", "GANGUE": "", "LOCATION_DESCRIPTION": "Near Monitor", "LEGAL_DESCRIPTION": "sec. 23, T23N, R19E", "LOCATION_ACCURACY": "coordinate accuracy highly variable", "COUNTY": "Chelan", "LATITUDE": 47.4731, "LONGITUDE": -120.4189, "MINING_DISTRICT": "", "LOCATION_SOURCE": "USGS MAS/MILS Database ", "ASSAYS": "", "PRODUCTION": "", "COMMENTS": ""}}, {"type": "Feature", "id": 2941, "geometry": {"type": "Point", "coordinates": [-120.62184, 47.530033]}, "properties": {"OBJECTID": 2941, "SITE_ID": 3230, "SITE_NAME": "Peshastin Creek", "ALTERNATE_NAMES": "", "PRIMARY_COMMODITY": "Tin (Sn)", "COMMODITIES": "Tin", "ORE_MINERALS": "", "GANGUE": "", "LOCATION_DESCRIPTION": "On Peshastin Creek, near base of Mt. Stuart", "LEGAL_DESCRIPTION": "", "LOCATION_ACCURACY": "coordinates estimated from location description", "COUNTY": "Chelan", "LATITUDE": 47.5300325170788, "LONGITUDE": -120.621839580599, "MINING_DISTRICT": "", "LOCATION_SOURCE": "Bulletin 37", "ASSAYS": "yes", "PRODUCTION": "", "COMMENTS": "Assays are in Bulletin 37."}}, {"type": "Feature", "id": 2957, "geometry": {"type": "Point", "coordinates": [-120.6606, 47.425]}, "properties": {"OBJECTID": 2957, "SITE_ID": 3246, "SITE_NAME": "Blewett Tungsten", "ALTERNATE_NAMES": "", "PRIMARY_COMMODITY": "Tungsten (W)", "COMMODITIES": "Tungsten", "ORE_MINERALS": "Scheelite", "GANGUE": "", "LOCATION_DESCRIPTION": "", "LEGAL_DESCRIPTION": "sec. 1, T22N, R17E", "LOCATION_ACCURACY": "coordinate accuracy highly variable", "COUNTY": "Chelan", "LATITUDE": 47.425, "LONGITUDE": -120.6606, "MINING_DISTRICT": "Blewett", "LOCATION_SOURCE": "USGS MAS/MILS Database ", "ASSAYS": "", "PRODUCTION": "", "COMMENTS": ""}}, {"type": "Feature", "id": 3000, "geometry": {"type": "Point", "coordinates": [-120.694295, 47.40921]}, "properties": {"OBJECTID": 3000, "SITE_ID": 3289, "SITE_NAME": "Peshastin", "ALTERNATE_NAMES": "", "PRIMARY_COMMODITY": "Uranium (U)", "COMMODITIES": "Uranium, but the occurrence has not been authenticated", "ORE_MINERALS": "Probably a silicate", "GANGUE": "", "LOCATION_DESCRIPTION": "12 mi from Peshastin", "LEGAL_DESCRIPTION": "", "LOCATION_ACCURACY": "coordinates estimated from location description", "COUNTY": "Chelan", "LATITUDE": 47.4092097426674, "LONGITUDE": -120.694295124689, "MINING_DISTRICT": "", "LOCATION_SOURCE": "Bulletin 37", "ASSAYS": "", "PRODUCTION": "", "COMMENTS": ""}}, {"type": "Feature", "id": 3077, "geometry": {"type": "Point", "coordinates": [-120.5269, 47.6331]}, "properties": {"OBJECTID": 3077, "SITE_ID": 3366, "SITE_NAME": "Dryden", "ALTERNATE_NAMES": "", "PRIMARY_COMMODITY": "Vanadium (V)", "COMMODITIES": "Vanadium", "ORE_MINERALS": "", "GANGUE": "", "LOCATION_DESCRIPTION": "12 to 15 mi from Dryden", "LEGAL_DESCRIPTION": "", "LOCATION_ACCURACY": "coordinate accuracy highly variable", "COUNTY": "Chelan", "LATITUDE": 47.6331, "LONGITUDE": -120.5269, "MINING_DISTRICT": "", "LOCATION_SOURCE": "USGS MAS/MILS Database ", "ASSAYS": "", "PRODUCTION": "", "COMMENTS": ""}}, {"type": "Feature", "id": 3394, "geometry": {"type": "Point", "coordinates": [-120.658183, 47.392367]}, "properties": {"OBJECTID": 3394, "SITE_ID": 3874, "SITE_NAME": "Blewett Iron", "ALTERNATE_NAMES": "Blewett, Washington Nickel", "PRIMARY_COMMODITY": "Iron (Fe)", "COMMODITIES": "Iron, nickel, chromium", "ORE_MINERALS": "Hematite, magnetite, chromite, nickel silicates", "GANGUE": "Serpentine, clay-rich residuum of laterites", "LOCATION_DESCRIPTION": "On a prominent ridge N of Shaser Creek at its junction with Peshastin Creek", "LEGAL_DESCRIPTION": "secs. 13 and 14, T22N, R17E", "LOCATION_ACCURACY": "generally from USGS 7.5-minute topographic map", "COUNTY": "Chelan", "LATITUDE": 47.392367, "LONGITUDE": -120.658183, "MINING_DISTRICT": "Blewett", "LOCATION_SOURCE": "Open File Report 90-18", "ASSAYS": "", "PRODUCTION": "yes", "COMMENTS": "Production information is in OFR 90-18."}}, {"type": "Feature", "id": 3531, "geometry": {"type": "Point", "coordinates": [-120.354, 47.4246]}, "properties": {"OBJECTID": 3531, "SITE_ID": 4012, "SITE_NAME": "Bumping Lake Mining District", "ALTERNATE_NAMES": "Bumping Lake District", "PRIMARY_COMMODITY": "Copper (Cu)", "COMMODITIES": "Copper", "ORE_MINERALS": "", "GANGUE": "", "LOCATION_DESCRIPTION": "", "LEGAL_DESCRIPTION": "", "LOCATION_ACCURACY": "mining district centroid", "COUNTY": "", "LATITUDE": 47.4246, "LONGITUDE": -120.354, "MINING_DISTRICT": "Bumping Lake", "LOCATION_SOURCE": "Mining in the Pacific Northwest", "ASSAYS": "", "PRODUCTION": "", "COMMENTS": ""}}]}