{"type": "FeatureCollection", "features": [{"type": "Feature", "id": 1093, "geometry": {"type": "Polygon", "coordinates": [[[-120.63087, 47.28188], [-120.64119, 47.28189], [-120.6412, 47.27468], [-120.63081, 47.27466], [-120.63087, 47.28188]]]}, "properties": {"OBJECTID": 1093, "ID": "799126732438241320", "CSE_NAME": "WHITE LIGHTING", "STAGE_ID": null, "BLM_PROD": "LODE CLAIM", "CSE_TYPE_NR": "384101", "CSE_NR": "OR101369296", "LEG_CSE_NR": "ORMC163684", "SF_ID": "a02t00000058rFOAAY", "CSE_DISP": "Closed", "SRC": "LLD", "QLTY": "8: SIMPLE\nSECTION CONTAINS 5 OR LESS POLYGONS\naliquot\n36 sections retrieved\n36 intersected features retrieved\n1 matching sections found\nsection 30 issimple: False", "CSE_META": "WA 33 0210N 0180E 030 A SW", "RCRD_ACRS": 13.77, "Created": 1610668800000, "Modified": 1786736149000, "Shape__Area": 7.473057867259052e-05, "Shape__Length": 0.03514380436969908}}, {"type": "Feature", "id": 33928, "geometry": {"type": "Polygon", "coordinates": [[[-120.6835, 47.31804], [-120.68884, 47.31804], [-120.69151, 47.31804], [-120.69163, 47.31804], [-120.69174, 47.31803], [-120.69218, 47.31803], [-120.69337, 47.31803], [-120.69344, 47.31803], [-120.69351, 47.31803], [-120.69366, 47.31803], [-120.69418, 47.31803], [-120.70486, 47.31803], [-120.70486, 47.31086], [-120.70486, 47.31082], [-120.70487, 47.30725], [-120.70487, 47.30362], [-120.69955, 47.30361], [-120.69954, 47.30361], [-120.69746, 47.30361], [-120.69688, 47.3036], [-120.69532, 47.30359], [-120.69424, 47.30359], [-120.69423, 47.30359], [-120.68892, 47.30358], [-120.68361, 47.30357], [-120.68358, 47.30717], [-120.68358, 47.30719], [-120.68355, 47.31081], [-120.68352, 47.31442], [-120.68352, 47.31443], [-120.6835, 47.31804]]]}, "properties": {"OBJECTID": 33928, "ID": "1412459401549373440", "CSE_NAME": "Gold Claim Northwest 2", "STAGE_ID": "1412454286188744704", "BLM_PROD": "PLACER CLAIM", "CSE_TYPE_NR": "384201", "CSE_NR": "OR106747552", "LEG_CSE_NR": "", "SF_ID": "a02SJ00000Bte89YAB", "CSE_DISP": "Closed", "SRC": "LLD/CLS", "QLTY": "8; Only mapped PLSS First Div, aliquot", "CSE_META": "WA 33 0210N 0170E 015 E1/2ofSW1/4NE1/4", "RCRD_ACRS": 20, "Created": 1756771200000, "Modified": 1758737160000, "Shape__Area": 0.00030774868454917656, "Shape__Length": 0.07150535998796614}}, {"type": "Feature", "id": 33929, "geometry": {"type": "Polygon", "coordinates": [[[-120.6835, 47.31804], [-120.68884, 47.31804], [-120.69151, 47.31804], [-120.69163, 47.31804], [-120.69174, 47.31803], [-120.69218, 47.31803], [-120.69337, 47.31803], [-120.69344, 47.31803], [-120.69351, 47.31803], [-120.69366, 47.31803], [-120.69418, 47.31803], [-120.70486, 47.31803], [-120.70486, 47.31086], [-120.70486, 47.31082], [-120.70487, 47.30725], [-120.70487, 47.30362], [-120.69955, 47.30361], [-120.69954, 47.30361], [-120.69746, 47.30361], [-120.69688, 47.3036], [-120.69532, 47.30359], [-120.69424, 47.30359], [-120.69423, 47.30359], [-120.68892, 47.30358], [-120.68361, 47.30357], [-120.68358, 47.30717], [-120.68358, 47.30719], [-120.68355, 47.31081], [-120.68352, 47.31442], [-120.68352, 47.31443], [-120.6835, 47.31804]]]}, "properties": {"OBJECTID": 33929, "ID": "1412457782241845248", "CSE_NAME": "Gold Claim Northwest", "STAGE_ID": "1412454957000560640", "BLM_PROD": "PLACER CLAIM", "CSE_TYPE_NR": "384201", "CSE_NR": "OR106747550", "LEG_CSE_NR": "", "SF_ID": "a02SJ00000BtpIKYAZ", "CSE_DISP": "Closed", "SRC": "LLD/CLS", "QLTY": "8; Only mapped PLSS First Div, aliquot", "CSE_META": "WA 33 0210N 0170E 015 E1/2ofNW1/4NE1/4", "RCRD_ACRS": 20, "Created": 1756771200000, "Modified": 1758737160000, "Shape__Area": 0.00030774868454917656, "Shape__Length": 0.07150535998796614}}, {"type": "Feature", "id": 33930, "geometry": {"type": "Polygon", "coordinates": [[[-120.6835, 47.31804], [-120.68884, 47.31804], [-120.69151, 47.31804], [-120.69163, 47.31804], [-120.69174, 47.31803], [-120.69218, 47.31803], [-120.69337, 47.31803], [-120.69344, 47.31803], [-120.69351, 47.31803], [-120.69366, 47.31803], [-120.69418, 47.31803], [-120.70486, 47.31803], [-120.70486, 47.31086], [-120.70486, 47.31082], [-120.70487, 47.30725], [-120.70487, 47.30362], [-120.69955, 47.30361], [-120.69954, 47.30361], [-120.69746, 47.30361], [-120.69688, 47.3036], [-120.69532, 47.30359], [-120.69424, 47.30359], [-120.69423, 47.30359], [-120.68892, 47.30358], [-120.68361, 47.30357], [-120.68358, 47.30717], [-120.68358, 47.30719], [-120.68355, 47.31081], [-120.68352, 47.31442], [-120.68352, 47.31443], [-120.6835, 47.31804]]]}, "properties": {"OBJECTID": 33930, "ID": "1418322394946269184", "CSE_NAME": "Joekerr 1", "STAGE_ID": "1418321212450467840", "BLM_PROD": "PLACER CLAIM", "CSE_TYPE_NR": "384201", "CSE_NR": "OR106750139", "LEG_CSE_NR": null, "SF_ID": "a02SJ00000CReiPYAT", "CSE_DISP": "Closed", "SRC": "LLD", "QLTY": "8; 0 intersecting parts, Only mapped PLSS First Div, aliquot", "CSE_META": "WA 33 0210N 0170E 015", "RCRD_ACRS": 20, "Created": 1758153600000, "Modified": 1758824869000, "Shape__Area": 0.00030774868454917656, "Shape__Length": 0.07150535998796614}}, {"type": "Feature", "id": 33931, "geometry": {"type": "Polygon", "coordinates": [[[-120.6835, 47.31804], [-120.68884, 47.31804], [-120.69151, 47.31804], [-120.69163, 47.31804], [-120.69174, 47.31803], [-120.69218, 47.31803], [-120.69337, 47.31803], [-120.69344, 47.31803], [-120.69351, 47.31803], [-120.69366, 47.31803], [-120.69418, 47.31803], [-120.70486, 47.31803], [-120.70486, 47.31086], [-120.70486, 47.31082], [-120.70487, 47.30725], [-120.70487, 47.30362], [-120.69955, 47.30361], [-120.69954, 47.30361], [-120.69746, 47.30361], [-120.69688, 47.3036], [-120.69532, 47.30359], [-120.69424, 47.30359], [-120.69423, 47.30359], [-120.68892, 47.30358], [-120.68361, 47.30357], [-120.68358, 47.30717], [-120.68358, 47.30719], [-120.68355, 47.31081], [-120.68352, 47.31442], [-120.68352, 47.31443], [-120.6835, 47.31804]]]}, "properties": {"OBJECTID": 33931, "ID": "1418323665459671040", "CSE_NAME": "Kerr1", "STAGE_ID": "1418317718029004800", "BLM_PROD": "PLACER CLAIM", "CSE_TYPE_NR": "384201", "CSE_NR": "OR106750142", "LEG_CSE_NR": null, "SF_ID": "a02SJ00000CRbEHYA1", "CSE_DISP": "Closed", "SRC": "LLD", "QLTY": "8; 0 intersecting parts, Only mapped PLSS First Div, aliquot", "CSE_META": "WA 33 0210N 0170E 015", "RCRD_ACRS": 20, "Created": 1758153600000, "Modified": 1758828230000, "Shape__Area": 0.00030774868454917656, "Shape__Length": 0.07150535998796614}}, {"type": "Feature", "id": 34115, "geometry": {"type": "Polygon", "coordinates": [[[-120.66244, 47.28192], [-120.65181, 47.2819], [-120.6518, 47.28912], [-120.6624, 47.28914], [-120.67304, 47.28912], [-120.67308, 47.2819], [-120.66244, 47.28192]]]}, "properties": {"OBJECTID": 34115, "ID": "799126732752814160", "CSE_NAME": "TWO BIT #10", "STAGE_ID": null, "BLM_PROD": "LODE CLAIM", "CSE_TYPE_NR": "384101", "CSE_NR": "OR101432447", "LEG_CSE_NR": "ORMC86971", "SF_ID": "a02t000000584nyAAA", "CSE_DISP": "Closed", "SRC": "LLD", "QLTY": "8: MIDPOINT\nSECTION CONTAINS 5 OR LESS POLYGONS\naliquot\n36 sections retrieved\n37 intersected features retrieved\n1 matching sections found\nsection 25 issimple: False, MIDPOINT\nSECTION CONTAINS 5 OR LESS POLYGONS\naliquot\n36 sections retrieved\n37 intersected", "CSE_META": "WA 33 0210N 0170E 025 A NW|WA 33 0210N 0170E 026 A NE", "RCRD_ACRS": 20.66, "Created": 1610668800000, "Modified": 1758816180000, "Shape__Area": 0.00015349767124932254, "Shape__Length": 0.056957863446545444}}, {"type": "Feature", "id": 34116, "geometry": {"type": "Polygon", "coordinates": [[[-120.66244, 47.28192], [-120.6624, 47.28914], [-120.67304, 47.28912], [-120.67308, 47.2819], [-120.66244, 47.28192]]]}, "properties": {"OBJECTID": 34116, "ID": "799126715111571478", "CSE_NAME": "TWO BIT #11", "STAGE_ID": null, "BLM_PROD": "LODE CLAIM", "CSE_TYPE_NR": "384101", "CSE_NR": "OR101483568", "LEG_CSE_NR": "ORMC86972", "SF_ID": "a02t000000586PDAAY", "CSE_DISP": "Closed", "SRC": "LLD", "QLTY": "8: MIDPOINT\nSECTION CONTAINS 5 OR LESS POLYGONS\naliquot\n36 sections retrieved\n37 intersected features retrieved\n1 matching sections found\nsection 26 issimple: False", "CSE_META": "WA 33 0210N 0170E 026 A NE", "RCRD_ACRS": 20.66, "Created": 1610668800000, "Modified": 1758816290000, "Shape__Area": 7.686431638483402e-05, "Shape__Length": 0.03572930758664662}}, {"type": "Feature", "id": 34117, "geometry": {"type": "Polygon", "coordinates": [[[-120.66244, 47.28192], [-120.6624, 47.28914], [-120.67304, 47.28912], [-120.67308, 47.2819], [-120.66244, 47.28192]]]}, "properties": {"OBJECTID": 34117, "ID": "799126733109330022", "CSE_NAME": "TWO BIT #12", "STAGE_ID": null, "BLM_PROD": "LODE CLAIM", "CSE_TYPE_NR": "384101", "CSE_NR": "OR101434225", "LEG_CSE_NR": "ORMC86973", "SF_ID": "a02t0000005864bAAA", "CSE_DISP": "Closed", "SRC": "LLD", "QLTY": "8: MIDPOINT\nSECTION CONTAINS 5 OR LESS POLYGONS\naliquot\n36 sections retrieved\n37 intersected features retrieved\n1 matching sections found\nsection 26 issimple: False", "CSE_META": "WA 33 0210N 0170E 026 A NE", "RCRD_ACRS": 20.66, "Created": 1610668800000, "Modified": 1758816420000, "Shape__Area": 7.686431638483402e-05, "Shape__Length": 0.03572930758664662}}, {"type": "Feature", "id": 37093, "geometry": {"type": "Polygon", "coordinates": [[[-120.69152, 47.31623], [-120.69151, 47.31804], [-120.69418, 47.31803], [-120.69418, 47.31623], [-120.69419, 47.31442], [-120.69152, 47.31442], [-120.69152, 47.31623]]]}, "properties": {"OBJECTID": 37093, "ID": "1432346378725646336", "CSE_NAME": "Gold Claim Northwest", "STAGE_ID": "1432340772962877440", "BLM_PROD": "LODE CLAIM", "CSE_TYPE_NR": "384101", "CSE_NR": "OR106754779", "LEG_CSE_NR": "", "SF_ID": "a02SJ00000DXsmvYAD", "CSE_DISP": "Closed", "SRC": "LLD", "QLTY": "4.1; 0 intersecting parts, aliquot", "CSE_META": "WA 33 0210N 0170E 015", "RCRD_ACRS": 15.15151515, "Created": 1761523200000, "Modified": 1764015720000, "Shape__Area": 9.633917192251503e-06, "Shape__Length": 0.012557802017023948}}, {"type": "Feature", "id": 37095, "geometry": {"type": "Polygon", "coordinates": [[[-120.68887, 47.31262], [-120.68886, 47.31442], [-120.69152, 47.31442], [-120.69153, 47.31262], [-120.69154, 47.31081], [-120.68888, 47.31081], [-120.68887, 47.31262]]]}, "properties": {"OBJECTID": 37095, "ID": "1432355860117610496", "CSE_NAME": "Gold Claim Northwest 2.0", "STAGE_ID": "1432355357904257024", "BLM_PROD": "LODE CLAIM", "CSE_TYPE_NR": "384101", "CSE_NR": "OR106754781", "LEG_CSE_NR": "", "SF_ID": "a02SJ00000DXuvCYAT", "CSE_DISP": "Closed", "SRC": "LLD", "QLTY": "4.1; 0 intersecting parts, aliquot", "CSE_META": "WA 33 0210N 0170E 015", "RCRD_ACRS": 18.18181818, "Created": 1761523200000, "Modified": 1764015480000, "Shape__Area": 9.626405607161502e-06, "Shape__Length": 0.012554757499488332}}, {"type": "Feature", "id": 39713, "geometry": {"type": "Polygon", "coordinates": [[[-120.69294, 47.25643], [-120.69295, 47.25462], [-120.69029, 47.25462], [-120.68763, 47.25462], [-120.68761, 47.25643], [-120.69028, 47.25643], [-120.69294, 47.25643]]]}, "properties": {"OBJECTID": 39713, "ID": "1359536377880018944", "CSE_NAME": "Edna G1", "STAGE_ID": "1359536376013484032", "BLM_PROD": "PLACER CLAIM", "CSE_TYPE_NR": "384201", "CSE_NR": "OR106727519", "LEG_CSE_NR": "", "SF_ID": "a02SJ000007qdfaYAA", "CSE_DISP": "Closed", "SRC": "LLD/CLS", "QLTY": "4.1; 1 intersecting parts, aliquot", "CSE_META": "WA 33 0200N 0170E 003 A S2SENE", "RCRD_ACRS": 20, "Created": 1744156800000, "Modified": 1770052560000, "Shape__Area": 9.640511698179503e-06, "Shape__Length": 0.014267725565008419}}, {"type": "Feature", "id": 39849, "geometry": {"type": "Polygon", "coordinates": [[[-120.69439, 47.2601], [-120.69436, 47.26737], [-120.70496, 47.26735], [-120.70502, 47.26007], [-120.69439, 47.2601]]]}, "properties": {"OBJECTID": 39849, "ID": "1153717250386132992", "CSE_NAME": "Selma Point Placer", "STAGE_ID": "1152296690687000576", "BLM_PROD": "PLACER CLAIM", "CSE_TYPE_NR": "384201", "CSE_NR": "OR106318701", "LEG_CSE_NR": "", "SF_ID": "a023d00000H5CR5AAN", "CSE_DISP": "Closed", "SRC": "LLD", "QLTY": "8; MIDPOINT, SECTION CONTAINS 5 OR LESS POLYGONS, aliquot", "CSE_META": "WA 33 0210N 0170E 034 A SW", "RCRD_ACRS": 20, "Created": 1695081600000, "Modified": 1770409020000, "Shape__Area": 7.720378366538702e-05, "Shape__Length": 0.03577623818631892}}, {"type": "Feature", "id": 39850, "geometry": {"type": "Polygon", "coordinates": [[[-120.69439, 47.2601], [-120.69436, 47.26737], [-120.70496, 47.26735], [-120.70502, 47.26007], [-120.69439, 47.2601]]]}, "properties": {"OBJECTID": 39850, "ID": "1153717447665250304", "CSE_NAME": "Selma Point Lode", "STAGE_ID": "1152297697361903616", "BLM_PROD": "PLACER CLAIM", "CSE_TYPE_NR": "384201", "CSE_NR": "OR106318703", "LEG_CSE_NR": "", "SF_ID": "a023d00000H5CR7AAN", "CSE_DISP": "Closed", "SRC": "LLD", "QLTY": "8; ONLY SECTION IN LLD; MIDPOINT, SECTION CONTAINS 5 OR LESS POLYGONS, aliquot", "CSE_META": "WA 33 0210N 0170E 034 | WA 33 0210N 0170E 034 A SW", "RCRD_ACRS": 8.26, "Created": 1695081600000, "Modified": 1770409020000, "Shape__Area": 7.720378366538702e-05, "Shape__Length": 0.03577623818631892}}, {"type": "Feature", "id": 49012, "geometry": {"type": "Polygon", "coordinates": [[[-120.70502, 47.26007], [-120.70496, 47.26735], [-120.70491, 47.27463], [-120.71556, 47.27462], [-120.71562, 47.26733], [-120.71568, 47.26005], [-120.70502, 47.26007]]]}, "properties": {"OBJECTID": 49012, "ID": "799126744169709668", "CSE_NAME": "LA VETA MADRE", "STAGE_ID": null, "BLM_PROD": "LODE CLAIM", "CSE_TYPE_NR": "384101", "CSE_NR": "OR101475296", "LEG_CSE_NR": "ORMC156540", "SF_ID": "a02t00000058VYkAAM", "CSE_DISP": "Closed", "SRC": "LLD", "QLTY": "8: MIDPOINT\nSECTION CONTAINS 5 OR LESS POLYGONS\naliquot\n36 sections retrieved\n37 intersected features retrieved\n2 matching sections found\nsection 33 issimple: False, MIDPOINT\nSECTION CONTAINS 5 OR LESS POLYGONS\naliquot\n36 sections retrieved\n37 intersected", "CSE_META": "WA 33 0210N 0170E 033 A NE|WA 33 0210N 0170E 033 A SE", "RCRD_ACRS": 20.66, "Created": 1610668800000, "Modified": 1772051940000, "Shape__Area": 0.00015517627564791653, "Shape__Length": 0.05043798402165464}}, {"type": "Feature", "id": 49738, "geometry": {"type": "Polygon", "coordinates": [[[-120.67707, 47.23295], [-120.67705, 47.23657], [-120.67703, 47.24019], [-120.68237, 47.24018], [-120.6877, 47.24017], [-120.6877, 47.24009], [-120.6877, 47.23845], [-120.68771, 47.23655], [-120.68773, 47.23292], [-120.6824, 47.23294], [-120.67707, 47.23295]]]}, "properties": {"OBJECTID": 49738, "ID": "1116174682412916736", "CSE_NAME": "Gilberts Groundhog Nuggets Placer", "STAGE_ID": "1116172104023265280", "BLM_PROD": "LODE CLAIM", "CSE_TYPE_NR": "384101", "CSE_NR": "OR105838293", "LEG_CSE_NR": null, "SF_ID": "a023d00000G8pDYAAZ", "CSE_DISP": "Closed", "SRC": "LLD", "QLTY": "1: MIDPOINT\nTYPICAL QUARTER SECTION WITH 4 STANDARD LEGALS ATTRIBUTED\naliquot\n38 sections retrieved\n605 intersected features retrieved\n17 matching sections found\nsection 11 issimple: False, WA330200N0170E0SN110ANWSW\n38 sections retrieved\n605 intersected f", "CSE_META": "WA 33 0200N 0170E 011 A SW|WA 33 0200N 0170E 011 A NWSW|WA 33 0200N 0170E 011 A SESW|WA 33 0200N 0170E 011 A NESW", "RCRD_ACRS": 20, "Created": 1686182400000, "Modified": 1772475660000, "Shape__Area": 7.717188113203452e-05, "Shape__Length": 0.035805284443216415}}, {"type": "Feature", "id": 61896, "geometry": {"type": "Polygon", "coordinates": [[[-120.70496, 47.26735], [-120.70491, 47.27463], [-120.71556, 47.27462], [-120.71562, 47.26733], [-120.70496, 47.26735]]]}, "properties": {"OBJECTID": 61896, "ID": "799126729951019040", "CSE_NAME": "EL DORADO", "STAGE_ID": null, "BLM_PROD": "PLACER CLAIM", "CSE_TYPE_NR": "384201", "CSE_NR": "OR101511545", "LEG_CSE_NR": "ORMC159497", "SF_ID": "a02t00000058bg1AAA", "CSE_DISP": "Closed", "SRC": "LLD", "QLTY": "8: MIDPOINT\nSECTION CONTAINS 5 OR LESS POLYGONS\naliquot\n36 sections retrieved\n37 intersected features retrieved\n2 matching sections found\nsection 33 issimple: False", "CSE_META": "WA 33 0210N 0170E 033 A NE", "RCRD_ACRS": 20, "Created": 1610668800000, "Modified": 1772052000000, "Shape__Area": 7.755695322576252e-05, "Shape__Length": 0.03586642095589718}}, {"type": "Feature", "id": 61904, "geometry": {"type": "Polygon", "coordinates": [[[-120.65156, 47.39709], [-120.65155, 47.40433], [-120.66218, 47.40435], [-120.66223, 47.39711], [-120.65156, 47.39709]]]}, "properties": {"OBJECTID": 61904, "ID": "801974245100879885", "CSE_NAME": "BEAVER DAM", "STAGE_ID": null, "BLM_PROD": "PLACER CLAIM", "CSE_TYPE_NR": "384201", "CSE_NR": "OR101623186", "LEG_CSE_NR": "ORMC165108", "SF_ID": "a02t00000058sQeAAI", "CSE_DISP": "Closed", "SRC": "LLD", "QLTY": "8: MIDPOINT\nSECTION CONTAINS 5 OR LESS POLYGONS\naliquot\n36 sections retrieved\n36 intersected features retrieved\n1 matching sections found\nsection 13 issimple: False", "CSE_META": "WA 33 0220N 0170E 013 A NW", "RCRD_ACRS": 10, "Created": 1611360000000, "Modified": 1772823960000, "Shape__Area": 7.713466986845051e-05, "Shape__Length": 0.035788945126870184}}, {"type": "Feature", "id": 64665, "geometry": {"type": "Polygon", "coordinates": [[[-120.69598, 47.2475], [-120.69407, 47.24748], [-120.69349, 47.24747], [-120.69298, 47.24747], [-120.6929, 47.24746], [-120.68767, 47.24742], [-120.68765, 47.25059], [-120.68765, 47.25105], [-120.68763, 47.25376], [-120.68763, 47.25458], [-120.68763, 47.25462], [-120.69295, 47.25462], [-120.69827, 47.25461], [-120.69827, 47.25375], [-120.69828, 47.25105], [-120.69828, 47.25059], [-120.69829, 47.24754], [-120.69829, 47.24752], [-120.69825, 47.24752], [-120.69598, 47.2475]]]}, "properties": {"OBJECTID": 64665, "ID": "801974244480122970", "CSE_NAME": "LUCKY LADY", "STAGE_ID": null, "BLM_PROD": "LODE CLAIM", "CSE_TYPE_NR": "384101", "CSE_NR": "OR101433192", "LEG_CSE_NR": "ORMC39054", "SF_ID": "a02t000000585otAAA", "CSE_DISP": "Closed", "SRC": "LLD", "QLTY": "1: SIMPLE\nTYPICAL QUARTER SECTION WITH 4 STANDARD LEGALS ATTRIBUTED\naliquot\n38 sections retrieved\n605 intersected features retrieved\n16 matching sections found\n4 alias QQs added\nsection 3 issimple: True", "CSE_META": "WA 33 0200N 0170E 003 A SE", "RCRD_ACRS": 20.66, "Created": 1611360000000, "Modified": 1773941880000, "Shape__Area": 7.603933609827552e-05, "Shape__Length": 0.03556631509850981}}, {"type": "Feature", "id": 64672, "geometry": {"type": "Polygon", "coordinates": [[[-120.69598, 47.2475], [-120.69407, 47.24748], [-120.69349, 47.24747], [-120.69298, 47.24747], [-120.6929, 47.24746], [-120.68767, 47.24742], [-120.68765, 47.25059], [-120.68765, 47.25105], [-120.68763, 47.25376], [-120.68763, 47.25458], [-120.68763, 47.25462], [-120.69295, 47.25462], [-120.69827, 47.25461], [-120.69827, 47.25375], [-120.69828, 47.25105], [-120.69828, 47.25059], [-120.69829, 47.24754], [-120.69829, 47.24752], [-120.69825, 47.24752], [-120.69598, 47.2475]]]}, "properties": {"OBJECTID": 64672, "ID": "801974244480122933", "CSE_NAME": "SKOOKUM", "STAGE_ID": null, "BLM_PROD": "LODE CLAIM", "CSE_TYPE_NR": "384101", "CSE_NR": "OR101433109", "LEG_CSE_NR": "ORMC74091", "SF_ID": "a02t000000585B4AAI", "CSE_DISP": "Closed", "SRC": "LLD", "QLTY": "1: SIMPLE\nTYPICAL QUARTER SECTION WITH 4 STANDARD LEGALS ATTRIBUTED\naliquot\n38 sections retrieved\n605 intersected features retrieved\n16 matching sections found\n4 alias QQs added\nsection 3 issimple: True", "CSE_META": "WA 33 0200N 0170E 003 A SE", "RCRD_ACRS": 20.66, "Created": 1611360000000, "Modified": 1773941880000, "Shape__Area": 7.603933609827552e-05, "Shape__Length": 0.03556631509850981}}, {"type": "Feature", "id": 69254, "geometry": {"type": "Polygon", "coordinates": [[[-120.59909, 47.38331], [-120.59909, 47.37967], [-120.59373, 47.37969], [-120.59374, 47.38333], [-120.59909, 47.38331]]]}, "properties": {"OBJECTID": 69254, "ID": "1356770972845301760", "CSE_NAME": "Robison Ranch", "STAGE_ID": "1356770971821891584", "BLM_PROD": "PLACER CLAIM", "CSE_TYPE_NR": "384201", "CSE_NR": "OR106726193", "LEG_CSE_NR": null, "SF_ID": "a02SJ000007fwNPYAY", "CSE_DISP": "Closed", "SRC": "LLD", "QLTY": "4.1; 0 intersecting parts, aliquot", "CSE_META": "WA 33 0220N 0180E 021 NWSW", "RCRD_ACRS": 20, "Created": 1743465600000, "Modified": 1773258120000, "Shape__Area": 1.9481087493768505e-05, "Shape__Length": 0.017985806318068835}}, {"type": "Feature", "id": 75788, "geometry": {"type": "Polygon", "coordinates": [[[-120.67296, 47.42859], [-120.67296, 47.43835], [-120.68363, 47.43834], [-120.68355, 47.42859], [-120.67296, 47.42859]]]}, "properties": {"OBJECTID": 75788, "ID": "1383126476374790144", "CSE_NAME": "Brazos Placer #1", "STAGE_ID": "1383126470586703872", "BLM_PROD": "PLACER CLAIM", "CSE_TYPE_NR": "384201", "CSE_NR": "OR106736865", "LEG_CSE_NR": null, "SF_ID": "a02SJ000009dbdeYAA", "CSE_DISP": "Closed", "SRC": "LLD", "QLTY": "8; SIMPLE, SECTION CONTAINS 5 OR LESS POLYGONS, aliquot", "CSE_META": "WA 33 0220N 0170E 003 | WA 33 0220N 0170E 002", "RCRD_ACRS": 20, "Created": 1749772800000, "Modified": 1772733300000, "Shape__Area": 0.00010374963348122703, "Shape__Length": 0.04078162846783498}}, {"type": "Feature", "id": 75799, "geometry": {"type": "Polygon", "coordinates": [[[-120.67296, 47.42859], [-120.67296, 47.43835], [-120.68363, 47.43834], [-120.68355, 47.42859], [-120.67296, 47.42859]]]}, "properties": {"OBJECTID": 75799, "ID": "1383126500655640576", "CSE_NAME": "Brazos Placer #2", "STAGE_ID": "1383126494120943616", "BLM_PROD": "PLACER CLAIM", "CSE_TYPE_NR": "384201", "CSE_NR": "OR106736866", "LEG_CSE_NR": null, "SF_ID": "a02SJ000009deYHYAY", "CSE_DISP": "Closed", "SRC": "LLD", "QLTY": "8; SIMPLE, SECTION CONTAINS 5 OR LESS POLYGONS, aliquot", "CSE_META": "WA 33 0220N 0170E 003 | WA 33 0220N 0170E 002", "RCRD_ACRS": 20, "Created": 1749772800000, "Modified": 1772733300000, "Shape__Area": 0.00010374963348122703, "Shape__Length": 0.04078162846783498}}, {"type": "Feature", "id": 75800, "geometry": {"type": "Polygon", "coordinates": [[[-120.66236, 47.42859], [-120.66228, 47.43835], [-120.67296, 47.43835], [-120.67296, 47.42859], [-120.66236, 47.42859]]]}, "properties": {"OBJECTID": 75800, "ID": "1383126521417379840", "CSE_NAME": "Brazos Placer #3", "STAGE_ID": "1383126515016880128", "BLM_PROD": "PLACER CLAIM", "CSE_TYPE_NR": "384201", "CSE_NR": "OR106736867", "LEG_CSE_NR": null, "SF_ID": "a02SJ000009dj3JYAQ", "CSE_DISP": "Closed", "SRC": "LLD", "QLTY": "8; SIMPLE, SECTION CONTAINS 5 OR LESS POLYGONS, aliquot", "CSE_META": "WA 33 0220N 0170E 002", "RCRD_ACRS": 20, "Created": 1749772800000, "Modified": 1772733300000, "Shape__Area": 0.00010379109320918102, "Shape__Length": 0.04078950073074074}}, {"type": "Feature", "id": 78064, "geometry": {"type": "Polygon", "coordinates": [[[-120.6206, 47.29633], [-120.63085, 47.29634], [-120.63092, 47.28911], [-120.62065, 47.28912], [-120.6206, 47.29633]]]}, "properties": {"OBJECTID": 78064, "ID": "804476798665650176", "CSE_NAME": "3-Joes", "STAGE_ID": "804474462488702976", "BLM_PROD": "LODE CLAIM", "CSE_TYPE_NR": "384101", "CSE_NR": "OR105222329", "LEG_CSE_NR": "", "SF_ID": "a02t0000006Lo1xAAC", "CSE_DISP": "Closed", "SRC": "LLD", "QLTY": "8: SIMPLE\nSECTION CONTAINS 5 OR LESS POLYGONS\naliquot\n36 sections retrieved\n36 intersected features retrieved\n1 matching sections found\nsection 19 issimple: False", "CSE_META": "WA 33 0210N 0180E 019 A SE", "RCRD_ACRS": 20.66115702, "Created": 1611792000000, "Modified": 1773689940000, "Shape__Area": 7.409112944175002e-05, "Shape__Length": 0.034963021875114325}}, {"type": "Feature", "id": 78551, "geometry": {"type": "Polygon", "coordinates": [[[-120.69598, 47.2475], [-120.69407, 47.24748], [-120.69349, 47.24747], [-120.69298, 47.24747], [-120.6929, 47.24746], [-120.68767, 47.24742], [-120.68765, 47.25059], [-120.68765, 47.25105], [-120.68763, 47.25376], [-120.68763, 47.25458], [-120.68763, 47.25462], [-120.69295, 47.25462], [-120.69827, 47.25461], [-120.69827, 47.25375], [-120.69828, 47.25105], [-120.69828, 47.25059], [-120.69829, 47.24754], [-120.69829, 47.24752], [-120.69825, 47.24752], [-120.69598, 47.2475]]]}, "properties": {"OBJECTID": 78551, "ID": "801974244442374214", "CSE_NAME": "LITTLE SKOOKUM", "STAGE_ID": null, "BLM_PROD": "PLACER CLAIM", "CSE_TYPE_NR": "384201", "CSE_NR": "OR101481772", "LEG_CSE_NR": "ORMC26078", "SF_ID": "a02t000000588n6AAA", "CSE_DISP": "Closed", "SRC": "LLD", "QLTY": "1: SIMPLE\nTYPICAL QUARTER SECTION WITH 4 STANDARD LEGALS ATTRIBUTED\naliquot\n38 sections retrieved\n605 intersected features retrieved\n16 matching sections found\n4 alias QQs added\nsection 3 issimple: True", "CSE_META": "WA 33 0200N 0170E 003 A SE", "RCRD_ACRS": 20.66, "Created": 1611360000000, "Modified": 1773941880000, "Shape__Area": 7.603933609827552e-05, "Shape__Length": 0.03556631509850981}}, {"type": "Feature", "id": 79605, "geometry": {"type": "Polygon", "coordinates": [[[-120.6824, 47.23294], [-120.67707, 47.23295], [-120.67174, 47.23297], [-120.66642, 47.23298], [-120.6664, 47.23659], [-120.66638, 47.24021], [-120.66636, 47.24375], [-120.66636, 47.24381], [-120.66632, 47.24743], [-120.67166, 47.24741], [-120.67167, 47.24741], [-120.67699, 47.24742], [-120.68233, 47.24742], [-120.68504, 47.24742], [-120.68767, 47.24742], [-120.68767, 47.24598], [-120.68768, 47.2438], [-120.68768, 47.2438], [-120.6877, 47.24017], [-120.6877, 47.24009], [-120.6877, 47.23845], [-120.68771, 47.23655], [-120.68773, 47.23292], [-120.6824, 47.23294]]]}, "properties": {"OBJECTID": 79605, "ID": "1530269537520390144", "CSE_NAME": "Lucky Baby", "STAGE_ID": "1530269536304041984", "BLM_PROD": "PLACER CLAIM", "CSE_TYPE_NR": "384201", "CSE_NR": "OR106831155", "LEG_CSE_NR": "", "SF_ID": "a02SJ00000M4wLiYAJ", "CSE_DISP": "Closed", "SRC": "LLD/CLS", "QLTY": "8; Only mapped PLSS First Div, aliquot", "CSE_META": "WA 33 0200N 0170E 011 SWquarter", "RCRD_ACRS": 20, "Created": 1784851200000, "Modified": 1785338160000, "Shape__Area": 0.0003084165118951736, "Shape__Length": 0.07160293125604586}}, {"type": "Feature", "id": 80985, "geometry": {"type": "Polygon", "coordinates": [[[-120.6835, 47.31804], [-120.68884, 47.31804], [-120.69151, 47.31804], [-120.69163, 47.31804], [-120.69174, 47.31803], [-120.69218, 47.31803], [-120.69337, 47.31803], [-120.69344, 47.31803], [-120.69351, 47.31803], [-120.69366, 47.31803], [-120.69418, 47.31803], [-120.70486, 47.31803], [-120.70486, 47.31086], [-120.70486, 47.31082], [-120.70487, 47.30725], [-120.70487, 47.30362], [-120.69955, 47.30361], [-120.69954, 47.30361], [-120.69746, 47.30361], [-120.69688, 47.3036], [-120.69532, 47.30359], [-120.69424, 47.30359], [-120.69423, 47.30359], [-120.68892, 47.30358], [-120.68361, 47.30357], [-120.68358, 47.30717], [-120.68358, 47.30719], [-120.68355, 47.31081], [-120.68352, 47.31442], [-120.68352, 47.31443], [-120.6835, 47.31804]]]}, "properties": {"OBJECTID": 80985, "ID": "1438280808992395264", "CSE_NAME": "Pegasus 2", "STAGE_ID": "1438023301933883392", "BLM_PROD": "PLACER CLAIM", "CSE_TYPE_NR": "384201", "CSE_NR": "OR106758197", "LEG_CSE_NR": "", "SF_ID": "a02SJ00000DzP23YAF", "CSE_DISP": "Closed", "SRC": "LLD", "QLTY": "8; 0 intersecting parts, Only mapped PLSS First Div, aliquot", "CSE_META": "WA 33 0210N 0170E 015", "RCRD_ACRS": 18.18181818, "Created": 1762905600000, "Modified": 1787100840000, "Shape__Area": 0.00030774868454917656, "Shape__Length": 0.07150535998796614}}, {"type": "Feature", "id": 81025, "geometry": {"type": "Polygon", "coordinates": [[[-120.5991, 47.38695], [-120.59909, 47.38513], [-120.59642, 47.38514], [-120.59375, 47.38515], [-120.59375, 47.38697], [-120.59642, 47.38696], [-120.5991, 47.38695]]]}, "properties": {"OBJECTID": 81025, "ID": "1484629885283536896", "CSE_NAME": "Jeremiahs' Fortune", "STAGE_ID": "1484625088547561472", "BLM_PROD": "PLACER CLAIM", "CSE_TYPE_NR": "384201", "CSE_NR": "OR106790953", "LEG_CSE_NR": "", "SF_ID": "a02SJ00000I6CFxYAN", "CSE_DISP": "Closed", "SRC": "EGMS", "QLTY": "100", "CSE_META": "WA 33 0220N 0180E 021 A N2SWNW", "RCRD_ACRS": 20, "Created": 1773964800000, "Modified": 1787945040000, "Shape__Area": 9.734632954593002e-06, "Shape__Length": 0.014333758882060345}}]}