{"type":"FeatureCollection","features":[{"type":"Feature","id":29994,"geometry":{"type":"Polygon","coordinates":[[[-121.33351,47.88439],[-121.32813,47.88442],[-121.32813,47.88474],[-121.32812,47.88798],[-121.32812,47.88833],[-121.32812,47.89152],[-121.32812,47.89155],[-121.32933,47.89153],[-121.33351,47.89149],[-121.3389,47.89143],[-121.3389,47.88968],[-121.3389,47.88955],[-121.33889,47.8879],[-121.33889,47.88745],[-121.33889,47.88726],[-121.33889,47.88437],[-121.33351,47.88439]]]},"properties":{"OBJECTID":29994,"ID":"1272017852890746880","CSE_NAME":"North Sky Gold #7","STAGE_ID":"1272017111891423232","BLM_PROD":"PLACER CLAIM","CSE_TYPE_NR":"384201","CSE_NR":"OR106386116","LEG_CSE_NR":null,"SF_ID":"a02SJ000000cRwrYAE","CSE_DISP":"Closed","SRC":"LLD","QLTY":"1; MIDPOINT, FULLY ATTRIBUTED QUARTER SECTION ALL BUCKETS ARE EQUAL, aliquot","CSE_META":"WA 33 0280N 0110E 025 A NE","RCRD_ACRS":19.91,"Created":1723334400000,"Modified":1755553167000,"Shape__Area":7.639250506896001e-05,"Shape__Length":0.035727101294615544}},{"type":"Feature","id":29995,"geometry":{"type":"Polygon","coordinates":[[[-121.33351,47.88439],[-121.32813,47.88442],[-121.32813,47.88474],[-121.32812,47.88798],[-121.32812,47.88833],[-121.32812,47.89152],[-121.32812,47.89155],[-121.32933,47.89153],[-121.33351,47.89149],[-121.3389,47.89143],[-121.3389,47.88968],[-121.3389,47.88955],[-121.33889,47.8879],[-121.33889,47.88745],[-121.33889,47.88726],[-121.33889,47.88437],[-121.33351,47.88439]]]},"properties":{"OBJECTID":29995,"ID":"1272023005106581504","CSE_NAME":"North Sky Gold #8","STAGE_ID":"1272022089649422336","BLM_PROD":"PLACER CLAIM","CSE_TYPE_NR":"384201","CSE_NR":"OR106386117","LEG_CSE_NR":null,"SF_ID":"a02SJ000000cS9lYAE","CSE_DISP":"Closed","SRC":"LLD","QLTY":"1; MIDPOINT, FULLY ATTRIBUTED QUARTER SECTION ALL BUCKETS ARE EQUAL, aliquot; MIDPOINT, FULLY ATTRIBUTED QUARTER SECTION ALL BUCKETS ARE EQUAL, aliquot; MIDPOINT, FULLY ATTRIBUTED QUARTER SECTION ALL BUCKETS ARE EQUAL, aliquot","CSE_META":"WA 33 0280N 0110E 025 A NE | WA 33 0280N 0110E 025 A NE | WA 33 0280N 0110E 025 A NE","RCRD_ACRS":19.92,"Created":1723334400000,"Modified":1755553205000,"Shape__Area":7.639250506896001e-05,"Shape__Length":0.035727101294615544}},{"type":"Feature","id":33743,"geometry":{"type":"Polygon","coordinates":[[[-121.52116,48.012],[-121.52116,48.01562],[-121.52652,48.01561],[-121.52653,48.012],[-121.52116,48.012]]]},"properties":{"OBJECTID":33743,"ID":"799126773068464205","CSE_NAME":"VESPER","STAGE_ID":null,"BLM_PROD":"LODE CLAIM","CSE_TYPE_NR":"384101","CSE_NR":"OR101769774","LEG_CSE_NR":"ORMC176925","SF_ID":"a02t00000059ap9AAA","CSE_DISP":"Closed","SRC":"LLD","QLTY":"0: WA330290N0100E0SN090ANWSE\n38 sections retrieved\n618 intersected features retrieved","CSE_META":"WA 33 0290N 0100E 009 A NWSE","RCRD_ACRS":20.66,"Created":1610668800000,"Modified":1758223920000,"Shape__Area":1.9418333572806004e-05,"Shape__Length":0.01796980859164313}},{"type":"Feature","id":34012,"geometry":{"type":"Polygon","coordinates":[[[-121.45165,47.90576],[-121.44631,47.90616],[-121.44105,47.90612],[-121.44094,47.90612],[-121.4409,47.90612],[-121.43558,47.90608],[-121.43557,47.90608],[-121.43557,47.90612],[-121.43556,47.90971],[-121.43556,47.91283],[-121.43556,47.91333],[-121.43555,47.91696],[-121.43555,47.91696],[-121.43555,47.92058],[-121.43559,47.92058],[-121.43816,47.9206],[-121.44093,47.92062],[-121.44631,47.92066],[-121.45169,47.92067],[-121.45247,47.92068],[-121.45284,47.92068],[-121.45457,47.92068],[-121.45476,47.92068],[-121.45597,47.92069],[-121.45597,47.92057],[-121.45597,47.92009],[-121.45607,47.91707],[-121.45609,47.91636],[-121.45611,47.91555],[-121.45616,47.91396],[-121.45617,47.91369],[-121.45618,47.91344],[-121.45621,47.91263],[-121.45622,47.90942],[-121.45622,47.90902],[-121.45622,47.90753],[-121.45623,47.9054],[-121.45165,47.90576]]]},"properties":{"OBJECTID":34012,"ID":"1105626539309060096","CSE_NAME":"John Henry","STAGE_ID":"1105613539751641088","BLM_PROD":"LODE CLAIM","CSE_TYPE_NR":"384101","CSE_NR":"OR105830318","LEG_CSE_NR":"","SF_ID":"a023d00000Fwc6DAAR","CSE_DISP":"Closed","SRC":"LLD","QLTY":"8: Only mapped PLSS First Div\nDOES NOT MATCH PM ANGLES\naliquot\n43 sections retrieved\n708 intersected features retrieved\n25 matching sections found\nsection 18 issimple: False, WA330280N0110E0SN180ANENE\n43 sections retrieved\n708 intersected features retriev","CSE_META":"WA 33 0280N 0110E 018 A Government Lot 4|WA 33 0280N 0110E 018 A NENE|WA 33 0280N 0110E 018 A NE|WA 33 0280N 0110E 018 A SENE|WA 33 0280N 0110E 018 A NWNE|WA 33 0280N 0110E 018 A NE","RCRD_ACRS":20.66,"Created":1683590400000,"Modified":1758313440000,"Shape__Area":0.0003022209029084896,"Shape__Length":0.07089396126120509}},{"type":"Feature","id":38255,"geometry":{"type":"Polygon","coordinates":[[[-121.51579,48.0102],[-121.51579,48.01201],[-121.51579,48.01563],[-121.52116,48.01562],[-121.52652,48.01561],[-121.52653,48.012],[-121.52653,48.01196],[-121.52653,48.00838],[-121.52653,48.00838],[-121.52537,48.00838],[-121.52116,48.00838],[-121.52081,48.00838],[-121.51579,48.00839],[-121.51579,48.0102]]]},"properties":{"OBJECTID":38255,"ID":"799126910234787928","CSE_NAME":"TEENAGE CRUSH","STAGE_ID":null,"BLM_PROD":"LODE CLAIM","CSE_TYPE_NR":"384101","CSE_NR":"OR101958885","LEG_CSE_NR":"ORMC178065","SF_ID":"a02t00000059nsaAAA","CSE_DISP":"Closed","SRC":"LLD","QLTY":"1: MIDPOINT\nTYPICAL QUARTER SECTION WITH 4 STANDARD LEGALS ATTRIBUTED\naliquot\n38 sections retrieved\n618 intersected features retrieved\n16 matching sections found\nsection 9 issimple: True","CSE_META":"WA 33 0290N 0100E 009 A SE","RCRD_ACRS":20.66,"Created":1610668800000,"Modified":1765575720000,"Shape__Area":7.769454136907852e-05,"Shape__Length":0.035943966887765605}},{"type":"Feature","id":40100,"geometry":{"type":"Polygon","coordinates":[[[-121.78586,47.97521],[-121.78586,47.97527],[-121.78585,47.97601],[-121.78581,47.97879],[-121.78588,47.97879],[-121.79125,47.97879],[-121.79669,47.97879],[-121.79674,47.9752],[-121.79674,47.97516],[-121.79671,47.97161],[-121.79129,47.97164],[-121.7859,47.97168],[-121.78586,47.97521]]]},"properties":{"OBJECTID":40100,"ID":"1227669562720468992","CSE_NAME":"sandys place","STAGE_ID":"1227646478659448832","BLM_PROD":"PLACER CLAIM","CSE_TYPE_NR":"384201","CSE_NR":"OR106365198","LEG_CSE_NR":"","SF_ID":"a023d00000IIO7yAAH","CSE_DISP":"Closed","SRC":"LLD","QLTY":"1; MIDPOINT, TYPICAL QUARTER SECTION WITH 4 STANDARD LEGALS ATTRIBUTED, aliquot","CSE_META":"WA 33 0290N 0080E 028 A NW","RCRD_ACRS":20,"Created":1712707200000,"Modified":1770327240000,"Shape__Area":7.764087573005952e-05,"Shape__Length":0.03598263215936102}},{"type":"Feature","id":62098,"geometry":{"type":"Polygon","coordinates":[[[-121.2975,47.7872],[-121.29213,47.7872],[-121.29213,47.79081],[-121.29213,47.79438],[-121.29213,47.79441],[-121.29749,47.79441],[-121.30266,47.7944],[-121.30284,47.7944],[-121.30284,47.79436],[-121.30285,47.79081],[-121.30286,47.78721],[-121.30262,47.78721],[-121.2975,47.7872]]]},"properties":{"OBJECTID":62098,"ID":"799126747776811071","CSE_NAME":"JOHNSON CLAIM","STAGE_ID":null,"BLM_PROD":"PLACER CLAIM","CSE_TYPE_NR":"384201","CSE_NR":"OR101735681","LEG_CSE_NR":"ORMC160813","SF_ID":"a02t00000058mZiAAI","CSE_DISP":"Closed","SRC":"LLD","QLTY":"1: MIDPOINT\nFULLY ATTRIBUTED QUARTER SECTION ALL BUCKETS ARE EQUAL\naliquot\n36 sections retrieved\n579 intersected features retrieved\n16 matching sections found\n4 alias QQs added\nsection 32 issimple: False","CSE_META":"WA 33 0270N 0120E 032 A NW","RCRD_ACRS":20,"Created":1610668800000,"Modified":1772821920000,"Shape__Area":7.723431552631452e-05,"Shape__Length":0.035848317523279216}},{"type":"Feature","id":66544,"geometry":{"type":"Polygon","coordinates":[[[-121.43555,47.89528],[-121.43555,47.89377],[-121.43555,47.89285],[-121.43554,47.89169],[-121.43554,47.89167],[-121.43498,47.89168],[-121.43478,47.89168],[-121.43018,47.89168],[-121.42482,47.89168],[-121.42482,47.89524],[-121.42482,47.89833],[-121.42482,47.89879],[-121.43019,47.89883],[-121.43024,47.89883],[-121.43072,47.89884],[-121.43185,47.89885],[-121.43537,47.89888],[-121.43556,47.89888],[-121.43556,47.89883],[-121.43555,47.89825],[-121.43555,47.89725],[-121.43555,47.89723],[-121.43555,47.89672],[-121.43555,47.89665],[-121.43555,47.89528]]]},"properties":{"OBJECTID":66544,"ID":"1264051690752016384","CSE_NAME":"Blue Yonder #1","STAGE_ID":"1264045814897012736","BLM_PROD":"PLACER CLAIM","CSE_TYPE_NR":"384201","CSE_NR":"OR106383917","LEG_CSE_NR":null,"SF_ID":"a02SJ000000E3IzYAK","CSE_DISP":"Closed","SRC":"LLD/CLS","QLTY":"8; Only mapped PLSS First Div, aliquot; WA330280N0110E0SN200ANESE; WA330280N0110E0SN200ASESE; WA330280N0110E0SN200ASWSE; MIDPOINT, FULLY ATTRIBUTED QUARTER SECTION ALL BUCKETS ARE EQUAL, aliquot; MIDPOINT, FULLY ATTRIBUTED QUARTER SECTION ALL BUCKETS ARE ","CSE_META":"WA 33 0280N 0110E 020 Lot1 | WA 33 0280N 0110E 020 NESE | WA 33 0280N 0110E 020 SESE | WA 33 0280N 0110E 020 SWSE | WA 33 0280N 0110E 020 A SE | WA 33 0280N 0110E 020 A SW | WA 33 0280N 0110E 020 A SW | WA 33 0280N 0110E 020 A SW | WA 33 0280N 0110E 020 A SW | WA 33 0280N 0110E 020 A SW | WA 33 0280N 0110E 020 A SW | WA 33 0280N 0110E 020 A SW","RCRD_ACRS":19.96,"Created":1721433600000,"Modified":1772645220000,"Shape__Area":7.675990224532952e-05,"Shape__Length":0.03576745583327442}},{"type":"Feature","id":66580,"geometry":{"type":"Polygon","coordinates":[[[-121.34966,47.88431],[-121.34427,47.88434],[-121.33889,47.88437],[-121.33889,47.88726],[-121.33889,47.88745],[-121.33889,47.8879],[-121.3389,47.88955],[-121.3389,47.88968],[-121.3389,47.89143],[-121.3443,47.89146],[-121.3497,47.89149],[-121.34968,47.8879],[-121.34966,47.88431]]]},"properties":{"OBJECTID":66580,"ID":"1270059070589702144","CSE_NAME":"The Blue #5","STAGE_ID":"1270058235176558592","BLM_PROD":"PLACER CLAIM","CSE_TYPE_NR":"384201","CSE_NR":"OR106385419","LEG_CSE_NR":null,"SF_ID":"a02SJ000000VOinYAG","CSE_DISP":"Closed","SRC":"LLD","QLTY":"1; MIDPOINT, FULLY ATTRIBUTED QUARTER SECTION ALL BUCKETS ARE EQUAL, aliquot; MIDPOINT, FULLY ATTRIBUTED QUARTER SECTION ALL BUCKETS ARE EQUAL, aliquot","CSE_META":"WA 33 0280N 0110E 025 A NW | WA 33 0280N 0110E 025 A NW","RCRD_ACRS":19.99,"Created":1722816000000,"Modified":1772647740000,"Shape__Area":7.674307390241052e-05,"Shape__Length":0.03579928117438427}},{"type":"Feature","id":66581,"geometry":{"type":"Polygon","coordinates":[[[-121.34971,47.88432],[-121.34966,47.88431],[-121.34968,47.8879],[-121.3497,47.89149],[-121.34973,47.89149],[-121.35507,47.89151],[-121.36045,47.89153],[-121.36043,47.88795],[-121.36041,47.88436],[-121.35503,47.88434],[-121.34971,47.88432]]]},"properties":{"OBJECTID":66581,"ID":"1270060495608713216","CSE_NAME":"The Blue #6","STAGE_ID":"1270059861685780480","BLM_PROD":"PLACER CLAIM","CSE_TYPE_NR":"384201","CSE_NR":"OR106385422","LEG_CSE_NR":null,"SF_ID":"a02SJ000000VQMPYA4","CSE_DISP":"Closed","SRC":"LLD","QLTY":"8; Only mapped PLSS First Div, aliquot; Only mapped PLSS First Div, aliquot; Only mapped PLSS First Div, aliquot; Only mapped PLSS First Div, aliquot; MIDPOINT, FULLY ATTRIBUTED QUARTER SECTION ALL BUCKETS ARE EQUAL, aliquot; MIDPOINT, TYPICAL QUARTER SEC","CSE_META":"WA 33 0280N 0110E 025 Lot2 | WA 33 0280N 0110E 025 Lot3 | WA 33 0280N 0110E 025 Lot4 | WA 33 0280N 0110E 025 Lot5 | WA 33 0280N 0110E 025 A NW | WA 33 0280N 0110E 026 A NE","RCRD_ACRS":19.94,"Created":1722816000000,"Modified":1772647740000,"Shape__Area":7.715231729654502e-05,"Shape__Length":0.035855686923831585}},{"type":"Feature","id":69152,"geometry":{"type":"Polygon","coordinates":[[[-121.49417,47.84879],[-121.49397,47.85235],[-121.49923,47.85233],[-121.49951,47.84877],[-121.49417,47.84879]]]},"properties":{"OBJECTID":69152,"ID":"1339088004836323328","CSE_NAME":"Skatt av Dragevein","STAGE_ID":"1339087997131333632","BLM_PROD":"PLACER CLAIM","CSE_TYPE_NR":"384201","CSE_NR":"OR106718352","LEG_CSE_NR":null,"SF_ID":"a02SJ000006EJnJYAW","CSE_DISP":"Closed","SRC":"LLD","QLTY":"8; Only mapped PLSS First Div, DOES NOT MATCH PM ANGLES, TWN CONTAINS PB/UP/UU, aliquot; Only mapped PLSS First Div, DOES NOT MATCH PM ANGLES, TWN CONTAINS PB/UP/UU, aliquot; Only mapped PLSS First Div, DOES NOT MATCH PM ANGLES, TWN CONTAINS PB/UP/UU, ali","CSE_META":"WA 33 0270N 0100E 002 GovernmentLot1 | WA 33 0270N 0100E 002 GovernmentLot2 | WA 33 0270N 0100E 002 GovernmentLot3 | WA 33 0270N 0100E 002 GovernmentLot4 | WA 33 0270N 0100E 002 GovernmentLot5 | WA 33 0270N 0100E 002 GovernmentLot6 | WA 33 0270N 0100E 002 GovernmentLot7 | WA 33 0270N 0100E 002 NENE | WA 33 0270N 0100E 002 NESW | WA 33 0270N 0100E 002 NWNE | WA 33 0270N 0100E 002 NWSW | WA 33 0270N 0100E 002 SENE | WA 33 0270N 0100E 002 SENW | WA 33 0270N 0100E 002 SESW | WA 33 0270N 0100E 002 SWNE | WA 33 0270N 0100E 002 SWNW | WA 33 0270N 0100E 002 SWSW","RCRD_ACRS":20,"Created":1739318400000,"Modified":1773164580000,"Shape__Area":1.8866375880792006e-05,"Shape__Length":0.017737795885173754}},{"type":"Feature","id":69158,"geometry":{"type":"Polygon","coordinates":[[[-121.41404,47.8952],[-121.4087,47.89523],[-121.4087,47.89878],[-121.41405,47.8987],[-121.41406,47.8987],[-121.41407,47.8952],[-121.41404,47.8952]]]},"properties":{"OBJECTID":69158,"ID":"1340050272776474624","CSE_NAME":"Blue Yonder #3","STAGE_ID":"1340050270490595328","BLM_PROD":"PLACER CLAIM","CSE_TYPE_NR":"384201","CSE_NR":"OR106718581","LEG_CSE_NR":null,"SF_ID":"a02SJ000006KWLGYA4","CSE_DISP":"Closed","SRC":"LLD","QLTY":"0; WA330280N0110E0SN210ANWSW","CSE_META":"WA 33 0280N 0110E 021 NWSW","RCRD_ACRS":20,"Created":1739491200000,"Modified":1773169140000,"Shape__Area":1.8906306571719005e-05,"Shape__Length":0.017778886778771666}},{"type":"Feature","id":69182,"geometry":{"type":"Polygon","coordinates":[[[-121.41406,47.89695],[-121.41407,47.8952],[-121.41138,47.89521],[-121.4087,47.89523],[-121.4087,47.89701],[-121.41138,47.89698],[-121.41406,47.89695]]]},"properties":{"OBJECTID":69182,"ID":"1337151162289401856","CSE_NAME":"Blue Yonder #3","STAGE_ID":"1337151162125824000","BLM_PROD":"PLACER CLAIM","CSE_TYPE_NR":"384201","CSE_NR":"OR106716284","LEG_CSE_NR":null,"SF_ID":"a02SJ000005vRLZYA2","CSE_DISP":"Closed","SRC":"LLD","QLTY":"4.1; 1 intersecting parts, aliquot","CSE_META":"WA 33 0280N 0110E 021 S2NWSW","RCRD_ACRS":20,"Created":1738800000000,"Modified":1772228100000,"Shape__Area":9.453378732122502e-06,"Shape__Length":0.014254662722637337}},{"type":"Feature","id":69190,"geometry":{"type":"Polygon","coordinates":[[[-121.4672,47.86278],[-121.46187,47.86277],[-121.45654,47.86275],[-121.4565,47.86638],[-121.45646,47.87002],[-121.45641,47.87365],[-121.45637,47.87713],[-121.45637,47.87728],[-121.45756,47.87714],[-121.46177,47.87661],[-121.46205,47.87661],[-121.46275,47.87661],[-121.46656,47.8766],[-121.47196,47.87692],[-121.47737,47.87723],[-121.47743,47.87368],[-121.47749,47.87014],[-121.47754,47.86776],[-121.47755,47.86704],[-121.47756,47.86653],[-121.47763,47.86293],[-121.47241,47.86286],[-121.4672,47.86278]]]},"properties":{"OBJECTID":69190,"ID":"1341870601970864128","CSE_NAME":"Sky Gold #5","STAGE_ID":"1341870598254567424","BLM_PROD":"PLACER CLAIM","CSE_TYPE_NR":"384201","CSE_NR":"OR106718873","LEG_CSE_NR":null,"SF_ID":"a02SJ000006Sj8PYAS","CSE_DISP":"Closed","SRC":"LLD","QLTY":"8; Only mapped PLSS First Div, DOES NOT MATCH PM ANGLES, aliquot","CSE_META":"WA 33 0280N 0100E 036 GovernmentLot6","RCRD_ACRS":20,"Created":1739923200000,"Modified":1775512140000,"Shape__Area":0.0002954546796636926,"Shape__Length":0.07098073847695596}},{"type":"Feature","id":79837,"geometry":{"type":"Polygon","coordinates":[[[-121.79128,47.97344],[-121.79129,47.97164],[-121.7886,47.97166],[-121.7859,47.97168],[-121.78588,47.97348],[-121.78858,47.97346],[-121.79128,47.97344]]]},"properties":{"OBJECTID":79837,"ID":"1479158097783156736","CSE_NAME":"sandys place","STAGE_ID":"1479150306100068352","BLM_PROD":"PLACER CLAIM","CSE_TYPE_NR":"384201","CSE_NR":"OR106788216","LEG_CSE_NR":"","SF_ID":"a02SJ00000HXh1BYAT","CSE_DISP":"Closed","SRC":"LLD/CLS","QLTY":"4.1; 1 intersecting parts, aliquot","CSE_META":"WA 33 0290N 0080E 028 A S2SENW","RCRD_ACRS":20,"Created":1772668800000,"Modified":1785339060000,"Shape__Area":9.687399380519503e-06,"Shape__Length":0.01438012765175017}}]}