{"type": "FeatureCollection", "features": [{"type": "Feature", "id": 7, "geometry": {"type": "Point", "coordinates": [-121.4739, 47.6397]}, "properties": {"OBJECTID": 7, "SITE_ID": 8, "SITE_NAME": "Dawson", "ALTERNATE_NAMES": "", "PRIMARY_COMMODITY": "Antimony (Sb)", "COMMODITIES": "Antimony", "ORE_MINERALS": "Pyrite, stibnite, stibiconite", "GANGUE": "Altered granodiorite, rhodochrosite", "LOCATION_DESCRIPTION": "Near head of Bear Creek", "LEGAL_DESCRIPTION": "NW 1/4 of sec. 24, T25N, R10E", "LOCATION_ACCURACY": "coordinate accuracy highly variable", "COUNTY": "King", "LATITUDE": 47.6397, "LONGITUDE": -121.4739, "MINING_DISTRICT": "", "LOCATION_SOURCE": "USGS MAS/MILS Database ", "ASSAYS": "", "PRODUCTION": "", "COMMENTS": ""}}, {"type": "Feature", "id": 8, "geometry": {"type": "Point", "coordinates": [-121.428636, 47.707408]}, "properties": {"OBJECTID": 8, "SITE_ID": 9, "SITE_NAME": "Grand Central", "ALTERNATE_NAMES": "", "PRIMARY_COMMODITY": "Antimony (Sb)", "COMMODITIES": "Antimony, gold", "ORE_MINERALS": "Stibnite", "GANGUE": "Pyrite, calcite, quartz", "LOCATION_DESCRIPTION": "South of Money Creek", "LEGAL_DESCRIPTION": "sec. 29, T25N, R11E", "LOCATION_ACCURACY": "generally from USGS 7.5-minute topographic map", "COUNTY": "Ferry", "LATITUDE": 47.707408, "LONGITUDE": -121.428636, "MINING_DISTRICT": "", "LOCATION_SOURCE": "Open File Report 90-18", "ASSAYS": "yes", "PRODUCTION": "yes", "COMMENTS": "Assays are in Bulletin 37. Production information is in Bulletin 37 and in OFR 90-18."}}, {"type": "Feature", "id": 9, "geometry": {"type": "Point", "coordinates": [-121.400028, 47.698542]}, "properties": {"OBJECTID": 9, "SITE_ID": 10, "SITE_NAME": "Great Republic", "ALTERNATE_NAMES": "Happy Thought", "PRIMARY_COMMODITY": "Antimony (Sb)", "COMMODITIES": "Antimony, gold, silver", "ORE_MINERALS": "Stibnite", "GANGUE": "Pyrite, quartz, calcite, sericite, kaolinite, argillic alteration minerals", "LOCATION_DESCRIPTION": "At first falls on Happy Thought Creek", "LEGAL_DESCRIPTION": "N 1/2 of the SW 1/4 of sec. 33, T26N, R11E", "LOCATION_ACCURACY": "generally from USGS 7.5-minute topographic map", "COUNTY": "Ferry", "LATITUDE": 47.698542, "LONGITUDE": -121.400028, "MINING_DISTRICT": "", "LOCATION_SOURCE": "Open File Report 90-18", "ASSAYS": "yes", "PRODUCTION": "yes", "COMMENTS": "Assays are in Bulletin 37. Production information is in Bulletin 37 and in OFR 90-18."}}, {"type": "Feature", "id": 10, "geometry": {"type": "Point", "coordinates": [-121.3958, 47.6792]}, "properties": {"OBJECTID": 10, "SITE_ID": 11, "SITE_NAME": "Mohawk", "ALTERNATE_NAMES": "", "PRIMARY_COMMODITY": "Antimony (Sb)", "COMMODITIES": "Antimony", "ORE_MINERALS": "", "GANGUE": "", "LOCATION_DESCRIPTION": "N of Seattle Cascade property", "LEGAL_DESCRIPTION": "sec. 9, T25N, R11E", "LOCATION_ACCURACY": "coordinate accuracy highly variable", "COUNTY": "King", "LATITUDE": 47.6792, "LONGITUDE": -121.3958, "MINING_DISTRICT": "Miller River", "LOCATION_SOURCE": "USGS MAS/MILS Database ", "ASSAYS": "", "PRODUCTION": "", "COMMENTS": ""}}, {"type": "Feature", "id": 11, "geometry": {"type": "Point", "coordinates": [-121.5042, 47.7528]}, "properties": {"OBJECTID": 11, "SITE_ID": 12, "SITE_NAME": "Salmon Creek", "ALTERNATE_NAMES": "", "PRIMARY_COMMODITY": "Antimony (Sb)", "COMMODITIES": "Reportedly antimony", "ORE_MINERALS": "", "GANGUE": "", "LOCATION_DESCRIPTION": "1 mi S of Baring", "LEGAL_DESCRIPTION": "S 1/2 of sec. 10, T26N, R10E", "LOCATION_ACCURACY": "coordinate accuracy highly variable", "COUNTY": "King", "LATITUDE": 47.7528, "LONGITUDE": -121.5042, "MINING_DISTRICT": "", "LOCATION_SOURCE": "USGS MAS/MILS Database ", "ASSAYS": "", "PRODUCTION": "", "COMMENTS": ""}}, {"type": "Feature", "id": 46, "geometry": {"type": "Point", "coordinates": [-121.3722, 47.7569]}, "properties": {"OBJECTID": 46, "SITE_ID": 49, "SITE_NAME": "Baring", "ALTERNATE_NAMES": "", "PRIMARY_COMMODITY": "Chromium (Cr)", "COMMODITIES": "Chromium", "ORE_MINERALS": "", "GANGUE": "", "LOCATION_DESCRIPTION": "1.25 mi S of Baring", "LEGAL_DESCRIPTION": "N 1/2 of the SE 1/4 of sec. 10, T26N, R10E", "LOCATION_ACCURACY": "coordinate accuracy highly variable", "COUNTY": "King", "LATITUDE": 47.7569, "LONGITUDE": -121.3722, "MINING_DISTRICT": "", "LOCATION_SOURCE": "USGS MAS/MILS Database ", "ASSAYS": "", "PRODUCTION": "", "COMMENTS": ""}}, {"type": "Feature", "id": 210, "geometry": {"type": "Point", "coordinates": [-121.4611, 47.7353]}, "properties": {"OBJECTID": 210, "SITE_ID": 221, "SITE_NAME": "Annex", "ALTERNATE_NAMES": "", "PRIMARY_COMMODITY": "Copper (Cu)", "COMMODITIES": "Copper", "ORE_MINERALS": "", "GANGUE": "", "LOCATION_DESCRIPTION": "Near Lowe Creek", "LEGAL_DESCRIPTION": "secs. 23 and 24, T26N, R10E", "LOCATION_ACCURACY": "coordinate accuracy highly variable", "COUNTY": "King", "LATITUDE": 47.7353, "LONGITUDE": -121.4611, "MINING_DISTRICT": "", "LOCATION_SOURCE": "USGS MAS/MILS Database ", "ASSAYS": "", "PRODUCTION": "", "COMMENTS": ""}}, {"type": "Feature", "id": 211, "geometry": {"type": "Point", "coordinates": [-121.7417, 47.5106]}, "properties": {"OBJECTID": 211, "SITE_ID": 222, "SITE_NAME": "Annie", "ALTERNATE_NAMES": "", "PRIMARY_COMMODITY": "Copper (Cu)", "COMMODITIES": "Copper, gold, silver", "ORE_MINERALS": "Chalcopyrite, pyrite", "GANGUE": "", "LOCATION_DESCRIPTION": "", "LEGAL_DESCRIPTION": "NE 1/4 of sec. 2, T23N, R8E", "LOCATION_ACCURACY": "coordinate accuracy highly variable", "COUNTY": "King", "LATITUDE": 47.5106, "LONGITUDE": -121.7417, "MINING_DISTRICT": "", "LOCATION_SOURCE": "USGS MAS/MILS Database ", "ASSAYS": "yes", "PRODUCTION": "", "COMMENTS": "Assays are in Bulletin 37."}}, {"type": "Feature", "id": 212, "geometry": {"type": "Point", "coordinates": [-121.4514, 47.6236]}, "properties": {"OBJECTID": 212, "SITE_ID": 223, "SITE_NAME": "Bobtail", "ALTERNATE_NAMES": "", "PRIMARY_COMMODITY": "Copper (Cu)", "COMMODITIES": "Copper, gold, silver", "ORE_MINERALS": "", "GANGUE": "", "LOCATION_DESCRIPTION": "", "LEGAL_DESCRIPTION": "NW 1/4 of sec. 31, T25N, R11E", "LOCATION_ACCURACY": "coordinate accuracy highly variable", "COUNTY": "King", "LATITUDE": 47.6236, "LONGITUDE": -121.4514, "MINING_DISTRICT": "Miller River", "LOCATION_SOURCE": "USGS MAS/MILS Database ", "ASSAYS": "", "PRODUCTION": "", "COMMENTS": ""}}, {"type": "Feature", "id": 213, "geometry": {"type": "Point", "coordinates": [-121.3428, 47.6722]}, "properties": {"OBJECTID": 213, "SITE_ID": 224, "SITE_NAME": "Brooklyn", "ALTERNATE_NAMES": "", "PRIMARY_COMMODITY": "Copper (Cu)", "COMMODITIES": "Copper, gold, silver", "ORE_MINERALS": "Chalcopyrite, pyrite", "GANGUE": "", "LOCATION_DESCRIPTION": "", "LEGAL_DESCRIPTION": "secs. 11 and 13, T25N, R10E", "LOCATION_ACCURACY": "coordinate accuracy highly variable", "COUNTY": "King", "LATITUDE": 47.6722, "LONGITUDE": -121.3428, "MINING_DISTRICT": "Miller River", "LOCATION_SOURCE": "USGS MAS/MILS Database ", "ASSAYS": "yes", "PRODUCTION": "", "COMMENTS": "Assays are in Bulletin 37."}}, {"type": "Feature", "id": 215, "geometry": {"type": "Point", "coordinates": [-121.4625, 47.7]}, "properties": {"OBJECTID": 215, "SITE_ID": 226, "SITE_NAME": "Chicago", "ALTERNATE_NAMES": "", "PRIMARY_COMMODITY": "Copper (Cu)", "COMMODITIES": "Copper", "ORE_MINERALS": "Chalcopyrite, bornite, native copper, pyrite", "GANGUE": "", "LOCATION_DESCRIPTION": "", "LEGAL_DESCRIPTION": "sec. 36, T26N, R10E", "LOCATION_ACCURACY": "coordinate accuracy highly variable", "COUNTY": "King", "LATITUDE": 47.7, "LONGITUDE": -121.4625, "MINING_DISTRICT": "Miller River", "LOCATION_SOURCE": "USGS MAS/MILS Database ", "ASSAYS": "yes", "PRODUCTION": "", "COMMENTS": "Assays are in Bulletin 37."}}, {"type": "Feature", "id": 217, "geometry": {"type": "Point", "coordinates": [-121.7194, 47.5322]}, "properties": {"OBJECTID": 217, "SITE_ID": 228, "SITE_NAME": "Cleveland", "ALTERNATE_NAMES": "", "PRIMARY_COMMODITY": "Copper (Cu)", "COMMODITIES": "Copper, gold", "ORE_MINERALS": "Chalcopyrite, pyrite", "GANGUE": "", "LOCATION_DESCRIPTION": "", "LEGAL_DESCRIPTION": "SE 1/4 of sec. 25, T24N, R8E", "LOCATION_ACCURACY": "coordinate accuracy highly variable", "COUNTY": "King", "LATITUDE": 47.5322, "LONGITUDE": -121.7194, "MINING_DISTRICT": "Snoqualmie", "LOCATION_SOURCE": "USGS MAS/MILS Database ", "ASSAYS": "yes", "PRODUCTION": "", "COMMENTS": "Assays are in Bulletin 37."}}, {"type": "Feature", "id": 218, "geometry": {"type": "Point", "coordinates": [-121.5486, 47.7278]}, "properties": {"OBJECTID": 218, "SITE_ID": 229, "SITE_NAME": "Climax", "ALTERNATE_NAMES": "", "PRIMARY_COMMODITY": "Copper (Cu)", "COMMODITIES": "Copper, silver", "ORE_MINERALS": "Bornite, chalcopyrite", "GANGUE": "", "LOCATION_DESCRIPTION": "4.5 mi SW of Baring on S end of Little Index Mtn.", "LEGAL_DESCRIPTION": "approx. sec. 20, T26N, R10E", "LOCATION_ACCURACY": "coordinate accuracy highly variable", "COUNTY": "King", "LATITUDE": 47.7278, "LONGITUDE": -121.5486, "MINING_DISTRICT": "", "LOCATION_SOURCE": "USGS MAS/MILS Database ", "ASSAYS": "yes", "PRODUCTION": "yes", "COMMENTS": "Assays are in Bulletin 37. Production information is in Bulletin 37 and in OFR 90-18."}}, {"type": "Feature", "id": 219, "geometry": {"type": "Point", "coordinates": [-121.344353, 47.518183]}, "properties": {"OBJECTID": 219, "SITE_ID": 230, "SITE_NAME": "Clipper", "ALTERNATE_NAMES": "", "PRIMARY_COMMODITY": "Copper (Cu)", "COMMODITIES": "Copper, gold, molybdenum", "ORE_MINERALS": "Chalcopyrite, molybdenite, galena", "GANGUE": "Quartz, pyrite, siderite, pyrrhotite, arsenopyrite, chlorite, with potassic alteration, silicification", "LOCATION_DESCRIPTION": "On Middle Fork of Snoqualmie River", "LEGAL_DESCRIPTION": "sec. 1, T23N, R11E; sec. 3, T23N, R12E; sec. 36, T24N, R11E; secs. 27 and 34, T24N, R12E", "LOCATION_ACCURACY": "generally from USGS 7.5-minute topographic map", "COUNTY": "King", "LATITUDE": 47.518183, "LONGITUDE": -121.344353, "MINING_DISTRICT": "", "LOCATION_SOURCE": "Open File Report 90-18", "ASSAYS": "yes", "PRODUCTION": "", "COMMENTS": "Assays are in Bulletin 37."}}, {"type": "Feature", "id": 220, "geometry": {"type": "Point", "coordinates": [-121.3742, 47.4778]}, "properties": {"OBJECTID": 220, "SITE_ID": 231, "SITE_NAME": "Copper Chief", "ALTERNATE_NAMES": "", "PRIMARY_COMMODITY": "Copper (Cu)", "COMMODITIES": "Copper, gold, silver, lead", "ORE_MINERALS": "Chalcopyrite, galena", "GANGUE": "", "LOCATION_DESCRIPTION": "", "LEGAL_DESCRIPTION": "SW 1/4 of sec. 14, T23N, R11E", "LOCATION_ACCURACY": "coordinate accuracy highly variable", "COUNTY": "King", "LATITUDE": 47.4778, "LONGITUDE": -121.3742, "MINING_DISTRICT": "Snoqualmie", "LOCATION_SOURCE": "USGS MAS/MILS Database ", "ASSAYS": "yes", "PRODUCTION": "", "COMMENTS": "Assays are in Bulletin 37."}}, {"type": "Feature", "id": 222, "geometry": {"type": "Point", "coordinates": [-121.3694, 47.4819]}, "properties": {"OBJECTID": 222, "SITE_ID": 233, "SITE_NAME": "Emma", "ALTERNATE_NAMES": "", "PRIMARY_COMMODITY": "Copper (Cu)", "COMMODITIES": "Copper", "ORE_MINERALS": "", "GANGUE": "", "LOCATION_DESCRIPTION": "Gold Creek area", "LEGAL_DESCRIPTION": "sec. 14, T23N, R11E", "LOCATION_ACCURACY": "coordinate accuracy highly variable", "COUNTY": "King", "LATITUDE": 47.4819, "LONGITUDE": -121.3694, "MINING_DISTRICT": "", "LOCATION_SOURCE": "USGS MAS/MILS Database ", "ASSAYS": "", "PRODUCTION": "", "COMMENTS": ""}}, {"type": "Feature", "id": 223, "geometry": {"type": "Point", "coordinates": [-121.306324, 47.662871]}, "properties": {"OBJECTID": 223, "SITE_ID": 234, "SITE_NAME": "Etta", "ALTERNATE_NAMES": "", "PRIMARY_COMMODITY": "Copper (Cu)", "COMMODITIES": "Copper", "ORE_MINERALS": "", "GANGUE": "", "LOCATION_DESCRIPTION": "E of Cleopatra Basin", "LEGAL_DESCRIPTION": "", "LOCATION_ACCURACY": "coordinates estimated from location description", "COUNTY": "King", "LATITUDE": 47.662871151925, "LONGITUDE": -121.306324404589, "MINING_DISTRICT": "Miller River", "LOCATION_SOURCE": "Bulletin 37", "ASSAYS": "", "PRODUCTION": "", "COMMENTS": ""}}, {"type": "Feature", "id": 225, "geometry": {"type": "Point", "coordinates": [-121.5375, 47.5619]}, "properties": {"OBJECTID": 225, "SITE_ID": 237, "SITE_NAME": "Fathers Day", "ALTERNATE_NAMES": "", "PRIMARY_COMMODITY": "Copper (Cu)", "COMMODITIES": "Copper", "ORE_MINERALS": "Chalcopyrite, arsenopyrite, pyrite", "GANGUE": "Quartz", "LOCATION_DESCRIPTION": "On Quartz Creek about 0.25 mi above its mouth", "LEGAL_DESCRIPTION": "sec. 16, T24N, R10E", "LOCATION_ACCURACY": "coordinate accuracy highly variable", "COUNTY": "King", "LATITUDE": 47.5619, "LONGITUDE": -121.5375, "MINING_DISTRICT": "", "LOCATION_SOURCE": "USGS MAS/MILS Database ", "ASSAYS": "", "PRODUCTION": "", "COMMENTS": ""}}, {"type": "Feature", "id": 226, "geometry": {"type": "Point", "coordinates": [-121.3111, 47.6361]}, "properties": {"OBJECTID": 226, "SITE_ID": 238, "SITE_NAME": "Foss River", "ALTERNATE_NAMES": "", "PRIMARY_COMMODITY": "Copper (Cu)", "COMMODITIES": "Copper, gold, silver", "ORE_MINERALS": "", "GANGUE": "", "LOCATION_DESCRIPTION": "", "LEGAL_DESCRIPTION": "sec. 30, T25N, R12E", "LOCATION_ACCURACY": "coordinate accuracy highly variable", "COUNTY": "King", "LATITUDE": 47.6361, "LONGITUDE": -121.3111, "MINING_DISTRICT": "", "LOCATION_SOURCE": "USGS MAS/MILS Database ", "ASSAYS": "", "PRODUCTION": "", "COMMENTS": ""}}, {"type": "Feature", "id": 227, "geometry": {"type": "Point", "coordinates": [-121.5675, 47.4083]}, "properties": {"OBJECTID": 227, "SITE_ID": 239, "SITE_NAME": "Geo. W. Tinkle", "ALTERNATE_NAMES": "", "PRIMARY_COMMODITY": "Copper (Cu)", "COMMODITIES": "Copper", "ORE_MINERALS": "", "GANGUE": "", "LOCATION_DESCRIPTION": "", "LEGAL_DESCRIPTION": "secs. 7 and 8, T22N, R10E", "LOCATION_ACCURACY": "coordinate accuracy highly variable", "COUNTY": "King", "LATITUDE": 47.4083, "LONGITUDE": -121.5675, "MINING_DISTRICT": "Snoqualmie", "LOCATION_SOURCE": "USGS MAS/MILS Database ", "ASSAYS": "", "PRODUCTION": "", "COMMENTS": ""}}, {"type": "Feature", "id": 229, "geometry": {"type": "Point", "coordinates": [-121.433672, 47.655338]}, "properties": {"OBJECTID": 229, "SITE_ID": 241, "SITE_NAME": "Ironsides", "ALTERNATE_NAMES": "", "PRIMARY_COMMODITY": "Copper (Cu)", "COMMODITIES": "Copper", "ORE_MINERALS": "", "GANGUE": "", "LOCATION_DESCRIPTION": "Cleopatra Basin", "LEGAL_DESCRIPTION": "", "LOCATION_ACCURACY": "coordinates estimated from location description", "COUNTY": "King", "LATITUDE": 47.6553381383086, "LONGITUDE": -121.433671732829, "MINING_DISTRICT": "Miller River", "LOCATION_SOURCE": "Bulletin 37", "ASSAYS": "", "PRODUCTION": "", "COMMENTS": ""}}, {"type": "Feature", "id": 230, "geometry": {"type": "Point", "coordinates": [-121.5653, 47.6]}, "properties": {"OBJECTID": 230, "SITE_ID": 242, "SITE_NAME": "Joamco", "ALTERNATE_NAMES": "", "PRIMARY_COMMODITY": "Copper (Cu)", "COMMODITIES": "Copper, gold", "ORE_MINERALS": "", "GANGUE": "", "LOCATION_DESCRIPTION": "", "LEGAL_DESCRIPTION": "secs. 6, 31, and 32, T25N, R10E", "LOCATION_ACCURACY": "coordinate accuracy highly variable", "COUNTY": "King", "LATITUDE": 47.6, "LONGITUDE": -121.5653, "MINING_DISTRICT": "Buena Vista", "LOCATION_SOURCE": "USGS MAS/MILS Database ", "ASSAYS": "", "PRODUCTION": "", "COMMENTS": ""}}, {"type": "Feature", "id": 231, "geometry": {"type": "Point", "coordinates": [-121.4228, 47.6614]}, "properties": {"OBJECTID": 231, "SITE_ID": 243, "SITE_NAME": "King and Kinney", "ALTERNATE_NAMES": "King, Kinney", "PRIMARY_COMMODITY": "Copper (Cu)", "COMMODITIES": "Copper, lead, zinc, silver, gold", "ORE_MINERALS": "Chalcopyrite, pyrite, galena, sphalerite, malachite", "GANGUE": "Quartz", "LOCATION_DESCRIPTION": "On W side of Miller River about 5 mi from its mouth", "LEGAL_DESCRIPTION": "SW 1/4 of sec. 17, T25N, R11E", "LOCATION_ACCURACY": "coordinate accuracy highly variable", "COUNTY": "King", "LATITUDE": 47.6614, "LONGITUDE": -121.4228, "MINING_DISTRICT": "", "LOCATION_SOURCE": "USGS MAS/MILS Database ", "ASSAYS": "", "PRODUCTION": "", "COMMENTS": ""}}, {"type": "Feature", "id": 232, "geometry": {"type": "Point", "coordinates": [-121.425151, 47.680952]}, "properties": {"OBJECTID": 232, "SITE_ID": 244, "SITE_NAME": "King David", "ALTERNATE_NAMES": "", "PRIMARY_COMMODITY": "Copper (Cu)", "COMMODITIES": "Copper", "ORE_MINERALS": "", "GANGUE": "", "LOCATION_DESCRIPTION": "Summit of Cleopatra Basin", "LEGAL_DESCRIPTION": "", "LOCATION_ACCURACY": "coordinates estimated from location description", "COUNTY": "King", "LATITUDE": 47.6809520287286, "LONGITUDE": -121.425151161617, "MINING_DISTRICT": "Miller River", "LOCATION_SOURCE": "Bulletin 37", "ASSAYS": "", "PRODUCTION": "", "COMMENTS": ""}}, {"type": "Feature", "id": 233, "geometry": {"type": "Point", "coordinates": [-121.413833, 47.660701]}, "properties": {"OBJECTID": 233, "SITE_ID": 246, "SITE_NAME": "Lynn", "ALTERNATE_NAMES": "", "PRIMARY_COMMODITY": "Copper (Cu)", "COMMODITIES": "Copper, lead", "ORE_MINERALS": "", "GANGUE": "", "LOCATION_DESCRIPTION": "", "LEGAL_DESCRIPTION": "SE 1/4 of sec. 17, T25N, R11E", "LOCATION_ACCURACY": "coordinates estimated from legal description", "COUNTY": "King", "LATITUDE": 47.6607007515506, "LONGITUDE": -121.413833473635, "MINING_DISTRICT": "Miller River", "LOCATION_SOURCE": "Bulletin 37", "ASSAYS": "", "PRODUCTION": "", "COMMENTS": ""}}, {"type": "Feature", "id": 234, "geometry": {"type": "Point", "coordinates": [-121.3486, 47.5117]}, "properties": {"OBJECTID": 234, "SITE_ID": 247, "SITE_NAME": "Middle Fork", "ALTERNATE_NAMES": "Middle Fork Snoqualmie Porphyry Copper", "PRIMARY_COMMODITY": "Copper (Cu)", "COMMODITIES": "Copper", "ORE_MINERALS": "Bornite, chalcopyrite", "GANGUE": "Quartz", "LOCATION_DESCRIPTION": "Along canyon of the Middle Fork of Snoqualmie River in vicinity of Burnt Boot Creek", "LEGAL_DESCRIPTION": "sec. 23, T23N, R11E", "LOCATION_ACCURACY": "USGS 7.5-minute topographic map", "COUNTY": "King", "LATITUDE": 47.5117, "LONGITUDE": -121.3486, "MINING_DISTRICT": "", "LOCATION_SOURCE": "USGS 7.5-minute topographic map", "ASSAYS": "", "PRODUCTION": "", "COMMENTS": ""}}, {"type": "Feature", "id": 235, "geometry": {"type": "Point", "coordinates": [-121.3797, 47.6875]}, "properties": {"OBJECTID": 235, "SITE_ID": 248, "SITE_NAME": "Mono", "ALTERNATE_NAMES": "Mona", "PRIMARY_COMMODITY": "Copper (Cu)", "COMMODITIES": "Copper, gold, silver, zinc, arsenic", "ORE_MINERALS": "Arsenopyrite, chalcopyrite, bornite, sphalerite, pyrite", "GANGUE": "Apatite, quartz", "LOCATION_DESCRIPTION": "On E side of Miller River 2.5 mi from its mouth", "LEGAL_DESCRIPTION": "sec. 34, T26N, R11E", "LOCATION_ACCURACY": "coordinate accuracy highly variable", "COUNTY": "King", "LATITUDE": 47.6875, "LONGITUDE": -121.3797, "MINING_DISTRICT": "", "LOCATION_SOURCE": "USGS MAS/MILS Database ", "ASSAYS": "yes", "PRODUCTION": "yes", "COMMENTS": "Assays are in Bulletin 37 and in the scanned files. Production information is in OFR 90-18."}}, {"type": "Feature", "id": 236, "geometry": {"type": "Point", "coordinates": [-121.3397, 47.5208]}, "properties": {"OBJECTID": 236, "SITE_ID": 249, "SITE_NAME": "Pedro", "ALTERNATE_NAMES": "", "PRIMARY_COMMODITY": "Copper (Cu)", "COMMODITIES": "Copper, gold, silver, bismuth, antimony", "ORE_MINERALS": "", "GANGUE": "", "LOCATION_DESCRIPTION": "", "LEGAL_DESCRIPTION": "", "LOCATION_ACCURACY": "coordinate accuracy highly variable", "COUNTY": "King", "LATITUDE": 47.5208, "LONGITUDE": -121.3397, "MINING_DISTRICT": "Foss River", "LOCATION_SOURCE": "USGS MAS/MILS Database ", "ASSAYS": "", "PRODUCTION": "", "COMMENTS": ""}}, {"type": "Feature", "id": 237, "geometry": {"type": "Point", "coordinates": [-121.4194, 47.65]}, "properties": {"OBJECTID": 237, "SITE_ID": 250, "SITE_NAME": "Portland", "ALTERNATE_NAMES": "", "PRIMARY_COMMODITY": "Copper (Cu)", "COMMODITIES": "Copper", "ORE_MINERALS": "", "GANGUE": "", "LOCATION_DESCRIPTION": "", "LEGAL_DESCRIPTION": "sec. 20, T25N, R11E", "LOCATION_ACCURACY": "coordinate accuracy highly variable", "COUNTY": "King", "LATITUDE": 47.65, "LONGITUDE": -121.4194, "MINING_DISTRICT": "Miller River", "LOCATION_SOURCE": "USGS MAS/MILS Database ", "ASSAYS": "", "PRODUCTION": "yes", "COMMENTS": "Production information is in OFR 90-18."}}, {"type": "Feature", "id": 238, "geometry": {"type": "Point", "coordinates": [-121.554406, 47.57065]}, "properties": {"OBJECTID": 238, "SITE_ID": 251, "SITE_NAME": "Quartz Creek", "ALTERNATE_NAMES": "Rainy, Western States Copper", "PRIMARY_COMMODITY": "Copper (Cu)", "COMMODITIES": "Copper, molybdenum, gold, silver", "ORE_MINERALS": "Chalcopyrite, brannerite, molybdenite, scheelite", "GANGUE": "Pyrite, pyrrhotite, arsenopyrite, quartz, tourmaline", "LOCATION_DESCRIPTION": "", "LEGAL_DESCRIPTION": "NW 1/4 sec. 16 and SW 1/4 sec. 9, T24N, R10E", "LOCATION_ACCURACY": "generally from USGS 7.5-minute topographic map", "COUNTY": "King", "LATITUDE": 47.57065, "LONGITUDE": -121.554406, "MINING_DISTRICT": "Taylor River", "LOCATION_SOURCE": "Open File Report 90-18", "ASSAYS": "yes", "PRODUCTION": "", "COMMENTS": "Assays are in Bulletin 37."}}, {"type": "Feature", "id": 239, "geometry": {"type": "Point", "coordinates": [-121.555, 47.6503]}, "properties": {"OBJECTID": 239, "SITE_ID": 252, "SITE_NAME": "Rainbow", "ALTERNATE_NAMES": "", "PRIMARY_COMMODITY": "Copper (Cu)", "COMMODITIES": "Copper", "ORE_MINERALS": "Chalcopyrite, pyrrhotite", "GANGUE": "", "LOCATION_DESCRIPTION": "On S side of Lennox River", "LEGAL_DESCRIPTION": "NW 1/4 of the SW 1/4 of sec. 17, T25N, R10E", "LOCATION_ACCURACY": "coordinate accuracy highly variable", "COUNTY": "King", "LATITUDE": 47.6503, "LONGITUDE": -121.555, "MINING_DISTRICT": "Buena Vista", "LOCATION_SOURCE": "USGS MAS/MILS Database ", "ASSAYS": "", "PRODUCTION": "", "COMMENTS": ""}}, {"type": "Feature", "id": 240, "geometry": {"type": "Point", "coordinates": [-121.488225, 47.644647]}, "properties": {"OBJECTID": 240, "SITE_ID": 253, "SITE_NAME": "Snoqualmie", "ALTERNATE_NAMES": "", "PRIMARY_COMMODITY": "Copper (Cu)", "COMMODITIES": "Copper", "ORE_MINERALS": "Chalcopyrite", "GANGUE": "Pyrite", "LOCATION_DESCRIPTION": "", "LEGAL_DESCRIPTION": "secs. 14 and 23, T25N, R10E", "LOCATION_ACCURACY": "generally from USGS 7.5-minute topographic map", "COUNTY": "King", "LATITUDE": 47.644647, "LONGITUDE": -121.488225, "MINING_DISTRICT": "Miller River", "LOCATION_SOURCE": "Open File Report 90-18", "ASSAYS": "", "PRODUCTION": "yes", "COMMENTS": "Production information is in Bulletin 37 and in OFR 90-18."}}, {"type": "Feature", "id": 241, "geometry": {"type": "Point", "coordinates": [-121.404647, 47.667681]}, "properties": {"OBJECTID": 241, "SITE_ID": 254, "SITE_NAME": "Sphinx", "ALTERNATE_NAMES": "", "PRIMARY_COMMODITY": "Copper (Cu)", "COMMODITIES": "Copper", "ORE_MINERALS": "", "GANGUE": "", "LOCATION_DESCRIPTION": "Cleopatra Basin", "LEGAL_DESCRIPTION": "", "LOCATION_ACCURACY": "coordinates estimated from location description", "COUNTY": "King", "LATITUDE": 47.6676812998443, "LONGITUDE": -121.404646819218, "MINING_DISTRICT": "Miller River", "LOCATION_SOURCE": "Bulletin 37", "ASSAYS": "", "PRODUCTION": "", "COMMENTS": ""}}, {"type": "Feature", "id": 242, "geometry": {"type": "Point", "coordinates": [-121.414317, 47.659011]}, "properties": {"OBJECTID": 242, "SITE_ID": 256, "SITE_NAME": "Una", "ALTERNATE_NAMES": "John Stevens", "PRIMARY_COMMODITY": "Copper (Cu)", "COMMODITIES": "Copper, silver, gold", "ORE_MINERALS": "Malachite, chalcopyrite", "GANGUE": "Tourmaline", "LOCATION_DESCRIPTION": "On Miller River", "LEGAL_DESCRIPTION": "sec. 17, T25N, R11E", "LOCATION_ACCURACY": "generally from USGS 7.5-minute topographic map", "COUNTY": "King", "LATITUDE": 47.659011, "LONGITUDE": -121.414317, "MINING_DISTRICT": "", "LOCATION_SOURCE": "Open File Report 90-18", "ASSAYS": "", "PRODUCTION": "yes", "COMMENTS": "Production information is in Bulletin 37."}}, {"type": "Feature", "id": 243, "geometry": {"type": "Point", "coordinates": [-121.406023, 47.656873]}, "properties": {"OBJECTID": 243, "SITE_ID": 257, "SITE_NAME": "Unicorn", "ALTERNATE_NAMES": "", "PRIMARY_COMMODITY": "Copper (Cu)", "COMMODITIES": "Copper", "ORE_MINERALS": "", "GANGUE": "", "LOCATION_DESCRIPTION": "Cleopatra Basin", "LEGAL_DESCRIPTION": "", "LOCATION_ACCURACY": "coordinates estimated from location description", "COUNTY": "King", "LATITUDE": 47.6568728149096, "LONGITUDE": -121.406022543906, "MINING_DISTRICT": "Miller River", "LOCATION_SOURCE": "Bulletin 37", "ASSAYS": "", "PRODUCTION": "", "COMMENTS": ""}}, {"type": "Feature", "id": 249, "geometry": {"type": "Point", "coordinates": [-121.325212, 47.461836]}, "properties": {"OBJECTID": 249, "SITE_ID": 263, "SITE_NAME": "Cascade Mining", "ALTERNATE_NAMES": "", "PRIMARY_COMMODITY": "Copper (Cu)", "COMMODITIES": "Copper, lead, silver, gold", "ORE_MINERALS": "", "GANGUE": "", "LOCATION_DESCRIPTION": "Below prominent bench in cirque at head of Gold Creek", "LEGAL_DESCRIPTION": "near N line of sec. 27, T23N, R12E", "LOCATION_ACCURACY": "coordinates estimated from legal description", "COUNTY": "Kittitas", "LATITUDE": 47.4618361669612, "LONGITUDE": -121.325212298685, "MINING_DISTRICT": "", "LOCATION_SOURCE": "Bulletin 37", "ASSAYS": "", "PRODUCTION": "yes", "COMMENTS": "Production information is in OFR 90-18."}}, {"type": "Feature", "id": 251, "geometry": {"type": "Point", "coordinates": [-121.2589, 47.4236]}, "properties": {"OBJECTID": 251, "SITE_ID": 265, "SITE_NAME": "Copper Queen", "ALTERNATE_NAMES": "", "PRIMARY_COMMODITY": "Copper (Cu)", "COMMODITIES": "Copper", "ORE_MINERALS": "Pyrite, chalcopyrite", "GANGUE": "", "LOCATION_DESCRIPTION": "0.5 mi S of Mineral Creek near the Mineral Creek mine", "LEGAL_DESCRIPTION": "sec. 7, T22N, R13E", "LOCATION_ACCURACY": "coordinate accuracy highly variable", "COUNTY": "Kittitas", "LATITUDE": 47.4236, "LONGITUDE": -121.2589, "MINING_DISTRICT": "", "LOCATION_SOURCE": "USGS MAS/MILS Database ", "ASSAYS": "yes", "PRODUCTION": "", "COMMENTS": "Assays are in Bulletin 37."}}, {"type": "Feature", "id": 259, "geometry": {"type": "Point", "coordinates": [-121.263757, 47.426826]}, "properties": {"OBJECTID": 259, "SITE_ID": 274, "SITE_NAME": "Little Kachess Lake", "ALTERNATE_NAMES": "", "PRIMARY_COMMODITY": "Copper (Cu)", "COMMODITIES": "Copper", "ORE_MINERALS": "Pyrite, chalcopyrite, bornite, arsenopyrite", "GANGUE": "Quartz, epidote", "LOCATION_DESCRIPTION": "2 mi NW of Little Kachess Lake on creek which empties into N end of the lake", "LEGAL_DESCRIPTION": "", "LOCATION_ACCURACY": "coordinates estimated from location description", "COUNTY": "Kittitas", "LATITUDE": 47.4268263005098, "LONGITUDE": -121.263756870554, "MINING_DISTRICT": "", "LOCATION_SOURCE": "Bulletin 37", "ASSAYS": "", "PRODUCTION": "", "COMMENTS": ""}}, {"type": "Feature", "id": 260, "geometry": {"type": "Point", "coordinates": [-121.254364, 47.424833]}, "properties": {"OBJECTID": 260, "SITE_ID": 276, "SITE_NAME": "Mineral Creek", "ALTERNATE_NAMES": "Durrwachter, Liberty Lode", "PRIMARY_COMMODITY": "Copper (Cu)", "COMMODITIES": "Copper, gold, silver, molybdenum", "ORE_MINERALS": "Chalcopyrite, bornite, molybdenite", "GANGUE": "Pyrite, pyrrhotite, quartz", "LOCATION_DESCRIPTION": "On Mineral Creek 2 mi above Little Kachess Lake", "LEGAL_DESCRIPTION": "SE 1/4 of sec. 6, T22N, R13E", "LOCATION_ACCURACY": "generally from USGS 7.5-minute topographic map", "COUNTY": "Kittitas", "LATITUDE": 47.424833, "LONGITUDE": -121.254364, "MINING_DISTRICT": "", "LOCATION_SOURCE": "Open File Report 90-18", "ASSAYS": "yes", "PRODUCTION": "yes", "COMMENTS": "Assays are in Bulletin 37. Production information is in Bulletin 37."}}, {"type": "Feature", "id": 499, "geometry": {"type": "Point", "coordinates": [-121.3222, 47.4603]}, "properties": {"OBJECTID": 499, "SITE_ID": 531, "SITE_NAME": "Good Luck", "ALTERNATE_NAMES": "", "PRIMARY_COMMODITY": "Copper (Cu)", "COMMODITIES": "Copper", "ORE_MINERALS": "", "GANGUE": "", "LOCATION_DESCRIPTION": "", "LEGAL_DESCRIPTION": "SW 1/4 of sec. 21, T28N, R11E", "LOCATION_ACCURACY": "coordinate accuracy highly variable", "COUNTY": "Snohomish", "LATITUDE": 47.4603, "LONGITUDE": -121.3222, "MINING_DISTRICT": "Index", "LOCATION_SOURCE": "USGS MAS/MILS Database ", "ASSAYS": "", "PRODUCTION": "", "COMMENTS": ""}}, {"type": "Feature", "id": 709, "geometry": {"type": "Point", "coordinates": [-121.5111, 47.6222]}, "properties": {"OBJECTID": 709, "SITE_ID": 752, "SITE_NAME": "Prufer", "ALTERNATE_NAMES": "", "PRIMARY_COMMODITY": "Gallium (Ga)", "COMMODITIES": "Gallium", "ORE_MINERALS": "", "GANGUE": "", "LOCATION_DESCRIPTION": "N Fork of Snoqualmie River", "LEGAL_DESCRIPTION": "sec. 27, T25N, R10E", "LOCATION_ACCURACY": "coordinate accuracy highly variable", "COUNTY": "King", "LATITUDE": 47.6222, "LONGITUDE": -121.5111, "MINING_DISTRICT": "", "LOCATION_SOURCE": "USGS MAS/MILS Database ", "ASSAYS": "", "PRODUCTION": "", "COMMENTS": ""}}, {"type": "Feature", "id": 1858, "geometry": {"type": "Point", "coordinates": [-121.505344, 47.754917]}, "properties": {"OBJECTID": 1858, "SITE_ID": 2058, "SITE_NAME": "Anderson", "ALTERNATE_NAMES": "Baring", "PRIMARY_COMMODITY": "Iron (Fe)", "COMMODITIES": "Iron, lead, zinc, silver, gold, copper", "ORE_MINERALS": "Magnetite", "GANGUE": "Amphibole", "LOCATION_DESCRIPTION": "1 mi from railroad at Baring", "LEGAL_DESCRIPTION": "S 1/2 of sec. 10 and near SE corner of sec. 11, T26N, R10E", "LOCATION_ACCURACY": "generally from USGS 7.5-minute topographic map", "COUNTY": "King", "LATITUDE": 47.754917, "LONGITUDE": -121.505344, "MINING_DISTRICT": "", "LOCATION_SOURCE": "Open File Report 90-18", "ASSAYS": "yes", "PRODUCTION": "yes", "COMMENTS": "Assays are in Bulletin 37. Production information is in Bulletin 37."}}, {"type": "Feature", "id": 1859, "geometry": {"type": "Point", "coordinates": [-121.4514, 47.4389]}, "properties": {"OBJECTID": 1859, "SITE_ID": 2059, "SITE_NAME": "Chief", "ALTERNATE_NAMES": "", "PRIMARY_COMMODITY": "Iron (Fe)", "COMMODITIES": "Iron", "ORE_MINERALS": "", "GANGUE": "", "LOCATION_DESCRIPTION": "", "LEGAL_DESCRIPTION": "", "LOCATION_ACCURACY": "coordinate accuracy highly variable", "COUNTY": "King", "LATITUDE": 47.4389, "LONGITUDE": -121.4514, "MINING_DISTRICT": "", "LOCATION_SOURCE": "USGS MAS/MILS Database ", "ASSAYS": "", "PRODUCTION": "", "COMMENTS": ""}}, {"type": "Feature", "id": 1860, "geometry": {"type": "Point", "coordinates": [-121.453832, 47.40809]}, "properties": {"OBJECTID": 1860, "SITE_ID": 2060, "SITE_NAME": "Cliff", "ALTERNATE_NAMES": "", "PRIMARY_COMMODITY": "Iron (Fe)", "COMMODITIES": "Iron", "ORE_MINERALS": "", "GANGUE": "", "LOCATION_DESCRIPTION": "", "LEGAL_DESCRIPTION": "sec. 7, T22N, R11E", "LOCATION_ACCURACY": "coordinates estimated from legal description", "COUNTY": "King", "LATITUDE": 47.4080902399151, "LONGITUDE": -121.45383182805, "MINING_DISTRICT": "Gold Creek", "LOCATION_SOURCE": "Bulletin 37", "ASSAYS": "", "PRODUCTION": "", "COMMENTS": ""}}, {"type": "Feature", "id": 1861, "geometry": {"type": "Point", "coordinates": [-121.456793, 47.412217]}, "properties": {"OBJECTID": 1861, "SITE_ID": 2061, "SITE_NAME": "Climax", "ALTERNATE_NAMES": "", "PRIMARY_COMMODITY": "Iron (Fe)", "COMMODITIES": "Iron", "ORE_MINERALS": "", "GANGUE": "", "LOCATION_DESCRIPTION": "Gold Creek district", "LEGAL_DESCRIPTION": "sec. 7, T22N, R11E", "LOCATION_ACCURACY": "coordinates estimated from legal description", "COUNTY": "King", "LATITUDE": 47.4122174501997, "LONGITUDE": -121.45679344645, "MINING_DISTRICT": "", "LOCATION_SOURCE": "Bulletin 37", "ASSAYS": "", "PRODUCTION": "", "COMMENTS": ""}}, {"type": "Feature", "id": 1862, "geometry": {"type": "Point", "coordinates": [-121.453609, 47.429585]}, "properties": {"OBJECTID": 1862, "SITE_ID": 2062, "SITE_NAME": "Denny", "ALTERNATE_NAMES": "", "PRIMARY_COMMODITY": "Iron (Fe)", "COMMODITIES": "Iron", "ORE_MINERALS": "Magnetite, pyrite", "GANGUE": "Garnet, quartz, actinolite, calcite", "LOCATION_DESCRIPTION": "2 mi NW of Snoqualmie Pass", "LEGAL_DESCRIPTION": "sec. 6, T22N, R11E; sec. 31, T23N, R11E", "LOCATION_ACCURACY": "coordinates estimated from legal description", "COUNTY": "King", "LATITUDE": 47.4295849561972, "LONGITUDE": -121.453609470553, "MINING_DISTRICT": "", "LOCATION_SOURCE": "Bulletin 37", "ASSAYS": "yes", "PRODUCTION": "", "COMMENTS": "Assays are in Bulletin 37."}}, {"type": "Feature", "id": 1864, "geometry": {"type": "Point", "coordinates": [-121.6664, 47.5158]}, "properties": {"OBJECTID": 1864, "SITE_ID": 2064, "SITE_NAME": "Green Mountain", "ALTERNATE_NAMES": "", "PRIMARY_COMMODITY": "Iron (Fe)", "COMMODITIES": "Iron", "ORE_MINERALS": "Hematite, magnetite", "GANGUE": "", "LOCATION_DESCRIPTION": "On Green Mtn.", "LEGAL_DESCRIPTION": "SE 1/4 of sec. 33, T24N, R9E", "LOCATION_ACCURACY": "coordinate accuracy highly variable", "COUNTY": "King", "LATITUDE": 47.5158, "LONGITUDE": -121.6664, "MINING_DISTRICT": "", "LOCATION_SOURCE": "USGS MAS/MILS Database ", "ASSAYS": "", "PRODUCTION": "", "COMMENTS": ""}}, {"type": "Feature", "id": 1865, "geometry": {"type": "Point", "coordinates": [-121.419881, 47.445861]}, "properties": {"OBJECTID": 1865, "SITE_ID": 2066, "SITE_NAME": "Guye", "ALTERNATE_NAMES": "Mt Logan, Summit", "PRIMARY_COMMODITY": "Iron (Fe)", "COMMODITIES": "Iron, lead, zinc, silver, gold", "ORE_MINERALS": "Magnetite, galena, sphalerite", "GANGUE": "Pyrite, garnet", "LOCATION_DESCRIPTION": "About 2.5 mi from the railroad at Rockdale", "LEGAL_DESCRIPTION": "secs. 28, 32 and 33, T23N, R11E", "LOCATION_ACCURACY": "generally from USGS 7.5-minute topographic map", "COUNTY": "King", "LATITUDE": 47.445861, "LONGITUDE": -121.419881, "MINING_DISTRICT": "", "LOCATION_SOURCE": "Open File Report 90-18", "ASSAYS": "yes", "PRODUCTION": "", "COMMENTS": "Assays are in Bulletin 37."}}, {"type": "Feature", "id": 1866, "geometry": {"type": "Point", "coordinates": [-121.4569, 47.4542]}, "properties": {"OBJECTID": 1866, "SITE_ID": 2067, "SITE_NAME": "Kelly", "ALTERNATE_NAMES": "Chair Peak", "PRIMARY_COMMODITY": "Iron (Fe)", "COMMODITIES": "Iron, copper", "ORE_MINERALS": "Magnetite", "GANGUE": "", "LOCATION_DESCRIPTION": "On Chair Peak", "LEGAL_DESCRIPTION": "NW 1/4 of sec. 30, T23N, R11E", "LOCATION_ACCURACY": "coordinate accuracy highly variable", "COUNTY": "King", "LATITUDE": 47.4542, "LONGITUDE": -121.4569, "MINING_DISTRICT": "", "LOCATION_SOURCE": "USGS MAS/MILS Database ", "ASSAYS": "", "PRODUCTION": "", "COMMENTS": ""}}, {"type": "Feature", "id": 1867, "geometry": {"type": "Point", "coordinates": [-121.4736, 47.7]}, "properties": {"OBJECTID": 1867, "SITE_ID": 2068, "SITE_NAME": "Williams-Smith", "ALTERNATE_NAMES": "", "PRIMARY_COMMODITY": "Iron (Fe)", "COMMODITIES": "Iron", "ORE_MINERALS": "Magnetite", "GANGUE": "", "LOCATION_DESCRIPTION": "5 mi from railroad at Miller River", "LEGAL_DESCRIPTION": "secs. 35 and 36, T26N, R10E", "LOCATION_ACCURACY": "coordinate accuracy highly variable", "COUNTY": "King", "LATITUDE": 47.7, "LONGITUDE": -121.4736, "MINING_DISTRICT": "", "LOCATION_SOURCE": "USGS MAS/MILS Database ", "ASSAYS": "yes", "PRODUCTION": "", "COMMENTS": "Assays are in Bulletin 37."}}, {"type": "Feature", "id": 2076, "geometry": {"type": "Point", "coordinates": [-121.475, 47.645]}, "properties": {"OBJECTID": 2076, "SITE_ID": 2286, "SITE_NAME": "Dawson", "ALTERNATE_NAMES": "", "PRIMARY_COMMODITY": "Lead (Pb)", "COMMODITIES": "Lead, zinc, silver, gold, copper", "ORE_MINERALS": "Galena, sphalerite, chalcopyrite, arsenopyrite, pyrite", "GANGUE": "", "LOCATION_DESCRIPTION": "On a tributary to Miller River", "LEGAL_DESCRIPTION": "NE 1/4 of sec. 18, T25N, R11E", "LOCATION_ACCURACY": "coordinate accuracy highly variable", "COUNTY": "King", "LATITUDE": 47.645, "LONGITUDE": -121.475, "MINING_DISTRICT": "", "LOCATION_SOURCE": "USGS MAS/MILS Database ", "ASSAYS": "yes", "PRODUCTION": "", "COMMENTS": "Assays are in Bulletin 37."}}, {"type": "Feature", "id": 2078, "geometry": {"type": "Point", "coordinates": [-121.575, 47.6083]}, "properties": {"OBJECTID": 2078, "SITE_ID": 2289, "SITE_NAME": "Goat Mountain", "ALTERNATE_NAMES": "", "PRIMARY_COMMODITY": "Lead (Pb)", "COMMODITIES": "Lead, copper, zinc, gold, silver, arsenic", "ORE_MINERALS": "Pyrite, chalcopyrite, arsenopyrite, galena, sphalerite, molybdenite", "GANGUE": "", "LOCATION_DESCRIPTION": "On Sunday Creek", "LEGAL_DESCRIPTION": "N 1/2 of sec. 31, T25N, R10E", "LOCATION_ACCURACY": "coordinate accuracy highly variable", "COUNTY": "King", "LATITUDE": 47.6083, "LONGITUDE": -121.575, "MINING_DISTRICT": "", "LOCATION_SOURCE": "USGS MAS/MILS Database ", "ASSAYS": "yes", "PRODUCTION": "", "COMMENTS": "Assays are in Bulletin 37."}}, {"type": "Feature", "id": 2079, "geometry": {"type": "Point", "coordinates": [-121.3319, 47.5225]}, "properties": {"OBJECTID": 2079, "SITE_ID": 2291, "SITE_NAME": "Katie", "ALTERNATE_NAMES": "Katie Belle", "PRIMARY_COMMODITY": "Lead (Pb)", "COMMODITIES": "Lead, copper", "ORE_MINERALS": "", "GANGUE": "", "LOCATION_DESCRIPTION": "", "LEGAL_DESCRIPTION": "", "LOCATION_ACCURACY": "coordinate accuracy highly variable", "COUNTY": "King", "LATITUDE": 47.5225, "LONGITUDE": -121.3319, "MINING_DISTRICT": "Miller River", "LOCATION_SOURCE": "USGS MAS/MILS Database ", "ASSAYS": "", "PRODUCTION": "", "COMMENTS": ""}}, {"type": "Feature", "id": 2080, "geometry": {"type": "Point", "coordinates": [-121.5056, 47.7139]}, "properties": {"OBJECTID": 2080, "SITE_ID": 2292, "SITE_NAME": "Mohawk", "ALTERNATE_NAMES": "", "PRIMARY_COMMODITY": "Lead (Pb)", "COMMODITIES": "Lead, zinc", "ORE_MINERALS": "", "GANGUE": "", "LOCATION_DESCRIPTION": "On Money Creek", "LEGAL_DESCRIPTION": "sec. 27, T26N, R10E", "LOCATION_ACCURACY": "coordinate accuracy highly variable", "COUNTY": "King", "LATITUDE": 47.7139, "LONGITUDE": -121.5056, "MINING_DISTRICT": "", "LOCATION_SOURCE": "USGS MAS/MILS Database ", "ASSAYS": "", "PRODUCTION": "", "COMMENTS": ""}}, {"type": "Feature", "id": 2081, "geometry": {"type": "Point", "coordinates": [-121.72057, 47.523412]}, "properties": {"OBJECTID": 2081, "SITE_ID": 2293, "SITE_NAME": "Mount Si", "ALTERNATE_NAMES": "", "PRIMARY_COMMODITY": "Lead (Pb)", "COMMODITIES": "Lead", "ORE_MINERALS": "Galena", "GANGUE": "", "LOCATION_DESCRIPTION": "N side of Mt. Si", "LEGAL_DESCRIPTION": "", "LOCATION_ACCURACY": "coordinates estimated from location description", "COUNTY": "King", "LATITUDE": 47.5234116779116, "LONGITUDE": -121.720569501989, "MINING_DISTRICT": "", "LOCATION_SOURCE": "Bulletin 37", "ASSAYS": "yes", "PRODUCTION": "", "COMMENTS": "Assays are in Bulletin 37."}}, {"type": "Feature", "id": 2082, "geometry": {"type": "Point", "coordinates": [-121.4181, 47.6806]}, "properties": {"OBJECTID": 2082, "SITE_ID": 2294, "SITE_NAME": "Philippi Lake", "ALTERNATE_NAMES": "", "PRIMARY_COMMODITY": "Lead (Pb)", "COMMODITIES": "Lead, zinc", "ORE_MINERALS": "", "GANGUE": "", "LOCATION_DESCRIPTION": "", "LEGAL_DESCRIPTION": "sec. 5, T25N, R10E", "LOCATION_ACCURACY": "coordinate accuracy highly variable", "COUNTY": "King", "LATITUDE": 47.6806, "LONGITUDE": -121.4181, "MINING_DISTRICT": "Buena Vista", "LOCATION_SOURCE": "USGS MAS/MILS Database ", "ASSAYS": "", "PRODUCTION": "", "COMMENTS": ""}}, {"type": "Feature", "id": 2083, "geometry": {"type": "Point", "coordinates": [-121.5042, 47.7569]}, "properties": {"OBJECTID": 2083, "SITE_ID": 2296, "SITE_NAME": "Treasury Lead", "ALTERNATE_NAMES": "", "PRIMARY_COMMODITY": "Lead (Pb)", "COMMODITIES": "Lead, zinc", "ORE_MINERALS": "Galena, sphalerite", "GANGUE": "", "LOCATION_DESCRIPTION": "About 1 mi S of Baring, on Index Creek", "LEGAL_DESCRIPTION": "sec. 10, T26N, R10E", "LOCATION_ACCURACY": "coordinate accuracy highly variable", "COUNTY": "King", "LATITUDE": 47.7569, "LONGITUDE": -121.5042, "MINING_DISTRICT": "", "LOCATION_SOURCE": "USGS MAS/MILS Database ", "ASSAYS": "", "PRODUCTION": "", "COMMENTS": ""}}, {"type": "Feature", "id": 2237, "geometry": {"type": "Point", "coordinates": [-121.4656, 47.5519]}, "properties": {"OBJECTID": 2237, "SITE_ID": 2467, "SITE_NAME": "Garfield", "ALTERNATE_NAMES": "", "PRIMARY_COMMODITY": "Lead (Pb)", "COMMODITIES": "Lead, gold, silver", "ORE_MINERALS": "Galena, pyrite", "GANGUE": "", "LOCATION_DESCRIPTION": "", "LEGAL_DESCRIPTION": "", "LOCATION_ACCURACY": "coordinate accuracy highly variable", "COUNTY": "Snohomish", "LATITUDE": 47.5519, "LONGITUDE": -121.4656, "MINING_DISTRICT": "Silver Creek", "LOCATION_SOURCE": "USGS MAS/MILS Database ", "ASSAYS": "yes", "PRODUCTION": "", "COMMENTS": "Assays are in Bulletin 37."}}, {"type": "Feature", "id": 2569, "geometry": {"type": "Point", "coordinates": [-121.5125, 47.6181]}, "properties": {"OBJECTID": 2569, "SITE_ID": 2820, "SITE_NAME": "Devils Canyon", "ALTERNATE_NAMES": "", "PRIMARY_COMMODITY": "Molybdenum (Mo)", "COMMODITIES": "Molybdenum, arsenic, tungsten, silver", "ORE_MINERALS": "Molybdenite, powellite, pyrite, chalcopyrite, scheelite", "GANGUE": "Quartz, siderite", "LOCATION_DESCRIPTION": "", "LEGAL_DESCRIPTION": "sec. 26 and S 1/2 of sec. 27, T25N, R10E", "LOCATION_ACCURACY": "coordinate accuracy highly variable", "COUNTY": "King", "LATITUDE": 47.6181, "LONGITUDE": -121.5125, "MINING_DISTRICT": "Buena Vista", "LOCATION_SOURCE": "USGS MAS/MILS Database ", "ASSAYS": "yes", "PRODUCTION": "", "COMMENTS": "Assays are in Bulletin 37 and in the scanned files."}}, {"type": "Feature", "id": 2570, "geometry": {"type": "Point", "coordinates": [-121.60873, 47.577071]}, "properties": {"OBJECTID": 2570, "SITE_ID": 2821, "SITE_NAME": "Lost Lode", "ALTERNATE_NAMES": "", "PRIMARY_COMMODITY": "Molybdenum (Mo)", "COMMODITIES": "Molybdenum, arsenic, lead, gold, silver", "ORE_MINERALS": "Galena, molybdenite", "GANGUE": "", "LOCATION_DESCRIPTION": "", "LEGAL_DESCRIPTION": "sec. 12, T24N, R9E", "LOCATION_ACCURACY": "coordinates estimated from legal description", "COUNTY": "King", "LATITUDE": 47.5770713856325, "LONGITUDE": -121.608729865389, "MINING_DISTRICT": "Snoqualmie", "LOCATION_SOURCE": "Bulletin 37", "ASSAYS": "", "PRODUCTION": "", "COMMENTS": ""}}, {"type": "Feature", "id": 2937, "geometry": {"type": "Point", "coordinates": [-121.429539, 47.433776]}, "properties": {"OBJECTID": 2937, "SITE_ID": 3226, "SITE_NAME": "Snoqualmie", "ALTERNATE_NAMES": "", "PRIMARY_COMMODITY": "Thorium (Th)", "COMMODITIES": "Thorium, cerium, uranium?", "ORE_MINERALS": "", "GANGUE": "", "LOCATION_DESCRIPTION": "Within the area of the Snoqualmie folio, near Snoqualmie Pass, in eastern King County", "LEGAL_DESCRIPTION": "", "LOCATION_ACCURACY": "coordinates estimated from location description", "COUNTY": "King", "LATITUDE": 47.4337763088195, "LONGITUDE": -121.42953856137, "MINING_DISTRICT": "", "LOCATION_SOURCE": "Bulletin 37", "ASSAYS": "", "PRODUCTION": "", "COMMENTS": ""}}, {"type": "Feature", "id": 2943, "geometry": {"type": "Point", "coordinates": [-121.3542, 47.7167]}, "properties": {"OBJECTID": 2943, "SITE_ID": 3232, "SITE_NAME": "Skykomish", "ALTERNATE_NAMES": "", "PRIMARY_COMMODITY": "Tin (Sn)", "COMMODITIES": "Tin", "ORE_MINERALS": "Cassiterite", "GANGUE": "", "LOCATION_DESCRIPTION": "Road cut on Stevens Pass highway at E end of Skykomish", "LEGAL_DESCRIPTION": "sec. 26 probable, T11N, R26E", "LOCATION_ACCURACY": "coordinate accuracy highly variable", "COUNTY": "King", "LATITUDE": 47.7167, "LONGITUDE": -121.3542, "MINING_DISTRICT": "", "LOCATION_SOURCE": "USGS MAS/MILS Database ", "ASSAYS": "", "PRODUCTION": "", "COMMENTS": ""}}, {"type": "Feature", "id": 3088, "geometry": {"type": "Point", "coordinates": [-121.5236, 47.6097]}, "properties": {"OBJECTID": 3088, "SITE_ID": 3378, "SITE_NAME": "Jack Pot", "ALTERNATE_NAMES": "", "PRIMARY_COMMODITY": "Zinc (Zn)", "COMMODITIES": "Zinc, lead, gold, silver, copper, tungsten", "ORE_MINERALS": "Scheelite, pyrite, chalcopyrite, sphalerite", "GANGUE": "Quartz, tourmaline", "LOCATION_DESCRIPTION": "On W side of Cougar Creek", "LEGAL_DESCRIPTION": "SW 1/4 of sec. 27 and S 1/2 of sec. 28, T25N, R10E", "LOCATION_ACCURACY": "coordinate accuracy highly variable", "COUNTY": "King", "LATITUDE": 47.6097, "LONGITUDE": -121.5236, "MINING_DISTRICT": "", "LOCATION_SOURCE": "USGS MAS/MILS Database ", "ASSAYS": "yes", "PRODUCTION": "", "COMMENTS": "Assays are in Bulletin 37."}}, {"type": "Feature", "id": 3089, "geometry": {"type": "Point", "coordinates": [-121.5547, 47.65]}, "properties": {"OBJECTID": 3089, "SITE_ID": 3379, "SITE_NAME": "Langer", "ALTERNATE_NAMES": "", "PRIMARY_COMMODITY": "Zinc (Zn)", "COMMODITIES": "Zinc, copper", "ORE_MINERALS": "Sphalerite, chalcopyrite, pyrrhotite", "GANGUE": "", "LOCATION_DESCRIPTION": "On N side of Lennox Creek about 1.5 mi above its mouth", "LEGAL_DESCRIPTION": "sec. 17, T25N, R10E", "LOCATION_ACCURACY": "coordinate accuracy highly variable", "COUNTY": "King", "LATITUDE": 47.65, "LONGITUDE": -121.5547, "MINING_DISTRICT": "", "LOCATION_SOURCE": "USGS MAS/MILS Database ", "ASSAYS": "", "PRODUCTION": "", "COMMENTS": ""}}, {"type": "Feature", "id": 3090, "geometry": {"type": "Point", "coordinates": [-121.5653, 47.6722]}, "properties": {"OBJECTID": 3090, "SITE_ID": 3380, "SITE_NAME": "Mount Phelps", "ALTERNATE_NAMES": "", "PRIMARY_COMMODITY": "Zinc (Zn)", "COMMODITIES": "Zinc, copper; also gold, silver, lead reported", "ORE_MINERALS": "Magnetite, pyrite, sphalerite, chalcopyrite, arsenopyrite", "GANGUE": "Epidote", "LOCATION_DESCRIPTION": "On S slope of Mt. Phelps", "LEGAL_DESCRIPTION": "secs. 5 and 8, T25N, R10E", "LOCATION_ACCURACY": "coordinate accuracy highly variable", "COUNTY": "King", "LATITUDE": 47.6722, "LONGITUDE": -121.5653, "MINING_DISTRICT": "", "LOCATION_SOURCE": "USGS MAS/MILS Database ", "ASSAYS": "yes", "PRODUCTION": "yes", "COMMENTS": "Assays are in Bulletin 37 and in the scanned files. Production information is in OFR 90-18."}}, {"type": "Feature", "id": 3091, "geometry": {"type": "Point", "coordinates": [-121.5436, 47.6653]}, "properties": {"OBJECTID": 3091, "SITE_ID": 3381, "SITE_NAME": "Ryland", "ALTERNATE_NAMES": "", "PRIMARY_COMMODITY": "Zinc (Zn)", "COMMODITIES": "Zinc", "ORE_MINERALS": "", "GANGUE": "", "LOCATION_DESCRIPTION": "", "LEGAL_DESCRIPTION": "secs. 8 and 9, T25N, R10E", "LOCATION_ACCURACY": "coordinate accuracy highly variable", "COUNTY": "King", "LATITUDE": 47.6653, "LONGITUDE": -121.5436, "MINING_DISTRICT": "", "LOCATION_SOURCE": "USGS MAS/MILS Database ", "ASSAYS": "", "PRODUCTION": "", "COMMENTS": ""}}, {"type": "Feature", "id": 3092, "geometry": {"type": "Point", "coordinates": [-121.4028, 47.6681]}, "properties": {"OBJECTID": 3092, "SITE_ID": 3382, "SITE_NAME": "Three S Gulch", "ALTERNATE_NAMES": "", "PRIMARY_COMMODITY": "Zinc (Zn)", "COMMODITIES": "Zinc, lead", "ORE_MINERALS": "Sphalerite, galena, chalcopyrite", "GANGUE": "", "LOCATION_DESCRIPTION": "", "LEGAL_DESCRIPTION": "NW 1/4 of sec. 16, T25N, R11E", "LOCATION_ACCURACY": "coordinate accuracy highly variable", "COUNTY": "King", "LATITUDE": 47.6681, "LONGITUDE": -121.4028, "MINING_DISTRICT": "Miller", "LOCATION_SOURCE": "USGS MAS/MILS Database ", "ASSAYS": "", "PRODUCTION": "", "COMMENTS": ""}}, {"type": "Feature", "id": 3399, "geometry": {"type": "Point", "coordinates": [-121.360206, 47.496689]}, "properties": {"OBJECTID": 3399, "SITE_ID": 3879, "SITE_NAME": "Condor-Hemlock", "ALTERNATE_NAMES": "Condor, Hemlock", "PRIMARY_COMMODITY": "Copper (Cu)", "COMMODITIES": "Copper, molybdenum, gold, silver", "ORE_MINERALS": "Chalcopyrite, molybdenite, covellite, chalcocite", "GANGUE": "Quartz, pyrite, pyrrhotite, chlorite, potassic alteration, silicification, sericite", "LOCATION_DESCRIPTION": "", "LEGAL_DESCRIPTION": "sec. 11, T23N, R11E", "LOCATION_ACCURACY": "generally from USGS 7.5-minute topographic map", "COUNTY": "King", "LATITUDE": 47.496689, "LONGITUDE": -121.360206, "MINING_DISTRICT": "Snoqualmie; Burns", "LOCATION_SOURCE": "Open File Report 90-18", "ASSAYS": "", "PRODUCTION": "yes", "COMMENTS": "Production information is in OFR 90-18."}}, {"type": "Feature", "id": 3404, "geometry": {"type": "Point", "coordinates": [-121.641667, 47.675]}, "properties": {"OBJECTID": 3404, "SITE_ID": 3884, "SITE_NAME": "North Fork", "ALTERNATE_NAMES": "Big Ox Extension, North Fork Snoqualmie Porphyry Copper", "PRIMARY_COMMODITY": "Copper (Cu)", "COMMODITIES": "Copper", "ORE_MINERALS": "", "GANGUE": "", "LOCATION_DESCRIPTION": "", "LEGAL_DESCRIPTION": "NE 1/4 of sec. 4, T25N, R26N, R9E", "LOCATION_ACCURACY": "generally from USGS 7.5-minute topographic map", "COUNTY": "King", "LATITUDE": 47.675, "LONGITUDE": -121.641667, "MINING_DISTRICT": "", "LOCATION_SOURCE": "Open File Report 90-18", "ASSAYS": "", "PRODUCTION": "", "COMMENTS": "The legal description was refined by a senior mine specialist. This site was innaccurately listed as Big Ox Extension. It was correctly identified by a senior mine specialist."}}]}