{"type": "FeatureCollection", "features": [{"type": "Feature", "id": 194, "geometry": {"type": "Point", "coordinates": [-121.4306, 47.7069]}, "properties": {"OBJECTID": 194, "SITE_ID": 953, "SITE_NAME": "Aaron", "ALTERNATE_NAMES": "", "PRIMARY_COMMODITY": "Gold (Au)", "COMMODITIES": "Gold", "ORE_MINERALS": "", "GANGUE": "", "LOCATION_DESCRIPTION": "", "LEGAL_DESCRIPTION": "secs. 29 and 31, T26N, R11E", "LOCATION_ACCURACY": "coordinate accuracy highly variable", "COUNTY": "King", "LATITUDE": 47.7069, "LONGITUDE": -121.4306, "MINING_DISTRICT": "Money Creek", "LOCATION_SOURCE": "USGS MAS/MILS Database ", "ASSAYS": "", "PRODUCTION": "", "COMMENTS": ""}}, {"type": "Feature", "id": 195, "geometry": {"type": "Point", "coordinates": [-121.512258, 47.695]}, "properties": {"OBJECTID": 195, "SITE_ID": 954, "SITE_NAME": "Apex", "ALTERNATE_NAMES": "Bondholders Syndicate", "PRIMARY_COMMODITY": "Gold (Au)", "COMMODITIES": "Gold, silver, copper, lead", "ORE_MINERALS": "Chalcopyrite, galena, sphalerite, tetrahedrite, stibnite?", "GANGUE": "Pyrite, arsenopyrite, arsenolite, quartz, tourmaline, calcite", "LOCATION_DESCRIPTION": "Near headwaters of Money Creek", "LEGAL_DESCRIPTION": "SW 1/4 of sec. 34, T26N, R10E", "LOCATION_ACCURACY": "GPS coordinates", "COUNTY": "King", "LATITUDE": 47.695, "LONGITUDE": -121.512258, "MINING_DISTRICT": "Miller River", "LOCATION_SOURCE": "IAML Database ", "ASSAYS": "yes", "PRODUCTION": "yes", "COMMENTS": "Assays are in Bulletin 37. Production information is in Bulletin 37."}}, {"type": "Feature", "id": 196, "geometry": {"type": "Point", "coordinates": [-121.487252, 47.66072]}, "properties": {"OBJECTID": 196, "SITE_ID": 955, "SITE_NAME": "Arizona and Washington", "ALTERNATE_NAMES": "Arizona, Washington", "PRIMARY_COMMODITY": "Gold (Au)", "COMMODITIES": "Gold, copper", "ORE_MINERALS": "", "GANGUE": "", "LOCATION_DESCRIPTION": "1 mi from Mastodon property", "LEGAL_DESCRIPTION": "", "LOCATION_ACCURACY": "coordinates estimated from location description", "COUNTY": "King", "LATITUDE": 47.6607200816804, "LONGITUDE": -121.487251963787, "MINING_DISTRICT": "Buena Vista", "LOCATION_SOURCE": "Bulletin 37", "ASSAYS": "", "PRODUCTION": "", "COMMENTS": ""}}, {"type": "Feature", "id": 197, "geometry": {"type": "Point", "coordinates": [-121.4292, 47.7]}, "properties": {"OBJECTID": 197, "SITE_ID": 956, "SITE_NAME": "Beatrice", "ALTERNATE_NAMES": "", "PRIMARY_COMMODITY": "Gold (Au)", "COMMODITIES": "Gold", "ORE_MINERALS": "", "GANGUE": "", "LOCATION_DESCRIPTION": "", "LEGAL_DESCRIPTION": "sec. 31 and 32, T26N, R11E", "LOCATION_ACCURACY": "coordinate accuracy highly variable", "COUNTY": "King", "LATITUDE": 47.7, "LONGITUDE": -121.4292, "MINING_DISTRICT": "Money Creek", "LOCATION_SOURCE": "USGS MAS/MILS Database ", "ASSAYS": "", "PRODUCTION": "", "COMMENTS": ""}}, {"type": "Feature", "id": 198, "geometry": {"type": "Point", "coordinates": [-121.5467, 47.6608]}, "properties": {"OBJECTID": 198, "SITE_ID": 957, "SITE_NAME": "Beaverdale", "ALTERNATE_NAMES": "", "PRIMARY_COMMODITY": "Gold (Au)", "COMMODITIES": "Gold", "ORE_MINERALS": "Pyrite, arsenopyrite", "GANGUE": "Quartz, gouge", "LOCATION_DESCRIPTION": "0.5 mi up Illinois Creek from N Fork Snoqualmie River; Vein crops out in canyon which enters Illinois Creek from the W.", "LEGAL_DESCRIPTION": "secs. 8 and 9, T25N, R10E", "LOCATION_ACCURACY": "coordinate accuracy highly variable", "COUNTY": "King", "LATITUDE": 47.6608, "LONGITUDE": -121.5467, "MINING_DISTRICT": "", "LOCATION_SOURCE": "USGS MAS/MILS Database ", "ASSAYS": "yes", "PRODUCTION": "", "COMMENTS": "Assays are in Bulletin 37."}}, {"type": "Feature", "id": 199, "geometry": {"type": "Point", "coordinates": [-121.5542, 47.6653]}, "properties": {"OBJECTID": 199, "SITE_ID": 958, "SITE_NAME": "Belle of Tennessee", "ALTERNATE_NAMES": "", "PRIMARY_COMMODITY": "Gold (Au)", "COMMODITIES": "Gold, silver", "ORE_MINERALS": "", "GANGUE": "", "LOCATION_DESCRIPTION": "", "LEGAL_DESCRIPTION": "sec. 8, T25N, R10E", "LOCATION_ACCURACY": "coordinate accuracy highly variable", "COUNTY": "King", "LATITUDE": 47.6653, "LONGITUDE": -121.5542, "MINING_DISTRICT": "Buena Vista", "LOCATION_SOURCE": "USGS MAS/MILS Database ", "ASSAYS": "", "PRODUCTION": "", "COMMENTS": ""}}, {"type": "Feature", "id": 200, "geometry": {"type": "Point", "coordinates": [-121.4403, 47.7139]}, "properties": {"OBJECTID": 200, "SITE_ID": 959, "SITE_NAME": "Bergeson", "ALTERNATE_NAMES": "Normandie", "PRIMARY_COMMODITY": "Gold (Au)", "COMMODITIES": "Gold, silver", "ORE_MINERALS": "Arsenopyrite", "GANGUE": "Quartz", "LOCATION_DESCRIPTION": "", "LEGAL_DESCRIPTION": "sec. 30, T26N, R11E", "LOCATION_ACCURACY": "coordinate accuracy highly variable", "COUNTY": "King", "LATITUDE": 47.7139, "LONGITUDE": -121.4403, "MINING_DISTRICT": "Miller River", "LOCATION_SOURCE": "USGS MAS/MILS Database ", "ASSAYS": "", "PRODUCTION": "", "COMMENTS": ""}}, {"type": "Feature", "id": 201, "geometry": {"type": "Point", "coordinates": [-121.4403, 47.7]}, "properties": {"OBJECTID": 201, "SITE_ID": 961, "SITE_NAME": "Black Bear", "ALTERNATE_NAMES": "", "PRIMARY_COMMODITY": "Gold (Au)", "COMMODITIES": "Gold", "ORE_MINERALS": "", "GANGUE": "", "LOCATION_DESCRIPTION": "", "LEGAL_DESCRIPTION": "sec. 31, T26N, R11E", "LOCATION_ACCURACY": "coordinate accuracy highly variable", "COUNTY": "King", "LATITUDE": 47.7, "LONGITUDE": -121.4403, "MINING_DISTRICT": "Money Creek", "LOCATION_SOURCE": "USGS MAS/MILS Database ", "ASSAYS": "", "PRODUCTION": "", "COMMENTS": ""}}, {"type": "Feature", "id": 202, "geometry": {"type": "Point", "coordinates": [-121.781994, 47.559411]}, "properties": {"OBJECTID": 202, "SITE_ID": 962, "SITE_NAME": "Black Jack", "ALTERNATE_NAMES": "", "PRIMARY_COMMODITY": "Gold (Au)", "COMMODITIES": "Gold, silver, copper", "ORE_MINERALS": "", "GANGUE": "", "LOCATION_DESCRIPTION": "", "LEGAL_DESCRIPTION": "T24N, R8E", "LOCATION_ACCURACY": "coordinates estimated from legal description", "COUNTY": "King", "LATITUDE": 47.5594108053047, "LONGITUDE": -121.781994363973, "MINING_DISTRICT": "", "LOCATION_SOURCE": "Bulletin 37", "ASSAYS": "", "PRODUCTION": "yes", "COMMENTS": "Production information is in OFR 90-18."}}, {"type": "Feature", "id": 203, "geometry": {"type": "Point", "coordinates": [-121.443417, 47.706845]}, "properties": {"OBJECTID": 203, "SITE_ID": 963, "SITE_NAME": "Bonanza Queen", "ALTERNATE_NAMES": "", "PRIMARY_COMMODITY": "Gold (Au)", "COMMODITIES": "Gold, copper", "ORE_MINERALS": "", "GANGUE": "", "LOCATION_DESCRIPTION": "Left bank of Money Creek", "LEGAL_DESCRIPTION": "", "LOCATION_ACCURACY": "coordinates estimated from location description", "COUNTY": "King", "LATITUDE": 47.7068448935685, "LONGITUDE": -121.443416957098, "MINING_DISTRICT": "", "LOCATION_SOURCE": "Bulletin 37", "ASSAYS": "", "PRODUCTION": "", "COMMENTS": ""}}, {"type": "Feature", "id": 204, "geometry": {"type": "Point", "coordinates": [-121.453253, 47.4007]}, "properties": {"OBJECTID": 204, "SITE_ID": 965, "SITE_NAME": "Carmack", "ALTERNATE_NAMES": "", "PRIMARY_COMMODITY": "Gold (Au)", "COMMODITIES": "Gold, silver, lead, copper", "ORE_MINERALS": "Chalcopyrite, galena", "GANGUE": "", "LOCATION_DESCRIPTION": "On S Fork of Snoqualmie River near Snoqualmie Pass", "LEGAL_DESCRIPTION": "secs. 7 and 8, T22N, R11E", "LOCATION_ACCURACY": "generally from USGS 7.5-minute topographic map", "COUNTY": "King", "LATITUDE": 47.4007, "LONGITUDE": -121.453253, "MINING_DISTRICT": "", "LOCATION_SOURCE": "Open File Report 90-18", "ASSAYS": "yes", "PRODUCTION": "yes", "COMMENTS": "Assays are in Bulletin 37. Production information is in Bulletin 37."}}, {"type": "Feature", "id": 205, "geometry": {"type": "Point", "coordinates": [-121.4403, 47.7]}, "properties": {"OBJECTID": 205, "SITE_ID": 967, "SITE_NAME": "Charles", "ALTERNATE_NAMES": "", "PRIMARY_COMMODITY": "Gold (Au)", "COMMODITIES": "Gold", "ORE_MINERALS": "", "GANGUE": "", "LOCATION_DESCRIPTION": "", "LEGAL_DESCRIPTION": "sec. 31, T26N, R11E", "LOCATION_ACCURACY": "coordinate accuracy highly variable", "COUNTY": "King", "LATITUDE": 47.7, "LONGITUDE": -121.4403, "MINING_DISTRICT": "Money Creek", "LOCATION_SOURCE": "USGS MAS/MILS Database ", "ASSAYS": "", "PRODUCTION": "", "COMMENTS": ""}}, {"type": "Feature", "id": 206, "geometry": {"type": "Point", "coordinates": [-121.4181, 47.7]}, "properties": {"OBJECTID": 206, "SITE_ID": 968, "SITE_NAME": "Clara", "ALTERNATE_NAMES": "", "PRIMARY_COMMODITY": "Gold (Au)", "COMMODITIES": "Gold", "ORE_MINERALS": "", "GANGUE": "", "LOCATION_DESCRIPTION": "", "LEGAL_DESCRIPTION": "sec. 32, T26N, R11E", "LOCATION_ACCURACY": "coordinate accuracy highly variable", "COUNTY": "King", "LATITUDE": 47.7, "LONGITUDE": -121.4181, "MINING_DISTRICT": "Money Creek", "LOCATION_SOURCE": "USGS MAS/MILS Database ", "ASSAYS": "", "PRODUCTION": "", "COMMENTS": ""}}, {"type": "Feature", "id": 207, "geometry": {"type": "Point", "coordinates": [-121.46165, 47.652119]}, "properties": {"OBJECTID": 207, "SITE_ID": 969, "SITE_NAME": "Coney Basin", "ALTERNATE_NAMES": "", "PRIMARY_COMMODITY": "Gold (Au)", "COMMODITIES": "Gold, silver, copper, zinc, lead", "ORE_MINERALS": "Chalcopyrite, galena, sphalerite, tetrahedrite, bournonite", "GANGUE": "Pyrite, quartz, arsenopyrite", "LOCATION_DESCRIPTION": "", "LEGAL_DESCRIPTION": "sec. 13, T25N, R10E; sec. 19, T25N, R11E", "LOCATION_ACCURACY": "generally from USGS 7.5-minute topographic map", "COUNTY": "King", "LATITUDE": 47.652119, "LONGITUDE": -121.46165, "MINING_DISTRICT": "Miller River", "LOCATION_SOURCE": "Open File Report 90-18", "ASSAYS": "yes", "PRODUCTION": "yes", "COMMENTS": "Assays are in Bulletin 37 and in the scanned files. Production information is in Bulletin 37."}}, {"type": "Feature", "id": 208, "geometry": {"type": "Point", "coordinates": [-121.4289, 47.7]}, "properties": {"OBJECTID": 208, "SITE_ID": 970, "SITE_NAME": "Cooper", "ALTERNATE_NAMES": "", "PRIMARY_COMMODITY": "Gold (Au)", "COMMODITIES": "Gold", "ORE_MINERALS": "", "GANGUE": "", "LOCATION_DESCRIPTION": "", "LEGAL_DESCRIPTION": "sec. 31 and 32, T26N, R11E", "LOCATION_ACCURACY": "coordinate accuracy highly variable", "COUNTY": "King", "LATITUDE": 47.7, "LONGITUDE": -121.4289, "MINING_DISTRICT": "Money Creek", "LOCATION_SOURCE": "USGS MAS/MILS Database ", "ASSAYS": "", "PRODUCTION": "yes", "COMMENTS": "Production information is in OFR 90-18."}}, {"type": "Feature", "id": 209, "geometry": {"type": "Point", "coordinates": [-121.733967, 47.508191]}, "properties": {"OBJECTID": 209, "SITE_ID": 971, "SITE_NAME": "Copper Bell", "ALTERNATE_NAMES": "", "PRIMARY_COMMODITY": "Gold (Au)", "COMMODITIES": "Gold, silver, copper", "ORE_MINERALS": "", "GANGUE": "", "LOCATION_DESCRIPTION": "2.5 mi from Sallal Prairie", "LEGAL_DESCRIPTION": "", "LOCATION_ACCURACY": "coordinates estimated from location description", "COUNTY": "King", "LATITUDE": 47.5081907801805, "LONGITUDE": -121.733967271397, "MINING_DISTRICT": "", "LOCATION_SOURCE": "Bulletin 37", "ASSAYS": "", "PRODUCTION": "", "COMMENTS": ""}}, {"type": "Feature", "id": 210, "geometry": {"type": "Point", "coordinates": [-121.3319, 47.7083]}, "properties": {"OBJECTID": 210, "SITE_ID": 972, "SITE_NAME": "Copper Duke", "ALTERNATE_NAMES": "", "PRIMARY_COMMODITY": "Gold (Au)", "COMMODITIES": "Gold, silver, copper", "ORE_MINERALS": "", "GANGUE": "", "LOCATION_DESCRIPTION": "On Money Creek", "LEGAL_DESCRIPTION": "sec. 25, T26N, R10E", "LOCATION_ACCURACY": "coordinate accuracy highly variable", "COUNTY": "King", "LATITUDE": 47.7083, "LONGITUDE": -121.3319, "MINING_DISTRICT": "", "LOCATION_SOURCE": "USGS MAS/MILS Database ", "ASSAYS": "", "PRODUCTION": "", "COMMENTS": ""}}, {"type": "Feature", "id": 211, "geometry": {"type": "Point", "coordinates": [-121.526053, 47.698392]}, "properties": {"OBJECTID": 211, "SITE_ID": 973, "SITE_NAME": "Damon and Pythias", "ALTERNATE_NAMES": "Damon, Pythias", "PRIMARY_COMMODITY": "Gold (Au)", "COMMODITIES": "Gold, silver, lead, copper, zinc", "ORE_MINERALS": "Chalcopyrite, galena, sphalerite, tetrahedrite", "GANGUE": "Arsenopyrite, pyrite, quartz, tourmaline, calcite", "LOCATION_DESCRIPTION": "At head of Money Creek, adjoining Apex property", "LEGAL_DESCRIPTION": "sec. 33, T26N, R10E", "LOCATION_ACCURACY": "generally from USGS 7.5-minute topographic map", "COUNTY": "King", "LATITUDE": 47.698392, "LONGITUDE": -121.526053, "MINING_DISTRICT": "Miller River", "LOCATION_SOURCE": "Open File Report 90-18", "ASSAYS": "yes", "PRODUCTION": "yes", "COMMENTS": "Assays are in Bulletin 37 and in the scanned files. Production information is in Bulletin 37."}}, {"type": "Feature", "id": 212, "geometry": {"type": "Point", "coordinates": [-121.4403, 47.7]}, "properties": {"OBJECTID": 212, "SITE_ID": 974, "SITE_NAME": "De La Mar", "ALTERNATE_NAMES": "", "PRIMARY_COMMODITY": "Gold (Au)", "COMMODITIES": "Gold", "ORE_MINERALS": "", "GANGUE": "", "LOCATION_DESCRIPTION": "", "LEGAL_DESCRIPTION": "sec. 31, T26N, R11E", "LOCATION_ACCURACY": "coordinate accuracy highly variable", "COUNTY": "King", "LATITUDE": 47.7, "LONGITUDE": -121.4403, "MINING_DISTRICT": "Money Creek", "LOCATION_SOURCE": "USGS MAS/MILS Database ", "ASSAYS": "", "PRODUCTION": "", "COMMENTS": ""}}, {"type": "Feature", "id": 214, "geometry": {"type": "Point", "coordinates": [-121.4181, 47.7]}, "properties": {"OBJECTID": 214, "SITE_ID": 976, "SITE_NAME": "Dudley", "ALTERNATE_NAMES": "", "PRIMARY_COMMODITY": "Gold (Au)", "COMMODITIES": "Gold", "ORE_MINERALS": "", "GANGUE": "", "LOCATION_DESCRIPTION": "", "LEGAL_DESCRIPTION": "sec. 32, T26N, R11E", "LOCATION_ACCURACY": "coordinate accuracy highly variable", "COUNTY": "King", "LATITUDE": 47.7, "LONGITUDE": -121.4181, "MINING_DISTRICT": "Money Creek", "LOCATION_SOURCE": "USGS MAS/MILS Database ", "ASSAYS": "", "PRODUCTION": "", "COMMENTS": ""}}, {"type": "Feature", "id": 215, "geometry": {"type": "Point", "coordinates": [-121.4403, 47.7]}, "properties": {"OBJECTID": 215, "SITE_ID": 977, "SITE_NAME": "Extra", "ALTERNATE_NAMES": "", "PRIMARY_COMMODITY": "Gold (Au)", "COMMODITIES": "Gold", "ORE_MINERALS": "Arsenopyrite", "GANGUE": "", "LOCATION_DESCRIPTION": "", "LEGAL_DESCRIPTION": "sec. 31, T26N, R11E", "LOCATION_ACCURACY": "coordinate accuracy highly variable", "COUNTY": "King", "LATITUDE": 47.7, "LONGITUDE": -121.4403, "MINING_DISTRICT": "Money Creek", "LOCATION_SOURCE": "USGS MAS/MILS Database ", "ASSAYS": "", "PRODUCTION": "", "COMMENTS": ""}}, {"type": "Feature", "id": 216, "geometry": {"type": "Point", "coordinates": [-121.4611, 47.7139]}, "properties": {"OBJECTID": 216, "SITE_ID": 978, "SITE_NAME": "Favorite Gulch", "ALTERNATE_NAMES": "", "PRIMARY_COMMODITY": "Gold (Au)", "COMMODITIES": "Gold, silver", "ORE_MINERALS": "", "GANGUE": "", "LOCATION_DESCRIPTION": "On Money Creek", "LEGAL_DESCRIPTION": "sec. 25, T26N, R10E", "LOCATION_ACCURACY": "coordinate accuracy highly variable", "COUNTY": "King", "LATITUDE": 47.7139, "LONGITUDE": -121.4611, "MINING_DISTRICT": "", "LOCATION_SOURCE": "USGS MAS/MILS Database ", "ASSAYS": "", "PRODUCTION": "", "COMMENTS": ""}}, {"type": "Feature", "id": 218, "geometry": {"type": "Point", "coordinates": [-121.4403, 47.7]}, "properties": {"OBJECTID": 218, "SITE_ID": 980, "SITE_NAME": "Florence", "ALTERNATE_NAMES": "", "PRIMARY_COMMODITY": "Gold (Au)", "COMMODITIES": "Gold", "ORE_MINERALS": "", "GANGUE": "", "LOCATION_DESCRIPTION": "", "LEGAL_DESCRIPTION": "sec. 31, T26N, R11E", "LOCATION_ACCURACY": "coordinate accuracy highly variable", "COUNTY": "King", "LATITUDE": 47.7, "LONGITUDE": -121.4403, "MINING_DISTRICT": "Money Creek", "LOCATION_SOURCE": "USGS MAS/MILS Database ", "ASSAYS": "", "PRODUCTION": "", "COMMENTS": ""}}, {"type": "Feature", "id": 219, "geometry": {"type": "Point", "coordinates": [-121.4639, 47.6175]}, "properties": {"OBJECTID": 219, "SITE_ID": 982, "SITE_NAME": "Highlander", "ALTERNATE_NAMES": "", "PRIMARY_COMMODITY": "Gold (Au)", "COMMODITIES": "Gold", "ORE_MINERALS": "", "GANGUE": "", "LOCATION_DESCRIPTION": "", "LEGAL_DESCRIPTION": "SE 1/4 of sec. 25, T25N, R10E", "LOCATION_ACCURACY": "coordinate accuracy highly variable", "COUNTY": "King", "LATITUDE": 47.6175, "LONGITUDE": -121.4639, "MINING_DISTRICT": "Miller River", "LOCATION_SOURCE": "USGS MAS/MILS Database ", "ASSAYS": "", "PRODUCTION": "", "COMMENTS": ""}}, {"type": "Feature", "id": 220, "geometry": {"type": "Point", "coordinates": [-121.4181, 47.7]}, "properties": {"OBJECTID": 220, "SITE_ID": 983, "SITE_NAME": "Jay", "ALTERNATE_NAMES": "", "PRIMARY_COMMODITY": "Gold (Au)", "COMMODITIES": "Gold", "ORE_MINERALS": "", "GANGUE": "", "LOCATION_DESCRIPTION": "", "LEGAL_DESCRIPTION": "sec. 32, T26N, R11E", "LOCATION_ACCURACY": "coordinate accuracy highly variable", "COUNTY": "King", "LATITUDE": 47.7, "LONGITUDE": -121.4181, "MINING_DISTRICT": "Money Creek", "LOCATION_SOURCE": "USGS MAS/MILS Database ", "ASSAYS": "", "PRODUCTION": "", "COMMENTS": ""}}, {"type": "Feature", "id": 221, "geometry": {"type": "Point", "coordinates": [-121.441716, 47.699121]}, "properties": {"OBJECTID": 221, "SITE_ID": 984, "SITE_NAME": "Judge", "ALTERNATE_NAMES": "", "PRIMARY_COMMODITY": "Gold (Au)", "COMMODITIES": "Gold", "ORE_MINERALS": "", "GANGUE": "", "LOCATION_DESCRIPTION": "", "LEGAL_DESCRIPTION": "sec. 31, T26N, R11E", "LOCATION_ACCURACY": "coordinates estimated from legal description", "COUNTY": "King", "LATITUDE": 47.6991211777972, "LONGITUDE": -121.441716028586, "MINING_DISTRICT": "Money Creek", "LOCATION_SOURCE": "Bulletin 37", "ASSAYS": "", "PRODUCTION": "", "COMMENTS": ""}}, {"type": "Feature", "id": 222, "geometry": {"type": "Point", "coordinates": [-121.4292, 47.6917]}, "properties": {"OBJECTID": 222, "SITE_ID": 985, "SITE_NAME": "Kimball", "ALTERNATE_NAMES": "", "PRIMARY_COMMODITY": "Gold (Au)", "COMMODITIES": "Gold, silver, antimony", "ORE_MINERALS": "", "GANGUE": "", "LOCATION_DESCRIPTION": "On Kimball Creek 2 mi from Money Creek", "LEGAL_DESCRIPTION": "sec. 31 and 32, T26N, R11E; secs. 5 and 6, T25N, R11E", "LOCATION_ACCURACY": "coordinate accuracy highly variable", "COUNTY": "King", "LATITUDE": 47.6917, "LONGITUDE": -121.4292, "MINING_DISTRICT": "", "LOCATION_SOURCE": "USGS MAS/MILS Database ", "ASSAYS": "", "PRODUCTION": "", "COMMENTS": ""}}, {"type": "Feature", "id": 223, "geometry": {"type": "Point", "coordinates": [-121.4431, 47.4083]}, "properties": {"OBJECTID": 223, "SITE_ID": 986, "SITE_NAME": "Klondike", "ALTERNATE_NAMES": "", "PRIMARY_COMMODITY": "Gold (Au)", "COMMODITIES": "Gold", "ORE_MINERALS": "", "GANGUE": "", "LOCATION_DESCRIPTION": "", "LEGAL_DESCRIPTION": "secs. 7 and 8, T22N, R11E", "LOCATION_ACCURACY": "coordinate accuracy highly variable", "COUNTY": "King", "LATITUDE": 47.4083, "LONGITUDE": -121.4431, "MINING_DISTRICT": "", "LOCATION_SOURCE": "USGS MAS/MILS Database ", "ASSAYS": "", "PRODUCTION": "", "COMMENTS": ""}}, {"type": "Feature", "id": 224, "geometry": {"type": "Point", "coordinates": [-121.4681, 47.6833]}, "properties": {"OBJECTID": 224, "SITE_ID": 987, "SITE_NAME": "Last Chance", "ALTERNATE_NAMES": "Sockless Jerry", "PRIMARY_COMMODITY": "Gold (Au)", "COMMODITIES": "Gold, silver, lead, zinc, antimony", "ORE_MINERALS": "Arsenopyrite, pyrite", "GANGUE": "", "LOCATION_DESCRIPTION": "1 mi S of Money Creek", "LEGAL_DESCRIPTION": "sec. 1, T25N, R10E", "LOCATION_ACCURACY": "coordinate accuracy highly variable", "COUNTY": "King", "LATITUDE": 47.6833, "LONGITUDE": -121.4681, "MINING_DISTRICT": "", "LOCATION_SOURCE": "USGS MAS/MILS Database ", "ASSAYS": "", "PRODUCTION": "", "COMMENTS": ""}}, {"type": "Feature", "id": 226, "geometry": {"type": "Point", "coordinates": [-121.6208, 47.4056]}, "properties": {"OBJECTID": 226, "SITE_ID": 989, "SITE_NAME": "Last Chance", "ALTERNATE_NAMES": "", "PRIMARY_COMMODITY": "Gold (Au)", "COMMODITIES": "Gold, silver", "ORE_MINERALS": "", "GANGUE": "", "LOCATION_DESCRIPTION": "", "LEGAL_DESCRIPTION": "sec. 11, T22N, R9E", "LOCATION_ACCURACY": "coordinate accuracy highly variable", "COUNTY": "King", "LATITUDE": 47.4056, "LONGITUDE": -121.6208, "MINING_DISTRICT": "Snoqualmie", "LOCATION_SOURCE": "USGS MAS/MILS Database ", "ASSAYS": "", "PRODUCTION": "", "COMMENTS": ""}}, {"type": "Feature", "id": 227, "geometry": {"type": "Point", "coordinates": [-121.45, 47.6333]}, "properties": {"OBJECTID": 227, "SITE_ID": 991, "SITE_NAME": "Le Roi", "ALTERNATE_NAMES": "", "PRIMARY_COMMODITY": "Gold (Au)", "COMMODITIES": "Gold, silver, copper", "ORE_MINERALS": "", "GANGUE": "", "LOCATION_DESCRIPTION": "", "LEGAL_DESCRIPTION": "SW 1/4 of sec. 30, T25N, R11E", "LOCATION_ACCURACY": "coordinate accuracy highly variable", "COUNTY": "King", "LATITUDE": 47.6333, "LONGITUDE": -121.45, "MINING_DISTRICT": "Miller River", "LOCATION_SOURCE": "USGS MAS/MILS Database ", "ASSAYS": "", "PRODUCTION": "", "COMMENTS": ""}}, {"type": "Feature", "id": 228, "geometry": {"type": "Point", "coordinates": [-121.7194, 47.5322]}, "properties": {"OBJECTID": 228, "SITE_ID": 992, "SITE_NAME": "Legal Tender", "ALTERNATE_NAMES": "", "PRIMARY_COMMODITY": "Gold (Au)", "COMMODITIES": "Gold, copper", "ORE_MINERALS": "", "GANGUE": "", "LOCATION_DESCRIPTION": "", "LEGAL_DESCRIPTION": "SE 1/4 of sec. 25, T24N, R8E", "LOCATION_ACCURACY": "coordinate accuracy highly variable", "COUNTY": "King", "LATITUDE": 47.5322, "LONGITUDE": -121.7194, "MINING_DISTRICT": "Snoqualmie", "LOCATION_SOURCE": "USGS MAS/MILS Database ", "ASSAYS": "", "PRODUCTION": "", "COMMENTS": ""}}, {"type": "Feature", "id": 229, "geometry": {"type": "Point", "coordinates": [-121.5731, 47.6524]}, "properties": {"OBJECTID": 229, "SITE_ID": 993, "SITE_NAME": "Lenox Mining and Development", "ALTERNATE_NAMES": "Development, Lennox, Lenox Mining", "PRIMARY_COMMODITY": "Gold (Au)", "COMMODITIES": "Gold, silver, zinc, lead, copper, arsenic, antimony", "ORE_MINERALS": "Sphalerite, chalcopyrite, pyrite, arsenopyrite, galena", "GANGUE": "Quartz, calcite", "LOCATION_DESCRIPTION": "", "LEGAL_DESCRIPTION": "sec. 18, T25N, R10E", "LOCATION_ACCURACY": "USGS 7.5-minute topographic map", "COUNTY": "King", "LATITUDE": 47.6524, "LONGITUDE": -121.5731, "MINING_DISTRICT": "Buena Vista", "LOCATION_SOURCE": "USGS 7.5-minute topographic map", "ASSAYS": "yes", "PRODUCTION": "yes", "COMMENTS": "Assays are in Bulletin 37 and in the scanned files. Production information is in Bulletin 37."}}, {"type": "Feature", "id": 230, "geometry": {"type": "Point", "coordinates": [-121.7408, 47.5272]}, "properties": {"OBJECTID": 230, "SITE_ID": 994, "SITE_NAME": "Leta", "ALTERNATE_NAMES": "", "PRIMARY_COMMODITY": "Gold (Au)", "COMMODITIES": "Gold, silver, copper", "ORE_MINERALS": "", "GANGUE": "", "LOCATION_DESCRIPTION": "", "LEGAL_DESCRIPTION": "SE 1/4 of sec. 26, T24N, R8E", "LOCATION_ACCURACY": "coordinate accuracy highly variable", "COUNTY": "King", "LATITUDE": 47.5272, "LONGITUDE": -121.7408, "MINING_DISTRICT": "Snoqualmie", "LOCATION_SOURCE": "USGS MAS/MILS Database ", "ASSAYS": "", "PRODUCTION": "", "COMMENTS": ""}}, {"type": "Feature", "id": 231, "geometry": {"type": "Point", "coordinates": [-121.4403, 47.7]}, "properties": {"OBJECTID": 231, "SITE_ID": 995, "SITE_NAME": "Lillian Leone", "ALTERNATE_NAMES": "", "PRIMARY_COMMODITY": "Gold (Au)", "COMMODITIES": "Gold", "ORE_MINERALS": "", "GANGUE": "", "LOCATION_DESCRIPTION": "", "LEGAL_DESCRIPTION": "sec. 31, T26N, R11E", "LOCATION_ACCURACY": "coordinate accuracy highly variable", "COUNTY": "King", "LATITUDE": 47.7, "LONGITUDE": -121.4403, "MINING_DISTRICT": "Money Creek", "LOCATION_SOURCE": "USGS MAS/MILS Database ", "ASSAYS": "", "PRODUCTION": "", "COMMENTS": ""}}, {"type": "Feature", "id": 232, "geometry": {"type": "Point", "coordinates": [-121.468591, 47.682228]}, "properties": {"OBJECTID": 232, "SITE_ID": 996, "SITE_NAME": "Little Una", "ALTERNATE_NAMES": "", "PRIMARY_COMMODITY": "Gold (Au)", "COMMODITIES": "Gold, copper", "ORE_MINERALS": "", "GANGUE": "", "LOCATION_DESCRIPTION": "Adjoining Lone Star", "LEGAL_DESCRIPTION": "", "LOCATION_ACCURACY": "coordinates estimated from location description", "COUNTY": "King", "LATITUDE": 47.6822280734113, "LONGITUDE": -121.468590897255, "MINING_DISTRICT": "Miller River", "LOCATION_SOURCE": "Bulletin 37", "ASSAYS": "", "PRODUCTION": "", "COMMENTS": ""}}, {"type": "Feature", "id": 233, "geometry": {"type": "Point", "coordinates": [-121.470201, 47.682215]}, "properties": {"OBJECTID": 233, "SITE_ID": 997, "SITE_NAME": "Lone Star", "ALTERNATE_NAMES": "", "PRIMARY_COMMODITY": "Gold (Au)", "COMMODITIES": "Gold, silver, lead", "ORE_MINERALS": "", "GANGUE": "", "LOCATION_DESCRIPTION": "On Money Creek Claims cross Falls Creek", "LEGAL_DESCRIPTION": "sec. 1, T25N, R10E", "LOCATION_ACCURACY": "coordinates estimated from legal description", "COUNTY": "King", "LATITUDE": 47.6822148516841, "LONGITUDE": -121.470201084821, "MINING_DISTRICT": "", "LOCATION_SOURCE": "Bulletin 37", "ASSAYS": "", "PRODUCTION": "", "COMMENTS": ""}}, {"type": "Feature", "id": 234, "geometry": {"type": "Point", "coordinates": [-121.5108, 47.6653]}, "properties": {"OBJECTID": 234, "SITE_ID": 998, "SITE_NAME": "Lucky Strike", "ALTERNATE_NAMES": "", "PRIMARY_COMMODITY": "Gold (Au)", "COMMODITIES": "Gold, silver, copper", "ORE_MINERALS": "Pyrite, arsenopyrite, chalcopyrite", "GANGUE": "Quartz", "LOCATION_DESCRIPTION": "", "LEGAL_DESCRIPTION": "secs. 9 and 10, T25N, R10E", "LOCATION_ACCURACY": "coordinate accuracy highly variable", "COUNTY": "King", "LATITUDE": 47.6653, "LONGITUDE": -121.5108, "MINING_DISTRICT": "Buena Vista", "LOCATION_SOURCE": "USGS MAS/MILS Database ", "ASSAYS": "yes", "PRODUCTION": "", "COMMENTS": "Assays are in Bulletin 37."}}, {"type": "Feature", "id": 235, "geometry": {"type": "Point", "coordinates": [-121.45, 47.6333]}, "properties": {"OBJECTID": 235, "SITE_ID": 999, "SITE_NAME": "Metropolitan", "ALTERNATE_NAMES": "", "PRIMARY_COMMODITY": "Gold (Au)", "COMMODITIES": "Gold, silver", "ORE_MINERALS": "", "GANGUE": "", "LOCATION_DESCRIPTION": "On W side of Miller River 9 mi from its mouth; adjoins Cleopatra property", "LEGAL_DESCRIPTION": "sec. 30, T25N, R11E", "LOCATION_ACCURACY": "coordinate accuracy highly variable", "COUNTY": "King", "LATITUDE": 47.6333, "LONGITUDE": -121.45, "MINING_DISTRICT": "", "LOCATION_SOURCE": "USGS MAS/MILS Database ", "ASSAYS": "", "PRODUCTION": "", "COMMENTS": ""}}, {"type": "Feature", "id": 236, "geometry": {"type": "Point", "coordinates": [-121.4403, 47.7]}, "properties": {"OBJECTID": 236, "SITE_ID": 1000, "SITE_NAME": "Mitchell", "ALTERNATE_NAMES": "", "PRIMARY_COMMODITY": "Gold (Au)", "COMMODITIES": "Gold", "ORE_MINERALS": "", "GANGUE": "", "LOCATION_DESCRIPTION": "", "LEGAL_DESCRIPTION": "sec. 31, T26N, R11E", "LOCATION_ACCURACY": "coordinate accuracy highly variable", "COUNTY": "King", "LATITUDE": 47.7, "LONGITUDE": -121.4403, "MINING_DISTRICT": "Money Creek", "LOCATION_SOURCE": "USGS MAS/MILS Database ", "ASSAYS": "", "PRODUCTION": "", "COMMENTS": ""}}, {"type": "Feature", "id": 237, "geometry": {"type": "Point", "coordinates": [-121.4611, 47.7139]}, "properties": {"OBJECTID": 237, "SITE_ID": 1001, "SITE_NAME": "Monarch", "ALTERNATE_NAMES": "", "PRIMARY_COMMODITY": "Gold (Au)", "COMMODITIES": "Gold, silver", "ORE_MINERALS": "", "GANGUE": "", "LOCATION_DESCRIPTION": "On Money Creek", "LEGAL_DESCRIPTION": "sec. 25, T26N, R10E", "LOCATION_ACCURACY": "coordinate accuracy highly variable", "COUNTY": "King", "LATITUDE": 47.7139, "LONGITUDE": -121.4611, "MINING_DISTRICT": "", "LOCATION_SOURCE": "USGS MAS/MILS Database ", "ASSAYS": "", "PRODUCTION": "", "COMMENTS": ""}}, {"type": "Feature", "id": 238, "geometry": {"type": "Point", "coordinates": [-121.5389, 47.6881]}, "properties": {"OBJECTID": 238, "SITE_ID": 1002, "SITE_NAME": "Monte Carlo", "ALTERNATE_NAMES": "", "PRIMARY_COMMODITY": "Gold (Au)", "COMMODITIES": "Gold, silver", "ORE_MINERALS": "Pyrite, malachite, arsenopyrite, molybdenite", "GANGUE": "Quartz, tourmaline", "LOCATION_DESCRIPTION": "Near head of N Fork of Snoqualmie River", "LEGAL_DESCRIPTION": "NW 1/4 of sec. 4, T25N, R10E", "LOCATION_ACCURACY": "coordinate accuracy highly variable", "COUNTY": "King", "LATITUDE": 47.6881, "LONGITUDE": -121.5389, "MINING_DISTRICT": "", "LOCATION_SOURCE": "USGS MAS/MILS Database ", "ASSAYS": "yes", "PRODUCTION": "", "COMMENTS": "Assays are in Bulletin 37."}}, {"type": "Feature", "id": 239, "geometry": {"type": "Point", "coordinates": [-121.415662, 47.65074]}, "properties": {"OBJECTID": 239, "SITE_ID": 1003, "SITE_NAME": "Mountain Gem", "ALTERNATE_NAMES": "", "PRIMARY_COMMODITY": "Gold (Au)", "COMMODITIES": "Gold, silver", "ORE_MINERALS": "", "GANGUE": "", "LOCATION_DESCRIPTION": "Cleopatra Basin", "LEGAL_DESCRIPTION": "", "LOCATION_ACCURACY": "coordinates estimated from location description", "COUNTY": "King", "LATITUDE": 47.6507402559628, "LONGITUDE": -121.41566225362, "MINING_DISTRICT": "Miller River", "LOCATION_SOURCE": "Bulletin 37", "ASSAYS": "", "PRODUCTION": "", "COMMENTS": ""}}, {"type": "Feature", "id": 240, "geometry": {"type": "Point", "coordinates": [-121.4181, 47.7]}, "properties": {"OBJECTID": 240, "SITE_ID": 1004, "SITE_NAME": "Napoleon", "ALTERNATE_NAMES": "", "PRIMARY_COMMODITY": "Gold (Au)", "COMMODITIES": "Gold", "ORE_MINERALS": "", "GANGUE": "", "LOCATION_DESCRIPTION": "", "LEGAL_DESCRIPTION": "sec. 32, T26N, R11E", "LOCATION_ACCURACY": "coordinate accuracy highly variable", "COUNTY": "King", "LATITUDE": 47.7, "LONGITUDE": -121.4181, "MINING_DISTRICT": "Money Creek", "LOCATION_SOURCE": "USGS MAS/MILS Database ", "ASSAYS": "", "PRODUCTION": "", "COMMENTS": ""}}, {"type": "Feature", "id": 241, "geometry": {"type": "Point", "coordinates": [-121.4736, 47.7139]}, "properties": {"OBJECTID": 241, "SITE_ID": 1005, "SITE_NAME": "Neptune", "ALTERNATE_NAMES": "", "PRIMARY_COMMODITY": "Gold (Au)", "COMMODITIES": "Gold, silver, lead", "ORE_MINERALS": "", "GANGUE": "", "LOCATION_DESCRIPTION": "On Money Creek", "LEGAL_DESCRIPTION": "secs. 25 and 26, T26N, R10E", "LOCATION_ACCURACY": "coordinate accuracy highly variable", "COUNTY": "King", "LATITUDE": 47.7139, "LONGITUDE": -121.4736, "MINING_DISTRICT": "", "LOCATION_SOURCE": "USGS MAS/MILS Database ", "ASSAYS": "", "PRODUCTION": "", "COMMENTS": ""}}, {"type": "Feature", "id": 242, "geometry": {"type": "Point", "coordinates": [-121.4181, 47.7]}, "properties": {"OBJECTID": 242, "SITE_ID": 1006, "SITE_NAME": "Norwood", "ALTERNATE_NAMES": "", "PRIMARY_COMMODITY": "Gold (Au)", "COMMODITIES": "Gold", "ORE_MINERALS": "", "GANGUE": "", "LOCATION_DESCRIPTION": "", "LEGAL_DESCRIPTION": "sec. 32, T26N, R11E", "LOCATION_ACCURACY": "coordinate accuracy highly variable", "COUNTY": "King", "LATITUDE": 47.7, "LONGITUDE": -121.4181, "MINING_DISTRICT": "Money Creek", "LOCATION_SOURCE": "USGS MAS/MILS Database ", "ASSAYS": "", "PRODUCTION": "", "COMMENTS": ""}}, {"type": "Feature", "id": 243, "geometry": {"type": "Point", "coordinates": [-121.4333, 47.6944]}, "properties": {"OBJECTID": 243, "SITE_ID": 1007, "SITE_NAME": "Oliver", "ALTERNATE_NAMES": "", "PRIMARY_COMMODITY": "Gold (Au)", "COMMODITIES": "Gold", "ORE_MINERALS": "", "GANGUE": "", "LOCATION_DESCRIPTION": "", "LEGAL_DESCRIPTION": "secs. 5 and 6, T26N, R10E", "LOCATION_ACCURACY": "coordinate accuracy highly variable", "COUNTY": "King", "LATITUDE": 47.6944, "LONGITUDE": -121.4333, "MINING_DISTRICT": "Money Creek", "LOCATION_SOURCE": "USGS MAS/MILS Database ", "ASSAYS": "", "PRODUCTION": "", "COMMENTS": ""}}, {"type": "Feature", "id": 247, "geometry": {"type": "Point", "coordinates": [-121.4292, 47.7]}, "properties": {"OBJECTID": 247, "SITE_ID": 1011, "SITE_NAME": "Owen", "ALTERNATE_NAMES": "", "PRIMARY_COMMODITY": "Gold (Au)", "COMMODITIES": "Gold", "ORE_MINERALS": "", "GANGUE": "", "LOCATION_DESCRIPTION": "", "LEGAL_DESCRIPTION": "sec. 31 and 32, T26N, R11E", "LOCATION_ACCURACY": "coordinate accuracy highly variable", "COUNTY": "King", "LATITUDE": 47.7, "LONGITUDE": -121.4292, "MINING_DISTRICT": "Money Creek", "LOCATION_SOURCE": "USGS MAS/MILS Database ", "ASSAYS": "", "PRODUCTION": "", "COMMENTS": ""}}, {"type": "Feature", "id": 248, "geometry": {"type": "Point", "coordinates": [-121.4181, 47.7]}, "properties": {"OBJECTID": 248, "SITE_ID": 1012, "SITE_NAME": "Paradise", "ALTERNATE_NAMES": "", "PRIMARY_COMMODITY": "Gold (Au)", "COMMODITIES": "Gold", "ORE_MINERALS": "", "GANGUE": "", "LOCATION_DESCRIPTION": "", "LEGAL_DESCRIPTION": "sec. 32, T26N, R11E", "LOCATION_ACCURACY": "coordinate accuracy highly variable", "COUNTY": "King", "LATITUDE": 47.7, "LONGITUDE": -121.4181, "MINING_DISTRICT": "Money Creek", "LOCATION_SOURCE": "USGS MAS/MILS Database ", "ASSAYS": "", "PRODUCTION": "", "COMMENTS": ""}}, {"type": "Feature", "id": 249, "geometry": {"type": "Point", "coordinates": [-121.456195, 47.713504]}, "properties": {"OBJECTID": 249, "SITE_ID": 1013, "SITE_NAME": "Paymaster", "ALTERNATE_NAMES": "", "PRIMARY_COMMODITY": "Gold (Au)", "COMMODITIES": "Gold, silver", "ORE_MINERALS": "", "GANGUE": "", "LOCATION_DESCRIPTION": "Parallel to San Francisco property", "LEGAL_DESCRIPTION": "", "LOCATION_ACCURACY": "coordinates estimated from location description", "COUNTY": "King", "LATITUDE": 47.7135043823799, "LONGITUDE": -121.456195092479, "MINING_DISTRICT": "Money Creek", "LOCATION_SOURCE": "Bulletin 37", "ASSAYS": "", "PRODUCTION": "", "COMMENTS": ""}}, {"type": "Feature", "id": 250, "geometry": {"type": "Point", "coordinates": [-121.5508, 47.5694]}, "properties": {"OBJECTID": 250, "SITE_ID": 1014, "SITE_NAME": "Rainy", "ALTERNATE_NAMES": "Western States Copper", "PRIMARY_COMMODITY": "Gold (Au)", "COMMODITIES": "Gold, silver, copper", "ORE_MINERALS": "Chalcopyrite, brannerite, pyrite, pyrrhotite, molybdenite, arsenopyrite", "GANGUE": "Quartz, tourmaline", "LOCATION_DESCRIPTION": "", "LEGAL_DESCRIPTION": "sec. 16, T24N, R10E", "LOCATION_ACCURACY": "coordinate accuracy highly variable", "COUNTY": "King", "LATITUDE": 47.5694, "LONGITUDE": -121.5508, "MINING_DISTRICT": "Taylor River", "LOCATION_SOURCE": "USGS MAS/MILS Database ", "ASSAYS": "yes", "PRODUCTION": "yes", "COMMENTS": "Assays are in Bulletin 37 and in the scanned files. Production information is in Bulletin 37."}}, {"type": "Feature", "id": 251, "geometry": {"type": "Point", "coordinates": [-121.4181, 47.7]}, "properties": {"OBJECTID": 251, "SITE_ID": 1015, "SITE_NAME": "Ray", "ALTERNATE_NAMES": "", "PRIMARY_COMMODITY": "Gold (Au)", "COMMODITIES": "Gold", "ORE_MINERALS": "", "GANGUE": "", "LOCATION_DESCRIPTION": "", "LEGAL_DESCRIPTION": "sec. 32, T26N, R11E", "LOCATION_ACCURACY": "coordinate accuracy highly variable", "COUNTY": "King", "LATITUDE": 47.7, "LONGITUDE": -121.4181, "MINING_DISTRICT": "Money Creek", "LOCATION_SOURCE": "USGS MAS/MILS Database ", "ASSAYS": "", "PRODUCTION": "", "COMMENTS": ""}}, {"type": "Feature", "id": 253, "geometry": {"type": "Point", "coordinates": [-121.380575, 47.697361]}, "properties": {"OBJECTID": 253, "SITE_ID": 1017, "SITE_NAME": "Romeo", "ALTERNATE_NAMES": "", "PRIMARY_COMMODITY": "Gold (Au)", "COMMODITIES": "Gold, silver, copper", "ORE_MINERALS": "", "GANGUE": "", "LOCATION_DESCRIPTION": "Summit of Cleopatra Basin and extending down both the Snoqualmie and Miller River sides of ridge", "LEGAL_DESCRIPTION": "", "LOCATION_ACCURACY": "coordinates estimated from location description", "COUNTY": "King", "LATITUDE": 47.6973613835698, "LONGITUDE": -121.380574842156, "MINING_DISTRICT": "", "LOCATION_SOURCE": "Bulletin 37", "ASSAYS": "", "PRODUCTION": "", "COMMENTS": ""}}, {"type": "Feature", "id": 254, "geometry": {"type": "Point", "coordinates": [-121.5136, 47.6653]}, "properties": {"OBJECTID": 254, "SITE_ID": 1018, "SITE_NAME": "Rushing", "ALTERNATE_NAMES": "", "PRIMARY_COMMODITY": "Gold (Au)", "COMMODITIES": "Gold", "ORE_MINERALS": "", "GANGUE": "", "LOCATION_DESCRIPTION": "On Illinois Creek", "LEGAL_DESCRIPTION": "secs. 8 and 9, T25N, R10E", "LOCATION_ACCURACY": "coordinate accuracy highly variable", "COUNTY": "King", "LATITUDE": 47.6653, "LONGITUDE": -121.5136, "MINING_DISTRICT": "", "LOCATION_SOURCE": "USGS MAS/MILS Database ", "ASSAYS": "yes", "PRODUCTION": "", "COMMENTS": "Assays are in Bulletin 37."}}, {"type": "Feature", "id": 255, "geometry": {"type": "Point", "coordinates": [-121.444937, 47.620998]}, "properties": {"OBJECTID": 255, "SITE_ID": 1019, "SITE_NAME": "J. Taylor Wright", "ALTERNATE_NAMES": "", "PRIMARY_COMMODITY": "Gold (Au)", "COMMODITIES": "Gold", "ORE_MINERALS": "", "GANGUE": "", "LOCATION_DESCRIPTION": "", "LEGAL_DESCRIPTION": "sec. 31, T25N, R11E", "LOCATION_ACCURACY": "coordinates estimated from legal description", "COUNTY": "King", "LATITUDE": 47.620997768416, "LONGITUDE": -121.444936505272, "MINING_DISTRICT": "Money Creek", "LOCATION_SOURCE": "Bulletin 37", "ASSAYS": "", "PRODUCTION": "", "COMMENTS": ""}}, {"type": "Feature", "id": 256, "geometry": {"type": "Point", "coordinates": [-121.5042, 47.7528]}, "properties": {"OBJECTID": 256, "SITE_ID": 1020, "SITE_NAME": "Salmon Creek", "ALTERNATE_NAMES": "", "PRIMARY_COMMODITY": "Gold (Au)", "COMMODITIES": "Gold, silver, lead, zinc", "ORE_MINERALS": "", "GANGUE": "", "LOCATION_DESCRIPTION": "About 1 mi S of Baring", "LEGAL_DESCRIPTION": "S 1/2 of sec. 10, T26N, R10E", "LOCATION_ACCURACY": "coordinate accuracy highly variable", "COUNTY": "King", "LATITUDE": 47.7528, "LONGITUDE": -121.5042, "MINING_DISTRICT": "", "LOCATION_SOURCE": "USGS MAS/MILS Database ", "ASSAYS": "", "PRODUCTION": "", "COMMENTS": ""}}, {"type": "Feature", "id": 257, "geometry": {"type": "Point", "coordinates": [-121.4625, 47.6981]}, "properties": {"OBJECTID": 257, "SITE_ID": 1021, "SITE_NAME": "San Franciso", "ALTERNATE_NAMES": "", "PRIMARY_COMMODITY": "Gold (Au)", "COMMODITIES": "Gold, silver, copper", "ORE_MINERALS": "", "GANGUE": "", "LOCATION_DESCRIPTION": "", "LEGAL_DESCRIPTION": "secs. 25 and 36, T26N, R10E", "LOCATION_ACCURACY": "coordinate accuracy highly variable", "COUNTY": "King", "LATITUDE": 47.6981, "LONGITUDE": -121.4625, "MINING_DISTRICT": "Miller River", "LOCATION_SOURCE": "USGS MAS/MILS Database ", "ASSAYS": "", "PRODUCTION": "", "COMMENTS": ""}}, {"type": "Feature", "id": 259, "geometry": {"type": "Point", "coordinates": [-121.4403, 47.7]}, "properties": {"OBJECTID": 259, "SITE_ID": 1023, "SITE_NAME": "Sara", "ALTERNATE_NAMES": "", "PRIMARY_COMMODITY": "Gold (Au)", "COMMODITIES": "Gold", "ORE_MINERALS": "", "GANGUE": "", "LOCATION_DESCRIPTION": "", "LEGAL_DESCRIPTION": "sec. 31, T26N, R11E", "LOCATION_ACCURACY": "coordinate accuracy highly variable", "COUNTY": "King", "LATITUDE": 47.7, "LONGITUDE": -121.4403, "MINING_DISTRICT": "Money Creek", "LOCATION_SOURCE": "USGS MAS/MILS Database ", "ASSAYS": "", "PRODUCTION": "", "COMMENTS": ""}}, {"type": "Feature", "id": 260, "geometry": {"type": "Point", "coordinates": [-121.4403, 47.7]}, "properties": {"OBJECTID": 260, "SITE_ID": 1024, "SITE_NAME": "Sara Williams", "ALTERNATE_NAMES": "", "PRIMARY_COMMODITY": "Gold (Au)", "COMMODITIES": "Gold", "ORE_MINERALS": "", "GANGUE": "", "LOCATION_DESCRIPTION": "", "LEGAL_DESCRIPTION": "sec. 31, T26N, R11E", "LOCATION_ACCURACY": "coordinate accuracy highly variable", "COUNTY": "King", "LATITUDE": 47.7, "LONGITUDE": -121.4403, "MINING_DISTRICT": "Money Creek", "LOCATION_SOURCE": "USGS MAS/MILS Database ", "ASSAYS": "", "PRODUCTION": "", "COMMENTS": ""}}, {"type": "Feature", "id": 262, "geometry": {"type": "Point", "coordinates": [-121.4403, 47.7]}, "properties": {"OBJECTID": 262, "SITE_ID": 1026, "SITE_NAME": "Solomon", "ALTERNATE_NAMES": "", "PRIMARY_COMMODITY": "Gold (Au)", "COMMODITIES": "Gold, silver, lead", "ORE_MINERALS": "", "GANGUE": "", "LOCATION_DESCRIPTION": "", "LEGAL_DESCRIPTION": "sec. 31, T23N, R11E", "LOCATION_ACCURACY": "coordinate accuracy highly variable", "COUNTY": "King", "LATITUDE": 47.7, "LONGITUDE": -121.4403, "MINING_DISTRICT": "Money Creek", "LOCATION_SOURCE": "USGS MAS/MILS Database ", "ASSAYS": "", "PRODUCTION": "", "COMMENTS": ""}}, {"type": "Feature", "id": 264, "geometry": {"type": "Point", "coordinates": [-121.4181, 47.7]}, "properties": {"OBJECTID": 264, "SITE_ID": 1029, "SITE_NAME": "Teddy R.", "ALTERNATE_NAMES": "", "PRIMARY_COMMODITY": "Gold (Au)", "COMMODITIES": "Gold", "ORE_MINERALS": "", "GANGUE": "", "LOCATION_DESCRIPTION": "", "LEGAL_DESCRIPTION": "sec. 32, T25N, R11E", "LOCATION_ACCURACY": "coordinate accuracy highly variable", "COUNTY": "King", "LATITUDE": 47.7, "LONGITUDE": -121.4181, "MINING_DISTRICT": "Money Creek", "LOCATION_SOURCE": "USGS MAS/MILS Database ", "ASSAYS": "", "PRODUCTION": "", "COMMENTS": ""}}, {"type": "Feature", "id": 266, "geometry": {"type": "Point", "coordinates": [-121.372654, 47.650514]}, "properties": {"OBJECTID": 266, "SITE_ID": 1031, "SITE_NAME": "Twin Lakes", "ALTERNATE_NAMES": "", "PRIMARY_COMMODITY": "Gold (Au)", "COMMODITIES": "Gold, copper", "ORE_MINERALS": "", "GANGUE": "", "LOCATION_DESCRIPTION": "8 mi from mouth of Miller River", "LEGAL_DESCRIPTION": "", "LOCATION_ACCURACY": "coordinates estimated from location description", "COUNTY": "King", "LATITUDE": 47.6505137180006, "LONGITUDE": -121.372653793921, "MINING_DISTRICT": "", "LOCATION_SOURCE": "Bulletin 37", "ASSAYS": "", "PRODUCTION": "", "COMMENTS": ""}}, {"type": "Feature", "id": 267, "geometry": {"type": "Point", "coordinates": [-121.3972, 47.6222]}, "properties": {"OBJECTID": 267, "SITE_ID": 1032, "SITE_NAME": "Valley Queen", "ALTERNATE_NAMES": "", "PRIMARY_COMMODITY": "Gold (Au)", "COMMODITIES": "Gold", "ORE_MINERALS": "", "GANGUE": "", "LOCATION_DESCRIPTION": "", "LEGAL_DESCRIPTION": "sec. 33, T25N, R11E", "LOCATION_ACCURACY": "coordinate accuracy highly variable", "COUNTY": "King", "LATITUDE": 47.6222, "LONGITUDE": -121.3972, "MINING_DISTRICT": "Summit", "LOCATION_SOURCE": "USGS MAS/MILS Database ", "ASSAYS": "", "PRODUCTION": "", "COMMENTS": ""}}, {"type": "Feature", "id": 268, "geometry": {"type": "Point", "coordinates": [-121.504335, 47.701696]}, "properties": {"OBJECTID": 268, "SITE_ID": 1033, "SITE_NAME": "Vandalia", "ALTERNATE_NAMES": "", "PRIMARY_COMMODITY": "Gold (Au)", "COMMODITIES": "Gold, silver", "ORE_MINERALS": "", "GANGUE": "", "LOCATION_DESCRIPTION": "E Fork of Money Creek", "LEGAL_DESCRIPTION": "", "LOCATION_ACCURACY": "coordinates estimated from location description", "COUNTY": "King", "LATITUDE": 47.7016962706945, "LONGITUDE": -121.504335245128, "MINING_DISTRICT": "", "LOCATION_SOURCE": "Bulletin 37", "ASSAYS": "", "PRODUCTION": "", "COMMENTS": ""}}, {"type": "Feature", "id": 269, "geometry": {"type": "Point", "coordinates": [-121.444952, 47.526404]}, "properties": {"OBJECTID": 269, "SITE_ID": 1034, "SITE_NAME": "Ventura", "ALTERNATE_NAMES": "", "PRIMARY_COMMODITY": "Gold (Au)", "COMMODITIES": "Gold", "ORE_MINERALS": "", "GANGUE": "", "LOCATION_DESCRIPTION": "", "LEGAL_DESCRIPTION": "sec. 31 and 32, T24N, R11E", "LOCATION_ACCURACY": "coordinates estimated from legal description", "COUNTY": "King", "LATITUDE": 47.5264043304904, "LONGITUDE": -121.444951796953, "MINING_DISTRICT": "Money Creek", "LOCATION_SOURCE": "Bulletin 37", "ASSAYS": "", "PRODUCTION": "", "COMMENTS": ""}}, {"type": "Feature", "id": 270, "geometry": {"type": "Point", "coordinates": [-121.4431, 47.65]}, "properties": {"OBJECTID": 270, "SITE_ID": 1036, "SITE_NAME": "War Eagle", "ALTERNATE_NAMES": "", "PRIMARY_COMMODITY": "Gold (Au)", "COMMODITIES": "Gold, silver, copper", "ORE_MINERALS": "", "GANGUE": "", "LOCATION_DESCRIPTION": "", "LEGAL_DESCRIPTION": "sec. 19, T25N, R11E", "LOCATION_ACCURACY": "coordinate accuracy highly variable", "COUNTY": "King", "LATITUDE": 47.65, "LONGITUDE": -121.4431, "MINING_DISTRICT": "Miller River", "LOCATION_SOURCE": "USGS MAS/MILS Database ", "ASSAYS": "", "PRODUCTION": "", "COMMENTS": ""}}, {"type": "Feature", "id": 273, "geometry": {"type": "Point", "coordinates": [-121.5097, 47.7431]}, "properties": {"OBJECTID": 273, "SITE_ID": 1039, "SITE_NAME": "Yellow Jacket", "ALTERNATE_NAMES": "", "PRIMARY_COMMODITY": "Gold (Au)", "COMMODITIES": "Gold, silver", "ORE_MINERALS": "", "GANGUE": "", "LOCATION_DESCRIPTION": "On W side of E Fork of Salmon (Index) Creek", "LEGAL_DESCRIPTION": "sec. 15, T26N, R10E", "LOCATION_ACCURACY": "coordinate accuracy highly variable", "COUNTY": "King", "LATITUDE": 47.7431, "LONGITUDE": -121.5097, "MINING_DISTRICT": "", "LOCATION_SOURCE": "USGS MAS/MILS Database ", "ASSAYS": "yes", "PRODUCTION": "", "COMMENTS": "Assays are in Bulletin 37."}}, {"type": "Feature", "id": 400, "geometry": {"type": "Point", "coordinates": [-121.3292, 47.4572]}, "properties": {"OBJECTID": 400, "SITE_ID": 1198, "SITE_NAME": "Gold Creek", "ALTERNATE_NAMES": "", "PRIMARY_COMMODITY": "Gold (Au)", "COMMODITIES": "Gold", "ORE_MINERALS": "", "GANGUE": "Quartz", "LOCATION_DESCRIPTION": "", "LEGAL_DESCRIPTION": "", "LOCATION_ACCURACY": "coordinate accuracy highly variable", "COUNTY": "Okanogan", "LATITUDE": 47.4572, "LONGITUDE": -121.3292, "MINING_DISTRICT": "Squaw Creek", "LOCATION_SOURCE": "USGS MAS/MILS Database ", "ASSAYS": "", "PRODUCTION": "", "COMMENTS": ""}}, {"type": "Feature", "id": 933, "geometry": {"type": "Point", "coordinates": [-121.4167, 47.7139]}, "properties": {"OBJECTID": 933, "SITE_ID": 1808, "SITE_NAME": "Money Creek Placer", "ALTERNATE_NAMES": "", "PRIMARY_COMMODITY": "Gold (Au)", "COMMODITIES": "Gold", "ORE_MINERALS": "", "GANGUE": "", "LOCATION_DESCRIPTION": "", "LEGAL_DESCRIPTION": "secs. 20 and 29, T26N, R11E", "LOCATION_ACCURACY": "coordinate accuracy highly variable", "COUNTY": "King", "LATITUDE": 47.7139, "LONGITUDE": -121.4167, "MINING_DISTRICT": "", "LOCATION_SOURCE": "USGS MAS/MILS Database ", "ASSAYS": "", "PRODUCTION": "", "COMMENTS": ""}}, {"type": "Feature", "id": 934, "geometry": {"type": "Point", "coordinates": [-121.904415, 47.496739]}, "properties": {"OBJECTID": 934, "SITE_ID": 1809, "SITE_NAME": "Raging River Placers", "ALTERNATE_NAMES": "", "PRIMARY_COMMODITY": "Gold (Au)", "COMMODITIES": "Gold", "ORE_MINERALS": "", "GANGUE": "", "LOCATION_DESCRIPTION": "Along Raging River", "LEGAL_DESCRIPTION": "", "LOCATION_ACCURACY": "coordinates estimated from location description", "COUNTY": "King", "LATITUDE": 47.4967386566905, "LONGITUDE": -121.90441458141, "MINING_DISTRICT": "", "LOCATION_SOURCE": "Bulletin 37", "ASSAYS": "", "PRODUCTION": "", "COMMENTS": ""}}, {"type": "Feature", "id": 935, "geometry": {"type": "Point", "coordinates": [-121.48571, 47.531821]}, "properties": {"OBJECTID": 935, "SITE_ID": 1811, "SITE_NAME": "Snoqualmie Placer", "ALTERNATE_NAMES": "", "PRIMARY_COMMODITY": "Gold (Au)", "COMMODITIES": "Gold", "ORE_MINERALS": "", "GANGUE": "", "LOCATION_DESCRIPTION": "On middle Fork of Snoqualmie River", "LEGAL_DESCRIPTION": "", "LOCATION_ACCURACY": "coordinates estimated from location description", "COUNTY": "King", "LATITUDE": 47.5318211269309, "LONGITUDE": -121.485709989835, "MINING_DISTRICT": "", "LOCATION_SOURCE": "Bulletin 37", "ASSAYS": "yes", "PRODUCTION": "", "COMMENTS": "Assays are in Bulletin 37."}}, {"type": "Feature", "id": 936, "geometry": {"type": "Point", "coordinates": [-121.927135, 47.660814]}, "properties": {"OBJECTID": 936, "SITE_ID": 1812, "SITE_NAME": "Snoqualmie River Placers", "ALTERNATE_NAMES": "", "PRIMARY_COMMODITY": "Gold (Au)", "COMMODITIES": "Gold", "ORE_MINERALS": "", "GANGUE": "", "LOCATION_DESCRIPTION": "Along Snoqualmie River", "LEGAL_DESCRIPTION": "", "LOCATION_ACCURACY": "coordinates estimated from location description", "COUNTY": "King", "LATITUDE": 47.6608139943818, "LONGITUDE": -121.92713516353, "MINING_DISTRICT": "", "LOCATION_SOURCE": "Bulletin 37", "ASSAYS": "", "PRODUCTION": "", "COMMENTS": ""}}, {"type": "Feature", "id": 937, "geometry": {"type": "Point", "coordinates": [-121.8028, 47.7056]}, "properties": {"OBJECTID": 937, "SITE_ID": 1813, "SITE_NAME": "Tolt River Placer", "ALTERNATE_NAMES": "", "PRIMARY_COMMODITY": "Gold (Au)", "COMMODITIES": "Gold", "ORE_MINERALS": "", "GANGUE": "", "LOCATION_DESCRIPTION": "On Tolt River", "LEGAL_DESCRIPTION": "SE 1/4 of sec. 29, T26N, R8E", "LOCATION_ACCURACY": "coordinate accuracy highly variable", "COUNTY": "King", "LATITUDE": 47.7056, "LONGITUDE": -121.8028, "MINING_DISTRICT": "", "LOCATION_SOURCE": "USGS MAS/MILS Database ", "ASSAYS": "", "PRODUCTION": "", "COMMENTS": ""}}, {"type": "Feature", "id": 1206, "geometry": {"type": "Point", "coordinates": [-121.4458, 47.6298]}, "properties": {"OBJECTID": 1206, "SITE_ID": 2995, "SITE_NAME": "Aces Up", "ALTERNATE_NAMES": "", "PRIMARY_COMMODITY": "Silver (Ag)", "COMMODITIES": "Silver, lead, copper, zinc, antimony, gold", "ORE_MINERALS": "Argentiferous galena, chalcopyrite, tetrahedrite, sphalerite, jamesonite, dyscrasite?", "GANGUE": "Pyrite, arsenopyrite, quartz, kaolinite, sericite", "LOCATION_DESCRIPTION": "4,200 ft SE of the Cleopatra mine", "LEGAL_DESCRIPTION": "near SW 1/4 of the SE 1/4 of sec. 33, T25N, R11E", "LOCATION_ACCURACY": "USGS 7.5-minute topographic map", "COUNTY": "King", "LATITUDE": 47.6298, "LONGITUDE": -121.4458, "MINING_DISTRICT": "", "LOCATION_SOURCE": "USGS 7.5-minute topographic map", "ASSAYS": "yes", "PRODUCTION": "yes", "COMMENTS": "Assays are in Bulletin 37. Production information is in Bulletin 37. The coordinates were refined by a senior mine specialist."}}, {"type": "Feature", "id": 1207, "geometry": {"type": "Point", "coordinates": [-121.485, 47.6397]}, "properties": {"OBJECTID": 1207, "SITE_ID": 2996, "SITE_NAME": "Bear Basin", "ALTERNATE_NAMES": "", "PRIMARY_COMMODITY": "Silver (Ag)", "COMMODITIES": "Silver, lead, zinc, antimony, copper, gold", "ORE_MINERALS": "Pyrite, arsenopyrite, freibergite, jamesonite, stibnite, andorite, stannite, sphalerite, galena, molybdenite", "GANGUE": "Mangandolomite, quartz", "LOCATION_DESCRIPTION": "", "LEGAL_DESCRIPTION": "SE 1/4 of sec. 14, NE 1/4 of sec. 23, SW 1/4 of sec. 13 and NW 1/4 of sec. 24, T25N, R10E", "LOCATION_ACCURACY": "coordinate accuracy highly variable", "COUNTY": "King", "LATITUDE": 47.6397, "LONGITUDE": -121.485, "MINING_DISTRICT": "Buena Vista", "LOCATION_SOURCE": "USGS MAS/MILS Database ", "ASSAYS": "yes", "PRODUCTION": "", "COMMENTS": "Assays are in Bulletin 37 and in the scanned files."}}, {"type": "Feature", "id": 1208, "geometry": {"type": "Point", "coordinates": [-121.4588, 47.6356]}, "properties": {"OBJECTID": 1208, "SITE_ID": 2997, "SITE_NAME": "Cleopatra", "ALTERNATE_NAMES": "", "PRIMARY_COMMODITY": "Silver (Ag)", "COMMODITIES": "Silver, lead copper, zinc, antimony, gold", "ORE_MINERALS": "Argentiferous galena, chalcopyrite, tetrahedrite, arsenopyrite, pyrite, dyscrasite?, jamesonite, sphalerite", "GANGUE": "Quartz", "LOCATION_DESCRIPTION": "", "LEGAL_DESCRIPTION": "NW 1/4 of the SE 1/4 of sec. 24, T25N, R10E", "LOCATION_ACCURACY": "USGS 7.5-minute topographic map", "COUNTY": "King", "LATITUDE": 47.6356, "LONGITUDE": -121.4588, "MINING_DISTRICT": "Miller River", "LOCATION_SOURCE": "USGS 7.5-minute topographic map", "ASSAYS": "yes", "PRODUCTION": "yes", "COMMENTS": "Assays are in Bulletin 37. Production information is in Bulletin 37. The coordinates were refined by a senior mine specialist."}}, {"type": "Feature", "id": 1209, "geometry": {"type": "Point", "coordinates": [-121.3903, 47.4375]}, "properties": {"OBJECTID": 1209, "SITE_ID": 2998, "SITE_NAME": "Commonwealth", "ALTERNATE_NAMES": "", "PRIMARY_COMMODITY": "Silver (Ag)", "COMMODITIES": "Silver, copper, gold", "ORE_MINERALS": "", "GANGUE": "", "LOCATION_DESCRIPTION": "On Snow Lake trail", "LEGAL_DESCRIPTION": "sec. 34, T23N, R11E", "LOCATION_ACCURACY": "coordinate accuracy highly variable", "COUNTY": "King", "LATITUDE": 47.4375, "LONGITUDE": -121.3903, "MINING_DISTRICT": "Snoqualmie", "LOCATION_SOURCE": "USGS MAS/MILS Database ", "ASSAYS": "", "PRODUCTION": "", "COMMENTS": ""}}, {"type": "Feature", "id": 1210, "geometry": {"type": "Point", "coordinates": [-121.4111, 47.7119]}, "properties": {"OBJECTID": 1210, "SITE_ID": 2999, "SITE_NAME": "Gold Mountain", "ALTERNATE_NAMES": "", "PRIMARY_COMMODITY": "Silver (Ag)", "COMMODITIES": "Silver, gold, antimony", "ORE_MINERALS": "Pyrite, argentiferous, stibnite, minor amount of chalcopyrite", "GANGUE": "", "LOCATION_DESCRIPTION": "", "LEGAL_DESCRIPTION": "NE 1/4 of the SE 1/4 of sec. 29, T26N, R11E", "LOCATION_ACCURACY": "coordinate accuracy highly variable", "COUNTY": "King", "LATITUDE": 47.7119, "LONGITUDE": -121.4111, "MINING_DISTRICT": "", "LOCATION_SOURCE": "USGS MAS/MILS Database ", "ASSAYS": "", "PRODUCTION": "yes", "COMMENTS": "Production information is in OFR 90-18."}}, {"type": "Feature", "id": 1211, "geometry": {"type": "Point", "coordinates": [-121.2903, 47.6903]}, "properties": {"OBJECTID": 1211, "SITE_ID": 3000, "SITE_NAME": "Lucky Day", "ALTERNATE_NAMES": "", "PRIMARY_COMMODITY": "Silver (Ag)", "COMMODITIES": "Silver", "ORE_MINERALS": "", "GANGUE": "", "LOCATION_DESCRIPTION": "", "LEGAL_DESCRIPTION": "sec. 5, T25N, R12E", "LOCATION_ACCURACY": "coordinate accuracy highly variable", "COUNTY": "King", "LATITUDE": 47.6903, "LONGITUDE": -121.2903, "MINING_DISTRICT": "Foss River", "LOCATION_SOURCE": "USGS MAS/MILS Database ", "ASSAYS": "", "PRODUCTION": "", "COMMENTS": ""}}, {"type": "Feature", "id": 1212, "geometry": {"type": "Point", "coordinates": [-121.495062, 47.666303]}, "properties": {"OBJECTID": 1212, "SITE_ID": 3001, "SITE_NAME": "Mastodon", "ALTERNATE_NAMES": "", "PRIMARY_COMMODITY": "Silver (Ag)", "COMMODITIES": "Silver, gold, copper", "ORE_MINERALS": "", "GANGUE": "", "LOCATION_DESCRIPTION": "Near head of N Fork Snoqualmie River", "LEGAL_DESCRIPTION": "", "LOCATION_ACCURACY": "coordinates estimated from location description", "COUNTY": "King", "LATITUDE": 47.6663031617009, "LONGITUDE": -121.495061876301, "MINING_DISTRICT": "Buena Vista", "LOCATION_SOURCE": "Bulletin 37", "ASSAYS": "", "PRODUCTION": "", "COMMENTS": ""}}, {"type": "Feature", "id": 1213, "geometry": {"type": "Point", "coordinates": [-121.418194, 47.668292]}, "properties": {"OBJECTID": 1213, "SITE_ID": 3002, "SITE_NAME": "Seattle-Cascade", "ALTERNATE_NAMES": "Copper Plate, Silver Dollar, Silver Dollar and Copper Plate, Triple S", "PRIMARY_COMMODITY": "Silver (Ag)", "COMMODITIES": "Silver, lead, zinc, copper, gold", "ORE_MINERALS": "Galena, sphalerite, chalcopyrite", "GANGUE": "Pyrite, arsenopyrite, quartz", "LOCATION_DESCRIPTION": "On W side of Miller River", "LEGAL_DESCRIPTION": "center N 1/2 of sec. 17, T25N, R11E", "LOCATION_ACCURACY": "generally from USGS 7.5-minute topographic map", "COUNTY": "King", "LATITUDE": 47.668292, "LONGITUDE": -121.418194, "MINING_DISTRICT": "Miller River", "LOCATION_SOURCE": "Open File Report 90-18", "ASSAYS": "yes", "PRODUCTION": "yes", "COMMENTS": "Assays are in Bulletin 37. Production information is in Bulletin 37."}}, {"type": "Feature", "id": 1214, "geometry": {"type": "Point", "coordinates": [-121.4658, 47.6397]}, "properties": {"OBJECTID": 1214, "SITE_ID": 3003, "SITE_NAME": "Silver Star", "ALTERNATE_NAMES": "", "PRIMARY_COMMODITY": "Silver (Ag)", "COMMODITIES": "Silver, gold, lead, zinc, antimony", "ORE_MINERALS": "", "GANGUE": "", "LOCATION_DESCRIPTION": "", "LEGAL_DESCRIPTION": "NW 1/4 of sec. 24, T25N, R10E", "LOCATION_ACCURACY": "coordinate accuracy highly variable", "COUNTY": "King", "LATITUDE": 47.6397, "LONGITUDE": -121.4658, "MINING_DISTRICT": "Miller River", "LOCATION_SOURCE": "USGS MAS/MILS Database ", "ASSAYS": "yes", "PRODUCTION": "", "COMMENTS": "Assays are in Bulletin 37."}}, {"type": "Feature", "id": 1215, "geometry": {"type": "Point", "coordinates": [-121.395827, 47.630088]}, "properties": {"OBJECTID": 1215, "SITE_ID": 3004, "SITE_NAME": "Sunday", "ALTERNATE_NAMES": "", "PRIMARY_COMMODITY": "Silver (Ag)", "COMMODITIES": "Silver, gold, copper", "ORE_MINERALS": "", "GANGUE": "", "LOCATION_DESCRIPTION": "On King Solomon Creek a little below the Cleopatra Basin", "LEGAL_DESCRIPTION": "", "LOCATION_ACCURACY": "coordinates estimated from location description", "COUNTY": "King", "LATITUDE": 47.6300884170654, "LONGITUDE": -121.395827211555, "MINING_DISTRICT": "Miller River", "LOCATION_SOURCE": "Bulletin 37", "ASSAYS": "", "PRODUCTION": "", "COMMENTS": ""}}, {"type": "Feature", "id": 1219, "geometry": {"type": "Point", "coordinates": [-121.321253, 47.460747]}, "properties": {"OBJECTID": 1219, "SITE_ID": 3008, "SITE_NAME": "Esther and Lousia", "ALTERNATE_NAMES": "Esther, Lousia", "PRIMARY_COMMODITY": "Silver (Ag)", "COMMODITIES": "Silver, gold, lead, zinc", "ORE_MINERALS": "Pyrargyrite, galena, sphalerite", "GANGUE": "Pyrite, quartz", "LOCATION_DESCRIPTION": "On E side of cirque at head of Gold Creek", "LEGAL_DESCRIPTION": "NE 1/4 of sec. 26, T23N, R12E", "LOCATION_ACCURACY": "generally from USGS 7.5-minute topographic map", "COUNTY": "Kittitas", "LATITUDE": 47.460747, "LONGITUDE": -121.321253, "MINING_DISTRICT": "", "LOCATION_SOURCE": "Open File Report 90-18", "ASSAYS": "yes", "PRODUCTION": "yes", "COMMENTS": "Assays are in Bulletin 37. Production information is in Bulletin 37."}}, {"type": "Feature", "id": 1221, "geometry": {"type": "Point", "coordinates": [-121.339345, 47.460075]}, "properties": {"OBJECTID": 1221, "SITE_ID": 3010, "SITE_NAME": "Granite King", "ALTERNATE_NAMES": "", "PRIMARY_COMMODITY": "Silver (Ag)", "COMMODITIES": "Silver, copper, lead, gold", "ORE_MINERALS": "", "GANGUE": "", "LOCATION_DESCRIPTION": "On Gold Creek", "LEGAL_DESCRIPTION": "sec. 24, T23N, R11E", "LOCATION_ACCURACY": "coordinates estimated from legal description", "COUNTY": "Kittitas", "LATITUDE": 47.4600747125687, "LONGITUDE": -121.339345166244, "MINING_DISTRICT": "", "LOCATION_SOURCE": "Bulletin 37", "ASSAYS": "", "PRODUCTION": "", "COMMENTS": ""}}, {"type": "Feature", "id": 1286, "geometry": {"type": "Point", "coordinates": [-121.4181, 47.7]}, "properties": {"OBJECTID": 1286, "SITE_ID": 3080, "SITE_NAME": "Pennsylvania", "ALTERNATE_NAMES": "", "PRIMARY_COMMODITY": "Silver (Ag)", "COMMODITIES": "Silver, gold", "ORE_MINERALS": "", "GANGUE": "", "LOCATION_DESCRIPTION": "", "LEGAL_DESCRIPTION": "", "LOCATION_ACCURACY": "coordinate accuracy highly variable", "COUNTY": "Okanogan", "LATITUDE": 47.7, "LONGITUDE": -121.4181, "MINING_DISTRICT": "Nighthawk", "LOCATION_SOURCE": "USGS MAS/MILS Database ", "ASSAYS": "", "PRODUCTION": "", "COMMENTS": ""}}, {"type": "Feature", "id": 1448, "geometry": {"type": "Point", "coordinates": [-121.366, 47.6512]}, "properties": {"OBJECTID": 1448, "SITE_ID": 3999, "SITE_NAME": "Swauk Mining District", "ALTERNATE_NAMES": "Swauk District", "PRIMARY_COMMODITY": "Gold (Au)", "COMMODITIES": "Gold", "ORE_MINERALS": "", "GANGUE": "", "LOCATION_DESCRIPTION": "", "LEGAL_DESCRIPTION": "", "LOCATION_ACCURACY": "mining district centroid", "COUNTY": "", "LATITUDE": 47.6512, "LONGITUDE": -121.366, "MINING_DISTRICT": "Swauk", "LOCATION_SOURCE": "Mining in the Pacific Northwest", "ASSAYS": "", "PRODUCTION": "", "COMMENTS": ""}}, {"type": "Feature", "id": 1449, "geometry": {"type": "Point", "coordinates": [-121.407, 47.4218]}, "properties": {"OBJECTID": 1449, "SITE_ID": 4000, "SITE_NAME": "Palmer Mountain Mining District", "ALTERNATE_NAMES": "Loomis District, Palmer Mountain District", "PRIMARY_COMMODITY": "Gold (Au)", "COMMODITIES": "Gold", "ORE_MINERALS": "", "GANGUE": "", "LOCATION_DESCRIPTION": "", "LEGAL_DESCRIPTION": "", "LOCATION_ACCURACY": "mining district centroid", "COUNTY": "", "LATITUDE": 47.4218, "LONGITUDE": -121.407, "MINING_DISTRICT": "Palmer Mountain", "LOCATION_SOURCE": "Mining in the Pacific Northwest", "ASSAYS": "", "PRODUCTION": "", "COMMENTS": ""}}]}