{"type": "FeatureCollection", "features": [{"type": "Feature", "id": 2401, "geometry": {"type": "Polygon", "coordinates": [[[-121.33806, 47.51887], [-121.33804, 47.52609], [-121.3487, 47.52607], [-121.34872, 47.51885], [-121.33806, 47.51887]]]}, "properties": {"OBJECTID": 2401, "ID": "814883258922860544", "CSE_NAME": "Katie Belle Ridge", "STAGE_ID": "814883257928810496", "BLM_PROD": "LODE CLAIM", "CSE_TYPE_NR": "384101", "CSE_NR": "OR105226480", "LEG_CSE_NR": "", "SF_ID": "a02t0000006Md1rAAC", "CSE_DISP": "Active", "SRC": "LLD", "QLTY": "8: MIDPOINT\nSECTION CONTAINS 5 OR LESS POLYGONS\naliquot\n36 sections retrieved\n36 intersected features retrieved\n1 matching sections found\nsection 36 issimple: False", "CSE_META": "WA 33 0240N 0110E 036 A SE", "RCRD_ACRS": 20.66, "Created": 1614297600000, "Modified": 1735661921000, "Shape__Length": 0.03576994015390652, "Shape__Area": 7.700038814365201e-05}}, {"type": "Feature", "id": 41553, "geometry": {"type": "Polygon", "coordinates": [[[-121.36995, 47.50272], [-121.36464, 47.50272], [-121.35933, 47.50272], [-121.35934, 47.50609], [-121.35934, 47.50675], [-121.35934, 47.5099], [-121.35934, 47.50993], [-121.35934, 47.51004], [-121.35934, 47.51014], [-121.35934, 47.51078], [-121.35935, 47.5135], [-121.35935, 47.51356], [-121.35935, 47.5148], [-121.35935, 47.51694], [-121.35935, 47.5171], [-121.35935, 47.51718], [-121.35935, 47.5172], [-121.35935, 47.51724], [-121.35939, 47.51883], [-121.36469, 47.51879], [-121.36995, 47.51876], [-121.36998, 47.51876], [-121.37521, 47.51872], [-121.37528, 47.51872], [-121.37623, 47.51871], [-121.38058, 47.51868], [-121.38056, 47.51702], [-121.38056, 47.51695], [-121.38056, 47.51469], [-121.38056, 47.514], [-121.38056, 47.51352], [-121.38056, 47.51346], [-121.38056, 47.5107], [-121.38056, 47.50987], [-121.38056, 47.50877], [-121.38056, 47.50671], [-121.38057, 47.50608], [-121.38057, 47.50272], [-121.37526, 47.50272], [-121.36995, 47.50272]]]}, "properties": {"OBJECTID": 41553, "ID": "972971756010786816", "CSE_NAME": "P.L.", "STAGE_ID": "972960339421462528", "BLM_PROD": "Lode Claim", "CSE_TYPE_NR": "384101", "CSE_NR": "OR105761460", "LEG_CSE_NR": "", "SF_ID": "a023d00000BxcBtAAJ", "CSE_DISP": "Active", "SRC": "LLD", "QLTY": "8; WA330230N0110E0SN020ANESE; WA330230N0110E0SN020ANWSE; WA330230N0110E0SN020ASESE; WA330230N0110E0SN020ASWSE; Only mapped PLSS First Div, aliquot", "CSE_META": "WA 33 0230N 0110E 002 NESE | WA 33 0230N 0110E 002 NWSE | WA 33 0230N 0110E 002 SESE | WA 33 0230N 0110E 002 SWSE | WA 33 0230N 0110E 002 A MULT", "RCRD_ACRS": 989.72, "Created": 1651968000000, "Modified": 1745971200000, "Shape__Length": 0.07449486237626522, "Shape__Area": 0.0003402200080044566}}, {"type": "Feature", "id": 71540, "geometry": {"type": "Polygon", "coordinates": [[[-121.33803, 47.50993], [-121.33803, 47.5108], [-121.33803, 47.51211], [-121.33803, 47.51269], [-121.33803, 47.51353], [-121.33803, 47.51361], [-121.33803, 47.51483], [-121.33803, 47.51549], [-121.33803, 47.51639], [-121.33803, 47.51692], [-121.33803, 47.51714], [-121.33806, 47.51887], [-121.33804, 47.52609], [-121.3487, 47.52607], [-121.34872, 47.51885], [-121.34334, 47.51886], [-121.34339, 47.51886], [-121.34507, 47.51877], [-121.34556, 47.5174], [-121.34573, 47.51693], [-121.34648, 47.51482], [-121.34692, 47.51359], [-121.34681, 47.51359], [-121.34339, 47.5136], [-121.34338, 47.51079], [-121.34338, 47.50993], [-121.33803, 47.50993]]]}, "properties": {"OBJECTID": 71540, "ID": "1090316398078586880", "CSE_NAME": "Big Chief", "STAGE_ID": "1090316397113896960", "BLM_PROD": "LODE CLAIM", "CSE_TYPE_NR": "384101", "CSE_NR": "OR105823728", "LEG_CSE_NR": null, "SF_ID": "a023d00000Fh8J1AAJ", "CSE_DISP": "Active", "SRC": "LLD/CLS", "QLTY": "8: MIDPOINT\nSECTION CONTAINS 5 OR LESS POLYGONS\naliquot\n36 sections retrieved\n36 intersected features retrieved\n1 matching sections found\nsection 36 issimple: False, SIMPLE\nFULLY ATTRIBUTED QUARTER SECTION ALL BUCKETS ARE EQUAL\nDOES NOT MATCH PM ANGLES\nal", "CSE_META": "WA 33 0240N 0110E 036 A SE|WA 33 0230N 0110E 001 A NE", "RCRD_ACRS": 20.66, "Created": 1679961600000, "Modified": 1752866249000, "Shape__Length": 0.059227496945422085, "Shape__Area": 0.00013839544901295004}}, {"type": "Feature", "id": 330116, "geometry": {"type": "Polygon", "coordinates": [[[-121.56635, 47.65753], [-121.55581, 47.65755], [-121.55584, 47.66485], [-121.56642, 47.66483], [-121.56642, 47.66483], [-121.5764, 47.66483], [-121.57634, 47.65754], [-121.56635, 47.65753]]]}, "properties": {"OBJECTID": 330116, "ID": "801974244442374201", "CSE_NAME": "BELLE OF TENNESSEE", "STAGE_ID": null, "BLM_PROD": "Lode Claim", "CSE_TYPE_NR": "384101", "CSE_NR": "OR101481330", "LEG_CSE_NR": "ORMC153992", "SF_ID": "a02t000000587qaAAA", "CSE_DISP": "Active", "SRC": "LLD", "QLTY": "8: SIMPLE\nSECTION CONTAINS 5 OR LESS POLYGONS\naliquot\n36 sections retrieved\n36 intersected features retrieved\n1 matching sections found\nsection 7 issimple: False, MIDPOINT\nSECTION CONTAINS 5 OR LESS POLYGONS\naliquot\n36 sections retrieved\n36 intersected fe", "CSE_META": "WA 33 0250N 0100E 007 A SE|WA 33 0250N 0100E 008 A SW", "RCRD_ACRS": 20.66, "Created": 1611360000000, "Modified": 1728174422000, "Shape__Length": 0.05568428509026828, "Shape__Area": 0.00014992301859975004}}, {"type": "Feature", "id": 330157, "geometry": {"type": "Polygon", "coordinates": [[[-121.55586, 47.67215], [-121.54524, 47.67218], [-121.54526, 47.68193], [-121.55589, 47.68191], [-121.56652, 47.68189], [-121.56648, 47.67213], [-121.55586, 47.67215]]]}, "properties": {"OBJECTID": 330157, "ID": "801974245511921738", "CSE_NAME": "BLACKHAWK #5", "STAGE_ID": null, "BLM_PROD": "Lode Claim", "CSE_TYPE_NR": "384101", "CSE_NR": "OR101575981", "LEG_CSE_NR": "ORMC155294", "SF_ID": "a02t00000058UPLAA2", "CSE_DISP": "Active", "SRC": "LLD", "QLTY": "8: SIMPLE\nSECTION CONTAINS 5 OR LESS POLYGONS\naliquot\n36 sections retrieved\n36 intersected features retrieved\n1 matching sections found\nsection 5 issimple: False, SIMPLE\nSECTION CONTAINS 5 OR LESS POLYGONS\naliquot\n36 sections retrieved\n36 intersected feat", "CSE_META": "WA 33 0250N 0100E 005 A SW|WA 33 0250N 0100E 005 A SE", "RCRD_ACRS": 20.66, "Created": 1611360000000, "Modified": 1728176407000, "Shape__Length": 0.062011362388337106, "Shape__Area": 0.00020730803378584455}}, {"type": "Feature", "id": 330158, "geometry": {"type": "Polygon", "coordinates": [[[-121.56648, 47.67213], [-121.56652, 47.68189], [-121.5765, 47.68188], [-121.57646, 47.67212], [-121.5764, 47.66483], [-121.56642, 47.66483], [-121.56648, 47.67213]]]}, "properties": {"OBJECTID": 330158, "ID": "801974245058936927", "CSE_NAME": "CHEROKEE", "STAGE_ID": null, "BLM_PROD": "Lode Claim", "CSE_TYPE_NR": "384101", "CSE_NR": "OR101575982", "LEG_CSE_NR": "ORMC155295", "SF_ID": "a02t00000058UPMAA2", "CSE_DISP": "Active", "SRC": "LLD", "QLTY": "8: SIMPLE\nSECTION CONTAINS 5 OR LESS POLYGONS\naliquot\n36 sections retrieved\n36 intersected features retrieved\n1 matching sections found\nsection 7 issimple: False, SIMPLE\nSECTION CONTAINS 5 OR LESS POLYGONS\naliquot\n36 sections retrieved\n36 intersected feat", "CSE_META": "WA 33 0250N 0100E 007 A NE|WA 33 0250N 0100E 006 A SE", "RCRD_ACRS": 20.66, "Created": 1611360000000, "Modified": 1728176407000, "Shape__Length": 0.054084682180113, "Shape__Area": 0.00017028277972399905}}, {"type": "Feature", "id": 330159, "geometry": {"type": "Polygon", "coordinates": [[[-121.53454, 47.68194], [-121.53457, 47.6917], [-121.54529, 47.69168], [-121.54526, 47.68193], [-121.54524, 47.67218], [-121.53451, 47.67219], [-121.53454, 47.68194]]]}, "properties": {"OBJECTID": 330159, "ID": "801974244480123012", "CSE_NAME": "MONTE CARLO #5", "STAGE_ID": null, "BLM_PROD": "Lode Claim", "CSE_TYPE_NR": "384101", "CSE_NR": "OR101577148", "LEG_CSE_NR": "ORMC155296", "SF_ID": "a02t00000058UPNAA2", "CSE_DISP": "Active", "SRC": "LLD", "QLTY": "8: SIMPLE\nSECTION CONTAINS 5 OR LESS POLYGONS\naliquot\n36 sections retrieved\n36 intersected features retrieved\n1 matching sections found\nsection 4 issimple: False, SIMPLE\nSECTION CONTAINS 5 OR LESS POLYGONS\naliquot\n36 sections retrieved\n36 intersected feat", "CSE_META": "WA 33 0250N 0100E 004 A NW|WA 33 0250N 0100E 004 A SW", "RCRD_ACRS": 20.66, "Created": 1611360000000, "Modified": 1728176407000, "Shape__Length": 0.06044342476254601, "Shape__Area": 0.00020909381580682404}}, {"type": "Feature", "id": 330160, "geometry": {"type": "Polygon", "coordinates": [[[-121.56642, 47.66483], [-121.55584, 47.66485], [-121.55586, 47.67216], [-121.55586, 47.67216], [-121.55589, 47.68191], [-121.56652, 47.68189], [-121.5765, 47.68188], [-121.57646, 47.67212], [-121.5764, 47.66483], [-121.56642, 47.66483], [-121.56642, 47.66483]]]}, "properties": {"OBJECTID": 330160, "ID": "801974244480123013", "CSE_NAME": "SPOTTED OWL #2", "STAGE_ID": null, "BLM_PROD": "Lode Claim", "CSE_TYPE_NR": "384101", "CSE_NR": "OR101577149", "LEG_CSE_NR": "ORMC155297", "SF_ID": "a02t00000058UPOAA2", "CSE_DISP": "Active", "SRC": "LLD", "QLTY": "8: SIMPLE\nSECTION CONTAINS 5 OR LESS POLYGONS\naliquot\n36 sections retrieved\n36 intersected features retrieved\n1 matching sections found\nsection 6 issimple: False, SIMPLE\nSECTION CONTAINS 5 OR LESS POLYGONS\naliquot\n36 sections retrieved\n36 intersected feat", "CSE_META": "WA 33 0250N 0100E 006 A SE|WA 33 0250N 0100E 005 A SW|WA 33 0250N 0100E 007 A NE|WA 33 0250N 0100E 008 A NW", "RCRD_ACRS": 20.66, "Created": 1611360000000, "Modified": 1728176407000, "Shape__Length": 0.07528580091351894, "Shape__Area": 0.0003513709310437451}}, {"type": "Feature", "id": 330161, "geometry": {"type": "Polygon", "coordinates": [[[-121.56648, 47.67213], [-121.55586, 47.67215], [-121.55589, 47.68191], [-121.56652, 47.68189], [-121.5765, 47.68188], [-121.57646, 47.67212], [-121.56648, 47.67213]]]}, "properties": {"OBJECTID": 330161, "ID": "801974245058936928", "CSE_NAME": "SPOTTED OWL #3", "STAGE_ID": null, "BLM_PROD": "Lode Claim", "CSE_TYPE_NR": "384101", "CSE_NR": "OR101577150", "LEG_CSE_NR": "ORMC155298", "SF_ID": "a02t00000058UPPAA2", "CSE_DISP": "Active", "SRC": "LLD", "QLTY": "8: SIMPLE\nSECTION CONTAINS 5 OR LESS POLYGONS\naliquot\n36 sections retrieved\n36 intersected features retrieved\n1 matching sections found\nsection 5 issimple: False, SIMPLE\nSECTION CONTAINS 5 OR LESS POLYGONS\naliquot\n36 sections retrieved\n36 intersected feat", "CSE_META": "WA 33 0250N 0100E 005 A SW|WA 33 0250N 0100E 006 A SE", "RCRD_ACRS": 20.66, "Created": 1611360000000, "Modified": 1728176407000, "Shape__Length": 0.060731342137766604, "Shape__Area": 0.00020116382419078604}}, {"type": "Feature", "id": 330162, "geometry": {"type": "Polygon", "coordinates": [[[-121.56652, 47.68189], [-121.5765, 47.68188], [-121.57646, 47.67212], [-121.56648, 47.67213], [-121.56652, 47.68189]]]}, "properties": {"OBJECTID": 330162, "ID": "801974245511921739", "CSE_NAME": "SPOTTED OWL #4", "STAGE_ID": null, "BLM_PROD": "Lode Claim", "CSE_TYPE_NR": "384101", "CSE_NR": "OR101577151", "LEG_CSE_NR": "ORMC155299", "SF_ID": "a02t00000058UPQAA2", "CSE_DISP": "Active", "SRC": "LLD", "QLTY": "8: SIMPLE\nSECTION CONTAINS 5 OR LESS POLYGONS\naliquot\n36 sections retrieved\n36 intersected features retrieved\n1 matching sections found\nsection 6 issimple: False", "CSE_META": "WA 33 0250N 0100E 006 A SE", "RCRD_ACRS": 20.66, "Created": 1611360000000, "Modified": 1728176407000, "Shape__Length": 0.03949094497519234, "Shape__Area": 9.745879795169402e-05}}, {"type": "Feature", "id": 331204, "geometry": {"type": "Polygon", "coordinates": [[[-121.3967, 47.48825], [-121.39137, 47.48826], [-121.39135, 47.48826], [-121.39132, 47.48826], [-121.39129, 47.48826], [-121.38604, 47.48827], [-121.38072, 47.48828], [-121.38071, 47.49189], [-121.38071, 47.4955], [-121.38597, 47.49549], [-121.39129, 47.49548], [-121.39661, 47.49547], [-121.40193, 47.49546], [-121.40198, 47.49185], [-121.40203, 47.48824], [-121.40124, 47.48824], [-121.3967, 47.48825]]]}, "properties": {"OBJECTID": 331204, "ID": "799126735021932611", "CSE_NAME": "CRYSTAL PARK 2", "STAGE_ID": null, "BLM_PROD": "Lode Claim", "CSE_TYPE_NR": "384101", "CSE_NR": "OR101378041", "LEG_CSE_NR": "ORMC163728", "SF_ID": "a02t00000058uTSAAY", "CSE_DISP": "Active", "SRC": "LLD", "QLTY": "1: MIDPOINT\nTYPICAL QUARTER SECTION WITH 4 STANDARD LEGALS ATTRIBUTED\nDOES NOT MATCH PM ANGLES\naliquot\n37 sections retrieved\n598 intersected features retrieved\n16 matching sections found\nsection 10 issimple: True, MIDPOINT\nTYPICAL QUARTER SECTION WITH 4 S", "CSE_META": "WA 33 0230N 0110E 010 A SW|WA 33 0230N 0110E 010 A SE", "RCRD_ACRS": 20.66, "Created": 1610668800000, "Modified": 1728178702000, "Shape__Length": 0.056972819599393223, "Shape__Area": 0.00015357026857406653}}, {"type": "Feature", "id": 331351, "geometry": {"type": "Polygon", "coordinates": [[[-121.53457, 47.6917], [-121.54529, 47.69168], [-121.54526, 47.68193], [-121.53454, 47.68194], [-121.53457, 47.6917]]]}, "properties": {"OBJECTID": 331351, "ID": "801974245100879913", "CSE_NAME": "DAGGETT", "STAGE_ID": null, "BLM_PROD": "Lode Claim", "CSE_TYPE_NR": "384101", "CSE_NR": "OR101470482", "LEG_CSE_NR": "ORMC165731", "SF_ID": "a02t00000058vWlAAI", "CSE_DISP": "Active", "SRC": "LLD", "QLTY": "8: SIMPLE\nSECTION CONTAINS 5 OR LESS POLYGONS\naliquot\n36 sections retrieved\n36 intersected features retrieved\n1 matching sections found\nsection 4 issimple: False", "CSE_META": "WA 33 0250N 0100E 004 A NW", "RCRD_ACRS": 20.66, "Created": 1611360000000, "Modified": 1728178795000, "Shape__Length": 0.04093762172658356, "Shape__Area": 0.00010450712261817602}}, {"type": "Feature", "id": 331352, "geometry": {"type": "Polygon", "coordinates": [[[-121.54529, 47.69168], [-121.55592, 47.69167], [-121.55589, 47.68191], [-121.54526, 47.68193], [-121.54529, 47.69168]]]}, "properties": {"OBJECTID": 331352, "ID": "801974244522066001", "CSE_NAME": "MCCLAIN MYSTERY", "STAGE_ID": null, "BLM_PROD": "Lode Claim", "CSE_TYPE_NR": "384101", "CSE_NR": "OR101470483", "LEG_CSE_NR": "ORMC165732", "SF_ID": "a02t00000058vWmAAI", "CSE_DISP": "Active", "SRC": "LLD", "QLTY": "8: SIMPLE\nSECTION CONTAINS 5 OR LESS POLYGONS\naliquot\n36 sections retrieved\n36 intersected features retrieved\n1 matching sections found\nsection 5 issimple: False", "CSE_META": "WA 33 0250N 0100E 005 A NE", "RCRD_ACRS": 20.66, "Created": 1611360000000, "Modified": 1728178795000, "Shape__Length": 0.04076203731332174, "Shape__Area": 0.00010365306248489803}}, {"type": "Feature", "id": 331353, "geometry": {"type": "Polygon", "coordinates": [[[-121.55592, 47.69167], [-121.56655, 47.69166], [-121.56652, 47.68189], [-121.55589, 47.68191], [-121.55592, 47.69167]]]}, "properties": {"OBJECTID": 331353, "ID": "801974244522066002", "CSE_NAME": "MCCLAIN MYSTERY #2", "STAGE_ID": null, "BLM_PROD": "Lode Claim", "CSE_TYPE_NR": "384101", "CSE_NR": "OR101470484", "LEG_CSE_NR": "ORMC165733", "SF_ID": "a02t00000058vWnAAI", "CSE_DISP": "Active", "SRC": "LLD", "QLTY": "8: SIMPLE\nSECTION CONTAINS 5 OR LESS POLYGONS\naliquot\n36 sections retrieved\n36 intersected features retrieved\n1 matching sections found\nsection 5 issimple: False", "CSE_META": "WA 33 0250N 0100E 005 A NW", "RCRD_ACRS": 20.66, "Created": 1611360000000, "Modified": 1728178795000, "Shape__Length": 0.04078124821866311, "Shape__Area": 0.00010375507101102303}}, {"type": "Feature", "id": 331354, "geometry": {"type": "Polygon", "coordinates": [[[-121.54526, 47.68193], [-121.53454, 47.68194], [-121.53457, 47.6917], [-121.54529, 47.69168], [-121.55592, 47.69167], [-121.55589, 47.68191], [-121.54526, 47.68193]]]}, "properties": {"OBJECTID": 331354, "ID": "801974245100879914", "CSE_NAME": "MONTE CARLO #3", "STAGE_ID": null, "BLM_PROD": "Lode Claim", "CSE_TYPE_NR": "384101", "CSE_NR": "OR101470485", "LEG_CSE_NR": "ORMC165734", "SF_ID": "a02t00000058vWoAAI", "CSE_DISP": "Active", "SRC": "LLD", "QLTY": "8: SIMPLE\nSECTION CONTAINS 5 OR LESS POLYGONS\naliquot\n36 sections retrieved\n36 intersected features retrieved\n1 matching sections found\nsection 5 issimple: False, SIMPLE\nSECTION CONTAINS 5 OR LESS POLYGONS\naliquot\n36 sections retrieved\n36 intersected feat", "CSE_META": "WA 33 0250N 0100E 005 A NE|WA 33 0250N 0100E 004 A NW", "RCRD_ACRS": 20.66, "Created": 1611360000000, "Modified": 1728178795000, "Shape__Length": 0.06220751749162784, "Shape__Area": 0.00020816018510307405}}, {"type": "Feature", "id": 331355, "geometry": {"type": "Polygon", "coordinates": [[[-121.54524, 47.67218], [-121.53451, 47.67219], [-121.53454, 47.68194], [-121.54526, 47.68193], [-121.55589, 47.68191], [-121.55586, 47.67215], [-121.54524, 47.67218]]]}, "properties": {"OBJECTID": 331355, "ID": "801974245545476194", "CSE_NAME": "MONTE CARLO #10", "STAGE_ID": null, "BLM_PROD": "Lode Claim", "CSE_TYPE_NR": "384101", "CSE_NR": "OR101470486", "LEG_CSE_NR": "ORMC165735", "SF_ID": "a02t00000058vWpAAI", "CSE_DISP": "Active", "SRC": "LLD", "QLTY": "8: SIMPLE\nSECTION CONTAINS 5 OR LESS POLYGONS\naliquot\n36 sections retrieved\n36 intersected features retrieved\n1 matching sections found\nsection 5 issimple: False, SIMPLE\nSECTION CONTAINS 5 OR LESS POLYGONS\naliquot\n36 sections retrieved\n36 intersected feat", "CSE_META": "WA 33 0250N 0100E 005 A SE|WA 33 0250N 0100E 004 A SW", "RCRD_ACRS": 20.66, "Created": 1611360000000, "Modified": 1728178795000, "Shape__Length": 0.062213573474692176, "Shape__Area": 0.00020818970073540054}}, {"type": "Feature", "id": 331818, "geometry": {"type": "Polygon", "coordinates": [[[-121.35934, 47.49151], [-121.35934, 47.49193], [-121.35937, 47.49552], [-121.36465, 47.49552], [-121.36998, 47.49551], [-121.37, 47.49191], [-121.37002, 47.48832], [-121.36467, 47.48833], [-121.35931, 47.48833], [-121.35934, 47.4909], [-121.35934, 47.49151]]]}, "properties": {"OBJECTID": 331818, "ID": "801974245130240000", "CSE_NAME": "HEMLOCK", "STAGE_ID": null, "BLM_PROD": "Lode Claim", "CSE_TYPE_NR": "384101", "CSE_NR": "OR101342241", "LEG_CSE_NR": "ORMC168470", "SF_ID": "a02t00000058z5LAAQ", "CSE_DISP": "Active", "SRC": "LLD", "QLTY": "1: MIDPOINT\nTYPICAL QUARTER SECTION WITH 4 STANDARD LEGALS ATTRIBUTED\naliquot\n37 sections retrieved\n598 intersected features retrieved\n16 matching sections found\nsection 11 issimple: True", "CSE_META": "WA 33 0230N 0110E 011 A SE", "RCRD_ACRS": 20.66, "Created": 1611360000000, "Modified": 1728179108000, "Shape__Length": 0.035703946421991005, "Shape__Area": 7.664167718570652e-05}}, {"type": "Feature", "id": 331960, "geometry": {"type": "Polygon", "coordinates": [[[-121.3861, 47.48316], [-121.38611, 47.48226], [-121.38611, 47.48221], [-121.39123, 47.48377], [-121.39123, 47.48378], [-121.3912, 47.48383], [-121.3907, 47.48464], [-121.39142, 47.48464], [-121.39146, 47.48102], [-121.38612, 47.48103], [-121.38079, 47.48104], [-121.37543, 47.48106], [-121.37008, 47.48107], [-121.37005, 47.48469], [-121.37002, 47.48832], [-121.37, 47.49191], [-121.36998, 47.49551], [-121.37531, 47.49551], [-121.38071, 47.4955], [-121.38071, 47.49189], [-121.38072, 47.48828], [-121.38604, 47.48827], [-121.38608, 47.48465], [-121.3861, 47.4832], [-121.3861, 47.48316]]]}, "properties": {"OBJECTID": 331960, "ID": "799126765384499217", "CSE_NAME": "CASCADE #6", "STAGE_ID": null, "BLM_PROD": "Lode Claim", "CSE_TYPE_NR": "384101", "CSE_NR": "OR101747792", "LEG_CSE_NR": "ORMC169745", "SF_ID": "a02t000000595PzAAI", "CSE_DISP": "Active", "SRC": "LLD", "QLTY": "1: MIDPOINT\nTYPICAL QUARTER SECTION WITH 4 STANDARD LEGALS ATTRIBUTED\naliquot\n37 sections retrieved\n598 intersected features retrieved\n16 matching sections found\nsection 11 issimple: True, MIDPOINT\nTYPICAL QUARTER SECTION WITH 4 STANDARD LEGALS ATTRIBUTED", "CSE_META": "WA 33 0230N 0110E 011 A SW|WA 33 0230N 0110E 014 A NW|WA 33 0230N 0110E 015 A NE", "RCRD_ACRS": 20.66, "Created": 1610668800000, "Modified": 1728179663000, "Shape__Length": 0.07583907908186666, "Shape__Area": 0.00020434275599720455}}, {"type": "Feature", "id": 332155, "geometry": {"type": "Polygon", "coordinates": [[[-121.35935, 47.51694], [-121.35935, 47.5148], [-121.35935, 47.51356], [-121.35663, 47.51357], [-121.3562, 47.51481], [-121.35615, 47.51496], [-121.35614, 47.51497], [-121.3565, 47.51503], [-121.35839, 47.51535], [-121.35782, 47.51694], [-121.35717, 47.51874], [-121.35939, 47.51883], [-121.35935, 47.51724], [-121.35935, 47.5172], [-121.35935, 47.51718], [-121.35935, 47.5171], [-121.35935, 47.51694]]]}, "properties": {"OBJECTID": 332155, "ID": "799126715702968451", "CSE_NAME": "CLIPPER VIEW", "STAGE_ID": null, "BLM_PROD": "Lode Claim", "CSE_TYPE_NR": "384101", "CSE_NR": "OR101488129", "LEG_CSE_NR": "ORMC171678", "SF_ID": "a02t00000059AH2AAM", "CSE_DISP": "Active", "SRC": "LLD", "QLTY": "1: SIMPLE\nFULLY ATTRIBUTED QUARTER SECTION ALL BUCKETS ARE EQUAL\nDOES NOT MATCH PM ANGLES\naliquot\n37 sections retrieved\n598 intersected features retrieved\n18 matching sections found\nsection 1 issimple: False", "CSE_META": "WA 33 0230N 0110E 001 A NW", "RCRD_ACRS": 11.48, "Created": 1610668800000, "Modified": 1728180096000, "Shape__Length": 0.017562813840161028, "Shape__Area": 1.0409809552239503e-05}}, {"type": "Feature", "id": 332171, "geometry": {"type": "Polygon", "coordinates": [[[-121.38071, 47.49189], [-121.38072, 47.48828], [-121.37537, 47.48831], [-121.37229, 47.48832], [-121.37002, 47.48832], [-121.37, 47.49191], [-121.36998, 47.49551], [-121.37531, 47.49551], [-121.38071, 47.4955], [-121.38071, 47.49189]]]}, "properties": {"OBJECTID": 332171, "ID": "799126763870355528", "CSE_NAME": "SHANGRI LA", "STAGE_ID": null, "BLM_PROD": "Lode Claim", "CSE_TYPE_NR": "384101", "CSE_NR": "OR101844240", "LEG_CSE_NR": "ORMC171774", "SF_ID": "a02t000000596WQAAY", "CSE_DISP": "Active", "SRC": "LLD", "QLTY": "1: MIDPOINT\nTYPICAL QUARTER SECTION WITH 4 STANDARD LEGALS ATTRIBUTED\naliquot\n37 sections retrieved\n598 intersected features retrieved\n16 matching sections found\nsection 11 issimple: True", "CSE_META": "WA 33 0230N 0110E 011 A SW", "RCRD_ACRS": 20.66, "Created": 1610668800000, "Modified": 1728179760000, "Shape__Length": 0.03583605432905434, "Shape__Area": 7.713572066188752e-05}}, {"type": "Feature", "id": 334497, "geometry": {"type": "Polygon", "coordinates": [[[-121.55589, 47.68191], [-121.56652, 47.68189], [-121.56648, 47.67213], [-121.55586, 47.67215], [-121.55589, 47.68191]]]}, "properties": {"OBJECTID": 334497, "ID": "801974244467539975", "CSE_NAME": "BLACKHAWK #3", "STAGE_ID": null, "BLM_PROD": "Lode Claim", "CSE_TYPE_NR": "384101", "CSE_NR": "OR101431556", "LEG_CSE_NR": "ORMC29046", "SF_ID": "a02t000000584UFAAY", "CSE_DISP": "Active", "SRC": "LLD", "QLTY": "8: SIMPLE\nSECTION CONTAINS 5 OR LESS POLYGONS\naliquot\n36 sections retrieved\n36 intersected features retrieved\n1 matching sections found\nsection 5 issimple: False", "CSE_META": "WA 33 0250N 0100E 005 A SW", "RCRD_ACRS": 20.66, "Created": 1611360000000, "Modified": 1728174115000, "Shape__Length": 0.04077096252332858, "Shape__Area": 0.00010370502623909203}}, {"type": "Feature", "id": 334546, "geometry": {"type": "Polygon", "coordinates": [[[-121.43402, 47.53315], [-121.43405, 47.54039], [-121.44477, 47.54039], [-121.44477, 47.54039], [-121.45821, 47.5404], [-121.45817, 47.53317], [-121.44473, 47.53316], [-121.43402, 47.53315]]]}, "properties": {"OBJECTID": 334546, "ID": "799126733147078836", "CSE_NAME": "PURPLE HOPE #2", "STAGE_ID": null, "BLM_PROD": "Lode Claim", "CSE_TYPE_NR": "384101", "CSE_NR": "OR101434437", "LEG_CSE_NR": "ORMC44910", "SF_ID": "a02t000000584DIAAY", "CSE_DISP": "Active", "SRC": "LLD", "QLTY": "8: MIDPOINT\nSECTION CONTAINS 5 OR LESS POLYGONS\naliquot\n36 sections retrieved\n36 intersected features retrieved\n1 matching sections found\nsection 29 issimple: False, SIMPLE\nSECTION CONTAINS 5 OR LESS POLYGONS\naliquot\n36 sections retrieved\n36 intersected f", "CSE_META": "WA 33 0240N 0110E 029 A SW|WA 33 0240N 0110E 030 A SE", "RCRD_ACRS": 20.66, "Created": 1610668800000, "Modified": 1728174089000, "Shape__Length": 0.06277672440702833, "Shape__Area": 0.00017462690954459504}}, {"type": "Feature", "id": 334547, "geometry": {"type": "Polygon", "coordinates": [[[-121.44477, 47.54039], [-121.45821, 47.5404], [-121.45817, 47.53317], [-121.44473, 47.53316], [-121.44477, 47.54039]]]}, "properties": {"OBJECTID": 334547, "ID": "801974244840833109", "CSE_NAME": "PURPLE HOPE #4", "STAGE_ID": null, "BLM_PROD": "LODE CLAIM", "CSE_TYPE_NR": "384101", "CSE_NR": "OR101370352", "LEG_CSE_NR": "ORMC44912", "SF_ID": "a02t0000005847DAAQ", "CSE_DISP": "Active", "SRC": "LLD", "QLTY": "8: SIMPLE\nSECTION CONTAINS 5 OR LESS POLYGONS\naliquot\n36 sections retrieved\n36 intersected features retrieved\n1 matching sections found\nsection 30 issimple: False", "CSE_META": "WA 33 0240N 0110E 030 A SE", "RCRD_ACRS": 20.66, "Created": 1611360000000, "Modified": 1744819118000, "Shape__Length": 0.04132375672746294, "Shape__Area": 9.709368856759803e-05}}, {"type": "Feature", "id": 334635, "geometry": {"type": "Polygon", "coordinates": [[[-121.37543, 47.48106], [-121.37008, 47.48107], [-121.37005, 47.48469], [-121.37002, 47.48832], [-121.36467, 47.48833], [-121.35931, 47.48833], [-121.35934, 47.4909], [-121.35934, 47.49151], [-121.35934, 47.49193], [-121.35937, 47.49552], [-121.36465, 47.49552], [-121.36998, 47.49551], [-121.37531, 47.49551], [-121.38071, 47.4955], [-121.38071, 47.49189], [-121.38072, 47.48828], [-121.38072, 47.48639], [-121.38075, 47.48466], [-121.38075, 47.48456], [-121.38076, 47.48445], [-121.38079, 47.4829], [-121.38079, 47.48106], [-121.38079, 47.48104], [-121.37543, 47.48106]]]}, "properties": {"OBJECTID": 334635, "ID": "799126714989936796", "CSE_NAME": "CASCADE #9", "STAGE_ID": null, "BLM_PROD": "Lode Claim", "CSE_TYPE_NR": "384101", "CSE_NR": "OR101481538", "LEG_CSE_NR": "ORMC5470", "SF_ID": "a02t000000588X7AAI", "CSE_DISP": "Active", "SRC": "LLD", "QLTY": "1: MIDPOINT\nTYPICAL QUARTER SECTION WITH 4 STANDARD LEGALS ATTRIBUTED\naliquot\n37 sections retrieved\n598 intersected features retrieved\n16 matching sections found\nsection 11 issimple: True, MIDPOINT\nTYPICAL QUARTER SECTION WITH 4 STANDARD LEGALS ATTRIBUTED", "CSE_META": "WA 33 0230N 0110E 011 A SW|WA 33 0230N 0110E 011 A SE|WA 33 0230N 0110E 014 A NW", "RCRD_ACRS": 20.66, "Created": 1610668800000, "Modified": 1728174482000, "Shape__Length": 0.07166063194580015, "Shape__Area": 0.00023137680957876255}}, {"type": "Feature", "id": 334637, "geometry": {"type": "Polygon", "coordinates": [[[-121.32671, 47.51886], [-121.32669, 47.52609], [-121.32667, 47.53331], [-121.33801, 47.53331], [-121.33804, 47.52609], [-121.33806, 47.51887], [-121.32671, 47.51886]]]}, "properties": {"OBJECTID": 334637, "ID": "799126732635373693", "CSE_NAME": "NELLIE", "STAGE_ID": null, "BLM_PROD": "Lode Claim", "CSE_TYPE_NR": "384101", "CSE_NR": "OR101431170", "LEG_CSE_NR": "ORMC5667", "SF_ID": "a02t000000584J4AAI", "CSE_DISP": "Active", "SRC": "LLD", "QLTY": "8: MIDPOINT\nSECTION CONTAINS 5 OR LESS POLYGONS\naliquot\n18 sections retrieved\n18 intersected features retrieved\n1 matching sections found\nsection 34 issimple: False, MIDPOINT\nSECTION CONTAINS 5 OR LESS POLYGONS\naliquot\n18 sections retrieved\n18 intersected", "CSE_META": "WA 33 0240N 0120E 034 A NW|WA 33 0240N 0120E 034 A SW", "RCRD_ACRS": 20.66, "Created": 1610668800000, "Modified": 1728174097000, "Shape__Length": 0.05159013435368046, "Shape__Area": 0.00016394252878632504}}, {"type": "Feature", "id": 394717, "geometry": {"type": "Polygon", "coordinates": [[[-121.51212, 47.69178], [-121.51211, 47.69539], [-121.51748, 47.69538], [-121.5175, 47.69176], [-121.51304, 47.69178], [-121.51212, 47.69178]]]}, "properties": {"OBJECTID": 394717, "ID": "1176992911754211328", "CSE_NAME": "Apex # 5 B", "STAGE_ID": "1176992428062806016", "BLM_PROD": "Lode Claim", "CSE_TYPE_NR": "384101", "CSE_NR": "OR106333435", "LEG_CSE_NR": "", "SF_ID": "a023d00000HTKovAAH", "CSE_DISP": "Filed", "SRC": "LLD", "QLTY": "0; WA330260N0100E0SN340ANESW; WA330260N0100E0SN340ANWSW; WA330260N0100E0SN340ASESW; WA330260N0100E0SN340ASWSW", "CSE_META": "WA 33 0260N 0100E 034 NESW | WA 33 0260N 0100E 034 NWSW | WA 33 0260N 0100E 034 SESW | WA 33 0260N 0100E 034 SWSW", "RCRD_ACRS": 160, "Created": 1700611200000, "Modified": 1745971200000, "Shape__Length": 0.017973089778358892, "Shape__Area": 1.9412375478928504e-05}}, {"type": "Feature", "id": 394719, "geometry": {"type": "Polygon", "coordinates": [[[-121.51212, 47.69178], [-121.50767, 47.69179], [-121.50674, 47.6918], [-121.50674, 47.6954], [-121.50673, 47.69902], [-121.51209, 47.699], [-121.51745, 47.69899], [-121.51745, 47.69892], [-121.51745, 47.69885], [-121.51748, 47.69538], [-121.5175, 47.69176], [-121.51304, 47.69178], [-121.51212, 47.69178]]]}, "properties": {"OBJECTID": 394719, "ID": "1176994564892987392", "CSE_NAME": "Apex # 6 B", "STAGE_ID": "1176994093155418112", "BLM_PROD": "Lode Claim", "CSE_TYPE_NR": "384101", "CSE_NR": "OR106333436", "LEG_CSE_NR": "", "SF_ID": "a023d00000HTKowAAH", "CSE_DISP": "Filed", "SRC": "LLD", "QLTY": "1; MIDPOINT, TYPICAL QUARTER SECTION WITH 4 STANDARD LEGALS ATTRIBUTED, TWN CONTAINS PB/UP/UU, aliquot", "CSE_META": "WA 33 0260N 0100E 034 A SW", "RCRD_ACRS": 160, "Created": 1700611200000, "Modified": 1745971200000, "Shape__Length": 0.03593112282153345, "Shape__Area": 7.759796098827252e-05}}, {"type": "Feature", "id": 394720, "geometry": {"type": "Polygon", "coordinates": [[[-121.52289, 47.69172], [-121.51848, 47.69175], [-121.5175, 47.69176], [-121.51748, 47.69538], [-121.51745, 47.69885], [-121.51745, 47.69892], [-121.51745, 47.69899], [-121.52285, 47.69898], [-121.52825, 47.69897], [-121.52827, 47.69535], [-121.52828, 47.6917], [-121.52386, 47.69172], [-121.52328, 47.69172], [-121.52289, 47.69172]]]}, "properties": {"OBJECTID": 394720, "ID": "1176995918134759424", "CSE_NAME": "Apex #7", "STAGE_ID": "1176995561119858688", "BLM_PROD": "Lode Claim", "CSE_TYPE_NR": "384101", "CSE_NR": "OR106333437", "LEG_CSE_NR": "", "SF_ID": "a023d00000HTKoxAAH", "CSE_DISP": "Filed", "SRC": "LLD", "QLTY": "1; MIDPOINT, TYPICAL QUARTER SECTION WITH 4 STANDARD LEGALS ATTRIBUTED, TWN CONTAINS PB/UP/UU, aliquot", "CSE_META": "WA 33 0260N 0100E 033 A SE", "RCRD_ACRS": 160, "Created": 1700611200000, "Modified": 1745971200000, "Shape__Length": 0.0360789844421572, "Shape__Area": 7.827825582398051e-05}}, {"type": "Feature", "id": 432996, "geometry": {"type": "Polygon", "coordinates": [[[-121.37537, 47.48831], [-121.37229, 47.48832], [-121.37002, 47.48832], [-121.36467, 47.48833], [-121.35931, 47.48833], [-121.35934, 47.4909], [-121.35934, 47.49151], [-121.35934, 47.49193], [-121.35937, 47.49552], [-121.35939, 47.49912], [-121.35939, 47.49985], [-121.35933, 47.50272], [-121.36464, 47.50272], [-121.36995, 47.50272], [-121.37526, 47.50272], [-121.38057, 47.50272], [-121.38057, 47.49985], [-121.38064, 47.49984], [-121.3807, 47.49984], [-121.3807, 47.49911], [-121.38071, 47.4955], [-121.38071, 47.49189], [-121.38072, 47.48828], [-121.37537, 47.48831]]]}, "properties": {"OBJECTID": 432996, "ID": "889990127940747264", "CSE_NAME": "Puffball Millsite", "STAGE_ID": "888087446242349056", "BLM_PROD": "Mill Site", "CSE_TYPE_NR": "384401", "CSE_NR": "OR105261278", "LEG_CSE_NR": "", "SF_ID": "a02t0000007G2BNAA0", "CSE_DISP": "Active", "SRC": "LLD", "QLTY": "8: WA330230N0110E0SN110ASWNW\n37 sections retrieved\n598 intersected features retrieved, MIDPOINT\nTYPICAL QUARTER SECTION WITH 4 STANDARD LEGALS ATTRIBUTED\naliquot\n37 sections retrieved\n598 intersected features retrieved\n16 matching sections found\nsection 1", "CSE_META": "WA 33 0230N 0110E 011 A SWNW|WA 33 0230N 0110E 011 A NW|WA 33 0230N 0110E 011 A SENW|WA 33 0230N 0110E 011 A NW|WA 33 0230N 0110E 011 A NW|WA 33 0230N 0110E 011 A SENW|WA 33 0230N 0110E 011 A SWNW|WA 33 0230N 0110E 011 A Government Lot 5|WA 33 0230N 0110E 011 A NENW|WA 33 0230N 0110E 011 A NWNW|WA 33 0230N 0110E 011 A SENW|WA 33 0230N 0110E 011 A SWNW|WA 33 0230N 0110E 011 A NENW|WA 33 0230N 0110E 011 A NWNW", "RCRD_ACRS": 2.066, "Created": 1632182400000, "Modified": 1728293368000, "Shape__Length": 0.07160439767802576, "Shape__Area": 0.00030717621671041306}}, {"type": "Feature", "id": 433043, "geometry": {"type": "Polygon", "coordinates": [[[-121.4016, 47.48907], [-121.40324, 47.48907], [-121.40324, 47.48798], [-121.40163, 47.48796], [-121.4016, 47.48907]]]}, "properties": {"OBJECTID": 433043, "ID": "972971760498692096", "CSE_NAME": "Crystal Haven", "STAGE_ID": "972968562530574336", "BLM_PROD": "Mill Site", "CSE_TYPE_NR": "384401", "CSE_NR": "OR105761461", "LEG_CSE_NR": "", "SF_ID": "a023d00000BxciWAAR", "CSE_DISP": "Active", "SRC": "LLD/CLS", "QLTY": "100", "CSE_META": "WA 33 0230N 0110E 010 A SWSW|WA 33 0230N 0110E 009 A SESE|WA 33 0230N 0110E 016 A NENE|WA 33 0230N 0110E 015 A NWNW", "RCRD_ACRS": 3.673, "Created": 1651968000000, "Modified": 1728153633000, "Shape__Length": 0.0054473567740340595, "Shape__Area": 1.7864760090000005e-06}}, {"type": "Feature", "id": 445123, "geometry": {"type": "Polygon", "coordinates": [[[-121.47159, 47.52063], [-121.47162, 47.5275], [-121.4825, 47.52782], [-121.48247, 47.52079], [-121.47159, 47.52063]]]}, "properties": {"OBJECTID": 445123, "ID": "801974245167988806", "CSE_NAME": "PURPLE HOPE MILLSITE", "STAGE_ID": null, "BLM_PROD": "Mill Site", "CSE_TYPE_NR": "384401", "CSE_NR": "OR101565772", "LEG_CSE_NR": "ORMC172153", "SF_ID": "a02t00000059FU7AAM", "CSE_DISP": "Active", "SRC": "LLD", "QLTY": "8: MIDPOINT\nSECTION CONTAINS 5 OR LESS POLYGONS\nDOES NOT MATCH PM ANGLES\naliquot\n36 sections retrieved\n36 intersected features retrieved\n1 matching sections found\nsection 36 issimple: False", "CSE_META": "WA 33 0240N 0100E 036 A NE", "RCRD_ACRS": 4.98, "Created": 1611360000000, "Modified": 1728180625000, "Shape__Length": 0.035663959767520285, "Shape__Area": 7.558295873864802e-05}}, {"type": "Feature", "id": 446013, "geometry": {"type": "Polygon", "coordinates": [[[-121.36464, 47.50272], [-121.35933, 47.50272], [-121.35934, 47.50609], [-121.35934, 47.50675], [-121.35934, 47.5099], [-121.36276, 47.5099], [-121.36304, 47.5099], [-121.36471, 47.50992], [-121.36971, 47.50989], [-121.36972, 47.50989], [-121.36977, 47.50989], [-121.36996, 47.50989], [-121.36996, 47.50673], [-121.36996, 47.50608], [-121.36995, 47.50272], [-121.36464, 47.50272]]]}, "properties": {"OBJECTID": 446013, "ID": "1125111712270426112", "CSE_NAME": "MFLZ", "STAGE_ID": "1125109467839512576", "BLM_PROD": "MILL SITE", "CSE_TYPE_NR": "384401", "CSE_NR": "OR106301980", "LEG_CSE_NR": null, "SF_ID": "a023d00000GfQjkAAF", "CSE_DISP": "Active", "SRC": "LLD/CLS", "QLTY": "1; SIMPLE, FULLY ATTRIBUTED QUARTER SECTION ALL BUCKETS ARE EQUAL, aliquot", "CSE_META": "WA 33 0230N 0110E 002 A SE", "RCRD_ACRS": 201.32, "Created": 1688256000000, "Modified": 1782237744000, "Shape__Length": 0.03558653779798299, "Shape__Area": 7.627602503255152e-05}}, {"type": "Feature", "id": 459660, "geometry": {"type": "MultiPolygon", "coordinates": [[[[-121.4127, 47.49547], [-121.41266, 47.49909], [-121.41262, 47.50271], [-121.41331, 47.50272], [-121.41801, 47.50272], [-121.41851, 47.50272], [-121.42341, 47.50272], [-121.4234, 47.49992], [-121.4234, 47.49986], [-121.42344, 47.49986], [-121.42352, 47.49986], [-121.42352, 47.4991], [-121.42352, 47.49548], [-121.41808, 47.49548], [-121.4127, 47.49547]]], [[[-121.41274, 47.49186], [-121.41278, 47.48825], [-121.4074, 47.48824], [-121.40567, 47.48824], [-121.40203, 47.48824], [-121.40198, 47.49185], [-121.40193, 47.49546], [-121.40732, 47.49547], [-121.4127, 47.49547], [-121.41274, 47.49186]]]]}, "properties": {"OBJECTID": 459660, "ID": "1072187678784577536", "CSE_NAME": "Robot Parade #2", "STAGE_ID": "1072187678537113600", "BLM_PROD": "Placer Claim", "CSE_TYPE_NR": "384201", "CSE_NR": "OR105816534", "LEG_CSE_NR": "", "SF_ID": "a023d00000FMIFzAAP", "CSE_DISP": "Active", "SRC": "LLD", "QLTY": "1: WA330230N0110E0SN090ANWNW\n37 sections retrieved\n598 intersected features retrieved, WA330230N0110E0SN090ASWNW\n37 sections retrieved\n598 intersected features retrieved, WA330230N0110E0SN090ANENW\n37 sections retrieved\n598 intersected features retrieved, ", "CSE_META": "WA 33 0230N 0110E 009 A NWNW|WA 33 0230N 0110E 009 A SWNW|WA 33 0230N 0110E 009 A NENW|WA 33 0230N 0110E 009 A SENW|WA 33 0230N 0110E 009 A SE", "RCRD_ACRS": 40, "Created": 1675641600000, "Modified": 1728154957000, "Shape__Length": 0.07215385633822559, "Shape__Area": 0.00015603561192829255}}, {"type": "Feature", "id": 498353, "geometry": {"type": "Polygon", "coordinates": [[[-121.40984, 47.71345], [-121.41024, 47.72076], [-121.42103, 47.72084], [-121.42088, 47.71362], [-121.40984, 47.71345]]]}, "properties": {"OBJECTID": 498353, "ID": "799126754831630336", "CSE_NAME": "MONEY", "STAGE_ID": null, "BLM_PROD": "Placer Claim", "CSE_TYPE_NR": "384201", "CSE_NR": "OR101650079", "LEG_CSE_NR": "ORMC174386", "SF_ID": "a02t00000059KeGAAU", "CSE_DISP": "Active", "SRC": "LLD", "QLTY": "8: MIDPOINT\nSECTION CONTAINS 5 OR LESS POLYGONS\nDOES NOT MATCH PM ANGLES\naliquot\n36 sections retrieved\n36 intersected features retrieved\n1 matching sections found\nsection 29 issimple: False", "CSE_META": "WA 33 0260N 0110E 029 A NE", "RCRD_ACRS": 20, "Created": 1610668800000, "Modified": 1728181129000, "Shape__Length": 0.0363662150083852, "Shape__Area": 7.923339521949352e-05}}, {"type": "Feature", "id": 552240, "geometry": {"type": "Polygon", "coordinates": [[[-121.36304, 47.5099], [-121.36471, 47.50992], [-121.36971, 47.50989], [-121.36972, 47.50989], [-121.36977, 47.50989], [-121.36996, 47.50989], [-121.36996, 47.50673], [-121.36996, 47.50608], [-121.36995, 47.50272], [-121.36464, 47.50272], [-121.35933, 47.50272], [-121.35934, 47.50609], [-121.35934, 47.50675], [-121.35934, 47.5099], [-121.36276, 47.5099], [-121.36304, 47.5099]]]}, "properties": {"OBJECTID": 552240, "ID": "1356452842625445888", "CSE_NAME": "Spruce 14", "STAGE_ID": "1356452835365097472", "BLM_PROD": "LODE CLAIM", "CSE_TYPE_NR": "384101", "CSE_NR": "OR106392707", "LEG_CSE_NR": "", "SF_ID": "a02SJ000001k5wzYAA", "CSE_DISP": "Filed", "SRC": "LLD", "QLTY": "1; SIMPLE, FULLY ATTRIBUTED QUARTER SECTION ALL BUCKETS ARE EQUAL, aliquot", "CSE_META": "WA 33 0230N 0110E 002 SE", "RCRD_ACRS": 0, "Created": 1743465600000, "Modified": 1745971200000, "Shape__Length": 0.03558653779798299, "Shape__Area": 7.627602503255152e-05}}, {"type": "Feature", "id": 612363, "geometry": {"type": "Polygon", "coordinates": [[[-121.51304, 47.69178], [-121.51212, 47.69178], [-121.50767, 47.69179], [-121.50674, 47.6918], [-121.50674, 47.6954], [-121.50673, 47.69902], [-121.51209, 47.699], [-121.51745, 47.69899], [-121.51745, 47.69892], [-121.51745, 47.69885], [-121.51748, 47.69538], [-121.5175, 47.69176], [-121.51304, 47.69178]]]}, "properties": {"OBJECTID": 612363, "ID": "1501315928636424192", "CSE_NAME": "Apex #9", "STAGE_ID": "1501315914010923008", "BLM_PROD": "LODE CLAIM", "CSE_TYPE_NR": "384101", "CSE_NR": "OR106801735", "LEG_CSE_NR": "", "SF_ID": "a02SJ00000Jex86YAB", "CSE_DISP": "Filed", "SRC": "LLD", "QLTY": "1; MIDPOINT, TYPICAL QUARTER SECTION WITH 4 STANDARD LEGALS ATTRIBUTED, TWN CONTAINS PB/UP/UU, aliquot", "CSE_META": "WA 33 0260N 0100E 034 SW", "RCRD_ACRS": 20.66, "Created": 1777939200000, "Modified": 1777939200000, "Shape__Length": 0.03593112282153345, "Shape__Area": 7.759796098827252e-05}}, {"type": "Feature", "id": 612399, "geometry": {"type": "Polygon", "coordinates": [[[-121.48092, 47.69182], [-121.47985, 47.69182], [-121.47557, 47.69184], [-121.47447, 47.69184], [-121.4745, 47.69541], [-121.47453, 47.69897], [-121.4799, 47.69899], [-121.48527, 47.69901], [-121.48525, 47.69542], [-121.48523, 47.69182], [-121.48092, 47.69182]]]}, "properties": {"OBJECTID": 612399, "ID": "1501318523543257088", "CSE_NAME": "Apex #10", "STAGE_ID": "1501318496049631232", "BLM_PROD": "LODE CLAIM", "CSE_TYPE_NR": "384101", "CSE_NR": "OR106801736", "LEG_CSE_NR": "", "SF_ID": "a02SJ00000Jex87YAB", "CSE_DISP": "Filed", "SRC": "LLD", "QLTY": "1; MIDPOINT, TYPICAL QUARTER SECTION WITH 4 STANDARD LEGALS ATTRIBUTED, TWN CONTAINS PB/UP/UU, aliquot", "CSE_META": "WA 33 0260N 0100E 035 SE", "RCRD_ACRS": 20.66, "Created": 1777939200000, "Modified": 1777939200000, "Shape__Length": 0.03581088002206293, "Shape__Area": 7.697050803792502e-05}}, {"type": "Feature", "id": 623204, "geometry": {"type": "Polygon", "coordinates": [[[-121.46369, 47.69895], [-121.46366, 47.70252], [-121.46911, 47.70253], [-121.46911, 47.69896], [-121.46369, 47.69895]]]}, "properties": {"OBJECTID": 623204, "ID": "1525133189566345216", "CSE_NAME": "PK 2", "STAGE_ID": "1525133188480020480", "BLM_PROD": "PLACER CLAIM", "CSE_TYPE_NR": "384201", "CSE_NR": "OR106822020", "LEG_CSE_NR": null, "SF_ID": "a02SJ00000Lc1mzYAB", "CSE_DISP": "Filed", "SRC": "LLD/CLS", "QLTY": "0; WA330260N0100E0SN360ASENW", "CSE_META": "WA 33 0260N 0100E 036 SENW", "RCRD_ACRS": 40, "Created": 1783641600000, "Modified": 1784129907000, "Shape__Length": 0.018020712122608626, "Shape__Area": 1.9431482311636004e-05}}, {"type": "Feature", "id": 623442, "geometry": {"type": "Polygon", "coordinates": [[[-121.47182, 47.69896], [-121.47453, 47.69897], [-121.47452, 47.69719], [-121.47182, 47.69718], [-121.46911, 47.69717], [-121.46911, 47.69896], [-121.47182, 47.69896]]]}, "properties": {"OBJECTID": 623442, "ID": "1526293002417442816", "CSE_NAME": "PK 4", "STAGE_ID": "1526291876293070848", "BLM_PROD": "PLACER CLAIM", "CSE_TYPE_NR": "384201", "CSE_NR": "OR106824994", "LEG_CSE_NR": null, "SF_ID": "a02SJ00000Lrk8fYAB", "CSE_DISP": "Filed", "SRC": "LLD/CLS", "QLTY": "4.1; 1 intersecting parts, aliquot", "CSE_META": "WA 33 0260N 0100E 036 A N2NWSW", "RCRD_ACRS": 40, "Created": 1783900800000, "Modified": 1784129486000, "Shape__Length": 0.014394344018392635, "Shape__Area": 9.656126834860003e-06}}, {"type": "Feature", "id": 623469, "geometry": {"type": "Polygon", "coordinates": [[[-121.47183, 47.70075], [-121.47455, 47.70075], [-121.47453, 47.69897], [-121.47182, 47.69896], [-121.46911, 47.69896], [-121.46911, 47.70074], [-121.47183, 47.70075]]]}, "properties": {"OBJECTID": 623469, "ID": "1526292996859990016", "CSE_NAME": "PK 3", "STAGE_ID": "1526290730556018688", "BLM_PROD": "PLACER CLAIM", "CSE_TYPE_NR": "384201", "CSE_NR": "OR106824993", "LEG_CSE_NR": null, "SF_ID": "a02SJ00000LrjR7YAJ", "CSE_DISP": "Filed", "SRC": "LLD/CLS", "QLTY": "4.1; 1 intersecting parts, aliquot", "CSE_META": "WA 33 0260N 0100E 036 A S2SWNW", "RCRD_ACRS": 40, "Created": 1783900800000, "Modified": 1784129374000, "Shape__Length": 0.014423475125057835, "Shape__Area": 9.682072350332002e-06}}]}