{
"type": "FeatureCollection",
"name": "usmin_points",
"crs": { "type": "name", "properties": { "name": "urn:ogc:def:crs:OGC:1.3:CRS84" } },
"features": [
{ "type": "Feature", "properties": { "gml_id": "points.442863", "lowerCorner": "48.022711 -121.803192", "upperCorner": "48.022711 -121.803192", "state": "WA", "county": "Snohomish", "ftr_type": "Gravel Pit", "ftr_azimut": 0, "topo_name": "Verlot", "topo_date": 1989, "topo_scale": 24000, "compiledby": "USGS", "gda_id": 5408976, "scanid": 244474, "url": "https://mrdata.usgs.gov/usmin/show-usmin.php?type=point&id=442863", "remarks": null, "ftr_name": null, "dir": null }, "geometry": { "type": "Point", "coordinates": [ 48.022711, -121.803192 ] } },
{ "type": "Feature", "properties": { "gml_id": "points.442870", "lowerCorner": "48.010458 -121.941108", "upperCorner": "48.010458 -121.941108", "state": "WA", "county": "Snohomish", "ftr_type": "Gravel Pit", "ftr_azimut": 0, "topo_name": "Granite Falls", "topo_date": 1989, "topo_scale": 24000, "compiledby": "USGS", "gda_id": 5404548, "scanid": 241394, "url": "https://mrdata.usgs.gov/usmin/show-usmin.php?type=point&id=442870", "remarks": null, "ftr_name": null, "dir": null }, "geometry": { "type": "Point", "coordinates": [ 48.010458, -121.941108 ] } },
{ "type": "Feature", "properties": { "gml_id": "points.446125", "lowerCorner": "48.083880 -121.778888", "upperCorner": "48.083880 -121.778888", "state": "WA", "county": "Snohomish", "ftr_type": "Quarry", "ftr_azimut": 0, "topo_name": "Verlot", "topo_date": 1989, "topo_scale": 24000, "compiledby": "USGS", "gda_id": 5408976, "scanid": 244474, "url": "https://mrdata.usgs.gov/usmin/show-usmin.php?type=point&id=446125", "remarks": null, "ftr_name": null, "dir": null }, "geometry": { "type": "Point", "coordinates": [ 48.08388, -121.778888 ] } },
{ "type": "Feature", "properties": { "gml_id": "points.446126", "lowerCorner": "48.054748 -121.836764", "upperCorner": "48.054748 -121.836764", "state": "WA", "county": "Snohomish", "ftr_type": "Quarry", "ftr_azimut": 0, "topo_name": "Verlot", "topo_date": 1989, "topo_scale": 24000, "compiledby": "USGS", "gda_id": 5408976, "scanid": 244474, "url": "https://mrdata.usgs.gov/usmin/show-usmin.php?type=point&id=446126", "remarks": null, "ftr_name": null, "dir": null }, "geometry": { "type": "Point", "coordinates": [ 48.054748, -121.836764 ] } },
{ "type": "Feature", "properties": { "gml_id": "points.446130", "lowerCorner": "48.066451 -121.932469", "upperCorner": "48.066451 -121.932469", "state": "WA", "county": "Snohomish", "ftr_type": "Quarry", "ftr_azimut": 0, "topo_name": "Granite Falls", "topo_date": 1989, "topo_scale": 24000, "compiledby": "USGS", "gda_id": 5404548, "scanid": 241394, "url": "https://mrdata.usgs.gov/usmin/show-usmin.php?type=point&id=446130", "remarks": null, "ftr_name": null, "dir": null }, "geometry": { "type": "Point", "coordinates": [ 48.066451, -121.932469 ] } },
{ "type": "Feature", "properties": { "gml_id": "points.446133", "lowerCorner": "48.050998 -121.825544", "upperCorner": "48.050998 -121.825544", "state": "WA", "county": "Snohomish", "ftr_type": "Quarry", "ftr_azimut": 0, "topo_name": "Verlot", "topo_date": 1989, "topo_scale": 24000, "compiledby": "USGS", "gda_id": 5408976, "scanid": 244474, "url": "https://mrdata.usgs.gov/usmin/show-usmin.php?type=point&id=446133", "remarks": null, "ftr_name": null, "dir": null }, "geometry": { "type": "Point", "coordinates": [ 48.050998, -121.825544 ] } },
{ "type": "Feature", "properties": { "gml_id": "points.446136", "lowerCorner": "48.020041 -121.836979", "upperCorner": "48.020041 -121.836979", "state": "WA", "county": "Snohomish", "ftr_type": "Quarry", "ftr_azimut": 0, "topo_name": "Verlot", "topo_date": 1989, "topo_scale": 24000, "compiledby": "USGS", "gda_id": 5408976, "scanid": 244474, "url": "https://mrdata.usgs.gov/usmin/show-usmin.php?type=point&id=446136", "remarks": null, "ftr_name": null, "dir": null }, "geometry": { "type": "Point", "coordinates": [ 48.020041, -121.836979 ] } },
{ "type": "Feature", "properties": { "gml_id": "points.446151", "lowerCorner": "48.054076 -121.829872", "upperCorner": "48.054076 -121.829872", "state": "WA", "county": "Snohomish", "ftr_type": "Quarry", "ftr_azimut": 0, "topo_name": "Verlot", "topo_date": 1989, "topo_scale": 24000, "compiledby": "USGS", "gda_id": 5408976, "scanid": 244474, "url": "https://mrdata.usgs.gov/usmin/show-usmin.php?type=point&id=446151", "remarks": null, "ftr_name": null, "dir": null }, "geometry": { "type": "Point", "coordinates": [ 48.054076, -121.829872 ] } },
{ "type": "Feature", "properties": { "gml_id": "points.446158", "lowerCorner": "48.074203 -121.833605", "upperCorner": "48.074203 -121.833605", "state": "WA", "county": "Snohomish", "ftr_type": "Quarry", "ftr_azimut": 0, "topo_name": "Verlot", "topo_date": 1989, "topo_scale": 24000, "compiledby": "USGS", "gda_id": 5408976, "scanid": 244474, "url": "https://mrdata.usgs.gov/usmin/show-usmin.php?type=point&id=446158", "remarks": null, "ftr_name": null, "dir": null }, "geometry": { "type": "Point", "coordinates": [ 48.074203, -121.833605 ] } },
{ "type": "Feature", "properties": { "gml_id": "points.446159", "lowerCorner": "48.094052 -121.938949", "upperCorner": "48.094052 -121.938949", "state": "WA", "county": "Snohomish", "ftr_type": "Quarry", "ftr_azimut": 0, "topo_name": "Granite Falls", "topo_date": 1989, "topo_scale": 24000, "compiledby": "USGS", "gda_id": 5404548, "scanid": 241394, "url": "https://mrdata.usgs.gov/usmin/show-usmin.php?type=point&id=446159", "remarks": null, "ftr_name": null, "dir": null }, "geometry": { "type": "Point", "coordinates": [ 48.094052, -121.938949 ] } },
{ "type": "Feature", "properties": { "gml_id": "points.446169", "lowerCorner": "48.076041 -121.831870", "upperCorner": "48.076041 -121.831870", "state": "WA", "county": "Snohomish", "ftr_type": "Quarry", "ftr_azimut": 0, "topo_name": "Verlot", "topo_date": 1989, "topo_scale": 24000, "compiledby": "USGS", "gda_id": 5408976, "scanid": 244474, "url": "https://mrdata.usgs.gov/usmin/show-usmin.php?type=point&id=446169", "remarks": null, "ftr_name": null, "dir": null }, "geometry": { "type": "Point", "coordinates": [ 48.076041, -121.83187 ] } },
{ "type": "Feature", "properties": { "gml_id": "points.562853", "lowerCorner": "48.013403 -121.916850", "upperCorner": "48.013403 -121.916850", "state": "WA", "county": "Snohomish", "ftr_type": "Gravel Pit", "ftr_azimut": 0, "topo_name": "Granite Falls", "topo_date": 1956, "topo_scale": 62500, "compiledby": "USGS", "gda_id": 5409878, "scanid": 241389, "url": "https://mrdata.usgs.gov/usmin/show-usmin.php?type=point&id=562853", "remarks": "Symbolized as Open Pit Mine or Quarry, but labeled Gravel Pit.", "ftr_name": null, "dir": null }, "geometry": { "type": "Point", "coordinates": [ 48.013403, -121.91685 ] } },
{ "type": "Feature", "properties": { "gml_id": "points.563055", "lowerCorner": "48.095112 -121.935712", "upperCorner": "48.095112 -121.935712", "state": "WA", "county": "Snohomish", "ftr_type": "Mine Shaft", "ftr_azimut": 0, "topo_name": "Granite Falls", "topo_date": 1956, "topo_scale": 62500, "compiledby": "USGS", "gda_id": 5409878, "scanid": 241389, "url": "https://mrdata.usgs.gov/usmin/show-usmin.php?type=point&id=563055", "remarks": null, "ftr_name": "Wayside Mine", "dir": null }, "geometry": { "type": "Point", "coordinates": [ 48.095112, -121.935712 ] } },
{ "type": "Feature", "properties": { "gml_id": "points.439291", "lowerCorner": "47.763667 -121.863132", "upperCorner": "47.763667 -121.863132", "state": "WA", "county": "King", "ftr_type": "Borrow Pit", "ftr_azimut": 0, "topo_name": "Sultan", "topo_date": 1993, "topo_scale": 24000, "compiledby": "USGS", "gda_id": 5408476, "scanid": 244105, "url": "https://mrdata.usgs.gov/usmin/show-usmin.php?type=point&id=439291", "remarks": null, "ftr_name": null, "dir": null }, "geometry": { "type": "Point", "coordinates": [ 47.763667, -121.863132 ] } },
{ "type": "Feature", "properties": { "gml_id": "points.439311", "lowerCorner": "47.770220 -121.867297", "upperCorner": "47.770220 -121.867297", "state": "WA", "county": "King", "ftr_type": "Borrow Pit", "ftr_azimut": 0, "topo_name": "Sultan", "topo_date": 1993, "topo_scale": 24000, "compiledby": "USGS", "gda_id": 5408476, "scanid": 244105, "url": "https://mrdata.usgs.gov/usmin/show-usmin.php?type=point&id=439311", "remarks": null, "ftr_name": null, "dir": null }, "geometry": { "type": "Point", "coordinates": [ 47.77022, -121.867297 ] } },
{ "type": "Feature", "properties": { "gml_id": "points.439368", "lowerCorner": "47.761577 -121.818875", "upperCorner": "47.761577 -121.818875", "state": "WA", "county": "King", "ftr_type": "Borrow Pit", "ftr_azimut": 0, "topo_name": "Sultan", "topo_date": 1993, "topo_scale": 24000, "compiledby": "USGS", "gda_id": 5408476, "scanid": 244105, "url": "https://mrdata.usgs.gov/usmin/show-usmin.php?type=point&id=439368", "remarks": null, "ftr_name": null, "dir": null }, "geometry": { "type": "Point", "coordinates": [ 47.761577, -121.818875 ] } },
{ "type": "Feature", "properties": { "gml_id": "points.439372", "lowerCorner": "47.760315 -121.842993", "upperCorner": "47.760315 -121.842993", "state": "WA", "county": "King", "ftr_type": "Borrow Pit", "ftr_azimut": 0, "topo_name": "Sultan", "topo_date": 1993, "topo_scale": 24000, "compiledby": "USGS", "gda_id": 5408476, "scanid": 244105, "url": "https://mrdata.usgs.gov/usmin/show-usmin.php?type=point&id=439372", "remarks": null, "ftr_name": null, "dir": null }, "geometry": { "type": "Point", "coordinates": [ 47.760315, -121.842993 ] } },
{ "type": "Feature", "properties": { "gml_id": "points.439375", "lowerCorner": "47.759816 -121.850705", "upperCorner": "47.759816 -121.850705", "state": "WA", "county": "King", "ftr_type": "Borrow Pit", "ftr_azimut": 0, "topo_name": "Sultan", "topo_date": 1993, "topo_scale": 24000, "compiledby": "USGS", "gda_id": 5408476, "scanid": 244105, "url": "https://mrdata.usgs.gov/usmin/show-usmin.php?type=point&id=439375", "remarks": null, "ftr_name": null, "dir": null }, "geometry": { "type": "Point", "coordinates": [ 47.759816, -121.850705 ] } },
{ "type": "Feature", "properties": { "gml_id": "points.440365", "lowerCorner": "47.777850 -121.852847", "upperCorner": "47.777850 -121.852847", "state": "WA", "county": "Snohomish", "ftr_type": "Borrow Pit", "ftr_azimut": 0, "topo_name": "Sultan", "topo_date": 1993, "topo_scale": 24000, "compiledby": "USGS", "gda_id": 5408476, "scanid": 244105, "url": "https://mrdata.usgs.gov/usmin/show-usmin.php?type=point&id=440365", "remarks": null, "ftr_name": null, "dir": null }, "geometry": { "type": "Point", "coordinates": [ 47.77785, -121.852847 ] } },
{ "type": "Feature", "properties": { "gml_id": "points.440366", "lowerCorner": "47.808336 -121.811916", "upperCorner": "47.808336 -121.811916", "state": "WA", "county": "Snohomish", "ftr_type": "Borrow Pit", "ftr_azimut": 0, "topo_name": "Sultan", "topo_date": 1993, "topo_scale": 24000, "compiledby": "USGS", "gda_id": 5408476, "scanid": 244105, "url": "https://mrdata.usgs.gov/usmin/show-usmin.php?type=point&id=440366", "remarks": null, "ftr_name": null, "dir": null }, "geometry": { "type": "Point", "coordinates": [ 47.808336, -121.811916 ] } },
{ "type": "Feature", "properties": { "gml_id": "points.440367", "lowerCorner": "47.871032 -121.797770", "upperCorner": "47.871032 -121.797770", "state": "WA", "county": "Snohomish", "ftr_type": "Borrow Pit", "ftr_azimut": 0, "topo_name": "Sultan", "topo_date": 1993, "topo_scale": 24000, "compiledby": "USGS", "gda_id": 5408476, "scanid": 244105, "url": "https://mrdata.usgs.gov/usmin/show-usmin.php?type=point&id=440367", "remarks": null, "ftr_name": null, "dir": null }, "geometry": { "type": "Point", "coordinates": [ 47.871032, -121.79777 ] } },
{ "type": "Feature", "properties": { "gml_id": "points.440368", "lowerCorner": "47.794559 -121.866227", "upperCorner": "47.794559 -121.866227", "state": "WA", "county": "Snohomish", "ftr_type": "Borrow Pit", "ftr_azimut": 0, "topo_name": "Sultan", "topo_date": 1993, "topo_scale": 24000, "compiledby": "USGS", "gda_id": 5408476, "scanid": 244105, "url": "https://mrdata.usgs.gov/usmin/show-usmin.php?type=point&id=440368", "remarks": null, "ftr_name": null, "dir": null }, "geometry": { "type": "Point", "coordinates": [ 47.794559, -121.866227 ] } },
{ "type": "Feature", "properties": { "gml_id": "points.440369", "lowerCorner": "47.834080 -121.790725", "upperCorner": "47.834080 -121.790725", "state": "WA", "county": "Snohomish", "ftr_type": "Borrow Pit", "ftr_azimut": 0, "topo_name": "Sultan", "topo_date": 1993, "topo_scale": 24000, "compiledby": "USGS", "gda_id": 5408476, "scanid": 244105, "url": "https://mrdata.usgs.gov/usmin/show-usmin.php?type=point&id=440369", "remarks": null, "ftr_name": null, "dir": null }, "geometry": { "type": "Point", "coordinates": [ 47.83408, -121.790725 ] } },
{ "type": "Feature", "properties": { "gml_id": "points.440370", "lowerCorner": "47.792243 -121.822329", "upperCorner": "47.792243 -121.822329", "state": "WA", "county": "Snohomish", "ftr_type": "Borrow Pit", "ftr_azimut": 0, "topo_name": "Sultan", "topo_date": 1993, "topo_scale": 24000, "compiledby": "USGS", "gda_id": 5408476, "scanid": 244105, "url": "https://mrdata.usgs.gov/usmin/show-usmin.php?type=point&id=440370", "remarks": null, "ftr_name": null, "dir": null }, "geometry": { "type": "Point", "coordinates": [ 47.792243, -121.822329 ] } },
{ "type": "Feature", "properties": { "gml_id": "points.440371", "lowerCorner": "47.786049 -121.924923", "upperCorner": "47.786049 -121.924923", "state": "WA", "county": "Snohomish", "ftr_type": "Borrow Pit", "ftr_azimut": 0, "topo_name": "Monroe", "topo_date": 1993, "topo_scale": 24000, "compiledby": "USGS", "gda_id": 5406404, "scanid": 242376, "url": "https://mrdata.usgs.gov/usmin/show-usmin.php?type=point&id=440371", "remarks": null, "ftr_name": null, "dir": null }, "geometry": { "type": "Point", "coordinates": [ 47.786049, -121.924923 ] } },
{ "type": "Feature", "properties": { "gml_id": "points.440372", "lowerCorner": "47.837174 -121.921396", "upperCorner": "47.837174 -121.921396", "state": "WA", "county": "Snohomish", "ftr_type": "Borrow Pit", "ftr_azimut": 0, "topo_name": "Monroe", "topo_date": 1993, "topo_scale": 24000, "compiledby": "USGS", "gda_id": 5406404, "scanid": 242376, "url": "https://mrdata.usgs.gov/usmin/show-usmin.php?type=point&id=440372", "remarks": null, "ftr_name": null, "dir": null }, "geometry": { "type": "Point", "coordinates": [ 47.837174, -121.921396 ] } },
{ "type": "Feature", "properties": { "gml_id": "points.442788", "lowerCorner": "47.814011 -121.864904", "upperCorner": "47.814011 -121.864904", "state": "WA", "county": "Snohomish", "ftr_type": "Gravel Pit", "ftr_azimut": 0, "topo_name": "Sultan", "topo_date": 1993, "topo_scale": 24000, "compiledby": "USGS", "gda_id": 5408476, "scanid": 244105, "url": "https://mrdata.usgs.gov/usmin/show-usmin.php?type=point&id=442788", "remarks": null, "ftr_name": null, "dir": null }, "geometry": { "type": "Point", "coordinates": [ 47.814011, -121.864904 ] } },
{ "type": "Feature", "properties": { "gml_id": "points.442790", "lowerCorner": "47.859221 -121.816202", "upperCorner": "47.859221 -121.816202", "state": "WA", "county": "Snohomish", "ftr_type": "Gravel Pit", "ftr_azimut": 0, "topo_name": "Sultan", "topo_date": 1993, "topo_scale": 24000, "compiledby": "USGS", "gda_id": 5408476, "scanid": 244105, "url": "https://mrdata.usgs.gov/usmin/show-usmin.php?type=point&id=442790", "remarks": null, "ftr_name": null, "dir": null }, "geometry": { "type": "Point", "coordinates": [ 47.859221, -121.816202 ] } },
{ "type": "Feature", "properties": { "gml_id": "points.442792", "lowerCorner": "47.814948 -121.865658", "upperCorner": "47.814948 -121.865658", "state": "WA", "county": "Snohomish", "ftr_type": "Gravel Pit", "ftr_azimut": 0, "topo_name": "Sultan", "topo_date": 1993, "topo_scale": 24000, "compiledby": "USGS", "gda_id": 5408476, "scanid": 244105, "url": "https://mrdata.usgs.gov/usmin/show-usmin.php?type=point&id=442792", "remarks": null, "ftr_name": null, "dir": null }, "geometry": { "type": "Point", "coordinates": [ 47.814948, -121.865658 ] } },
{ "type": "Feature", "properties": { "gml_id": "points.442892", "lowerCorner": "47.820487 -121.945750", "upperCorner": "47.820487 -121.945750", "state": "WA", "county": "Snohomish", "ftr_type": "Gravel Pit", "ftr_azimut": 0, "topo_name": "Monroe", "topo_date": 1993, "topo_scale": 24000, "compiledby": "USGS", "gda_id": 5406404, "scanid": 242376, "url": "https://mrdata.usgs.gov/usmin/show-usmin.php?type=point&id=442892", "remarks": null, "ftr_name": null, "dir": null }, "geometry": { "type": "Point", "coordinates": [ 47.820487, -121.94575 ] } },
{ "type": "Feature", "properties": { "gml_id": "points.446138", "lowerCorner": "47.895684 -121.866503", "upperCorner": "47.895684 -121.866503", "state": "WA", "county": "Snohomish", "ftr_type": "Quarry", "ftr_azimut": 0, "topo_name": "Lake Chaplain", "topo_date": 1989, "topo_scale": 24000, "compiledby": "USGS", "gda_id": 5405184, "scanid": 241853, "url": "https://mrdata.usgs.gov/usmin/show-usmin.php?type=point&id=446138", "remarks": null, "ftr_name": null, "dir": null }, "geometry": { "type": "Point", "coordinates": [ 47.895684, -121.866503 ] } },
{ "type": "Feature", "properties": { "gml_id": "points.562866", "lowerCorner": "47.885770 -121.807785", "upperCorner": "47.885770 -121.807785", "state": "WA", "county": "Snohomish", "ftr_type": "Gravel Pit", "ftr_azimut": 0, "topo_name": "Monroe", "topo_date": 1956, "topo_scale": 62500, "compiledby": "USGS", "gda_id": 5410222, "scanid": 242372, "url": "https://mrdata.usgs.gov/usmin/show-usmin.php?type=point&id=562866", "remarks": "Symbolized as Open Pit Mine or Quarry, but labeled Gravel Pit.", "ftr_name": null, "dir": null }, "geometry": { "type": "Point", "coordinates": [ 47.88577, -121.807785 ] } },
{ "type": "Feature", "properties": { "gml_id": "points.442782", "lowerCorner": "47.898094 -121.324476", "upperCorner": "47.898094 -121.324476", "state": "WA", "county": "Snohomish", "ftr_type": "Gravel Pit", "ftr_azimut": 0, "topo_name": "Blanca Lake", "topo_date": 1965, "topo_scale": 24000, "compiledby": "USGS", "gda_id": 5402806, "scanid": 240108, "url": "https://mrdata.usgs.gov/usmin/show-usmin.php?type=point&id=442782", "remarks": null, "ftr_name": null, "dir": null }, "geometry": { "type": "Point", "coordinates": [ 47.898094, -121.324476 ] } },
{ "type": "Feature", "properties": { "gml_id": "points.442807", "lowerCorner": "48.092056 -121.328795", "upperCorner": "48.092056 -121.328795", "state": "WA", "county": "Snohomish", "ftr_type": "Gravel Pit", "ftr_azimut": 0, "topo_name": "Sloan Peak", "topo_date": 1966, "topo_scale": 24000, "compiledby": "USGS", "gda_id": 5408068, "scanid": 243788, "url": "https://mrdata.usgs.gov/usmin/show-usmin.php?type=point&id=442807", "remarks": null, "ftr_name": null, "dir": null }, "geometry": { "type": "Point", "coordinates": [ 48.092056, -121.328795 ] } },
{ "type": "Feature", "properties": { "gml_id": "points.442835", "lowerCorner": "48.097122 -121.355827", "upperCorner": "48.097122 -121.355827", "state": "WA", "county": "Snohomish", "ftr_type": "Gravel Pit", "ftr_azimut": 0, "topo_name": "Sloan Peak", "topo_date": 1966, "topo_scale": 24000, "compiledby": "USGS", "gda_id": 5408068, "scanid": 243788, "url": "https://mrdata.usgs.gov/usmin/show-usmin.php?type=point&id=442835", "remarks": null, "ftr_name": null, "dir": null }, "geometry": { "type": "Point", "coordinates": [ 48.097122, -121.355827 ] } },
{ "type": "Feature", "properties": { "gml_id": "points.445849", "lowerCorner": "47.776631 -121.485934", "upperCorner": "47.776631 -121.485934", "state": "WA", "county": "King", "ftr_type": "Quarry", "ftr_azimut": 0, "topo_name": "Baring", "topo_date": 1965, "topo_scale": 24000, "compiledby": "USGS", "gda_id": 5402580, "scanid": 239939, "url": "https://mrdata.usgs.gov/usmin/show-usmin.php?type=point&id=445849", "remarks": null, "ftr_name": null, "dir": null }, "geometry": { "type": "Point", "coordinates": [ 47.776631, -121.485934 ] } },
{ "type": "Feature", "properties": { "gml_id": "points.437649", "lowerCorner": "47.984064 -121.382612", "upperCorner": "47.984064 -121.382612", "state": "WA", "county": "Snohomish", "ftr_type": "Adit", "ftr_azimut": 21, "topo_name": "Monte Cristo", "topo_date": 1965, "topo_scale": 24000, "compiledby": "USGS", "gda_id": 5406410, "scanid": 242379, "url": "https://mrdata.usgs.gov/usmin/show-usmin.php?type=point&id=437649", "remarks": null, "ftr_name": null, "dir": "n" }, "geometry": { "type": "Point", "coordinates": [ 47.984064, -121.382612 ] } },
{ "type": "Feature", "properties": { "gml_id": "points.437664", "lowerCorner": "47.857121 -121.463711", "upperCorner": "47.857121 -121.463711", "state": "WA", "county": "Snohomish", "ftr_type": "Adit", "ftr_azimut": 27, "topo_name": "Baring", "topo_date": 1965, "topo_scale": 24000, "compiledby": "USGS", "gda_id": 5402580, "scanid": 239939, "url": "https://mrdata.usgs.gov/usmin/show-usmin.php?type=point&id=437664", "remarks": null, "ftr_name": "Sunset Mine", "dir": "ne" }, "geometry": { "type": "Point", "coordinates": [ 47.857121, -121.463711 ] } },
{ "type": "Feature", "properties": { "gml_id": "points.437645", "lowerCorner": "47.982175 -121.390059", "upperCorner": "47.982175 -121.390059", "state": "WA", "county": "Snohomish", "ftr_type": "Adit", "ftr_azimut": 69, "topo_name": "Monte Cristo", "topo_date": 1965, "topo_scale": 24000, "compiledby": "USGS", "gda_id": 5406410, "scanid": 242379, "url": "https://mrdata.usgs.gov/usmin/show-usmin.php?type=point&id=437645", "remarks": null, "ftr_name": null, "dir": "e" }, "geometry": { "type": "Point", "coordinates": [ 47.982175, -121.390059 ] } },
{ "type": "Feature", "properties": { "gml_id": "points.437647", "lowerCorner": "47.981192 -121.369795", "upperCorner": "47.981192 -121.369795", "state": "WA", "county": "Snohomish", "ftr_type": "Adit", "ftr_azimut": 92, "topo_name": "Blanca Lake", "topo_date": 1965, "topo_scale": 24000, "compiledby": "USGS", "gda_id": 5402806, "scanid": 240108, "url": "https://mrdata.usgs.gov/usmin/show-usmin.php?type=point&id=437647", "remarks": null, "ftr_name": "Mine", "dir": "e" }, "geometry": { "type": "Point", "coordinates": [ 47.981192, -121.369795 ] } },
{ "type": "Feature", "properties": { "gml_id": "points.437657", "lowerCorner": "47.980712 -121.369496", "upperCorner": "47.980712 -121.369496", "state": "WA", "county": "Snohomish", "ftr_type": "Adit", "ftr_azimut": 89, "topo_name": "Blanca Lake", "topo_date": 1965, "topo_scale": 24000, "compiledby": "USGS", "gda_id": 5402806, "scanid": 240108, "url": "https://mrdata.usgs.gov/usmin/show-usmin.php?type=point&id=437657", "remarks": null, "ftr_name": "Mine", "dir": "e" }, "geometry": { "type": "Point", "coordinates": [ 47.980712, -121.369496 ] } },
{ "type": "Feature", "properties": { "gml_id": "points.437661", "lowerCorner": "47.976727 -121.384958", "upperCorner": "47.976727 -121.384958", "state": "WA", "county": "Snohomish", "ftr_type": "Adit", "ftr_azimut": 74, "topo_name": "Monte Cristo", "topo_date": 1965, "topo_scale": 24000, "compiledby": "USGS", "gda_id": 5406410, "scanid": 242379, "url": "https://mrdata.usgs.gov/usmin/show-usmin.php?type=point&id=437661", "remarks": null, "ftr_name": null, "dir": "e" }, "geometry": { "type": "Point", "coordinates": [ 47.976727, -121.384958 ] } },
{ "type": "Feature", "properties": { "gml_id": "points.437651", "lowerCorner": "47.981842 -121.375989", "upperCorner": "47.981842 -121.375989", "state": "WA", "county": "Snohomish", "ftr_type": "Adit", "ftr_azimut": 153, "topo_name": "Blanca Lake", "topo_date": 1965, "topo_scale": 24000, "compiledby": "USGS", "gda_id": 5402806, "scanid": 240108, "url": "https://mrdata.usgs.gov/usmin/show-usmin.php?type=point&id=437651", "remarks": null, "ftr_name": "Mine", "dir": "se" }, "geometry": { "type": "Point", "coordinates": [ 47.981842, -121.375989 ] } },
{ "type": "Feature", "properties": { "gml_id": "points.437665", "lowerCorner": "47.981944 -121.374900", "upperCorner": "47.981944 -121.374900", "state": "WA", "county": "Snohomish", "ftr_type": "Adit", "ftr_azimut": 150, "topo_name": "Blanca Lake", "topo_date": 1965, "topo_scale": 24000, "compiledby": "USGS", "gda_id": 5402806, "scanid": 240108, "url": "https://mrdata.usgs.gov/usmin/show-usmin.php?type=point&id=437665", "remarks": null, "ftr_name": "Mine", "dir": "se" }, "geometry": { "type": "Point", "coordinates": [ 47.981944, -121.3749 ] } },
{ "type": "Feature", "properties": { "gml_id": "points.437650", "lowerCorner": "47.980973 -121.388668", "upperCorner": "47.980973 -121.388668", "state": "WA", "county": "Snohomish", "ftr_type": "Adit", "ftr_azimut": 216, "topo_name": "Monte Cristo", "topo_date": 1965, "topo_scale": 24000, "compiledby": "USGS", "gda_id": 5406410, "scanid": 242379, "url": "https://mrdata.usgs.gov/usmin/show-usmin.php?type=point&id=437650", "remarks": null, "ftr_name": null, "dir": "sw" }, "geometry": { "type": "Point", "coordinates": [ 47.980973, -121.388668 ] } },
{ "type": "Feature", "properties": { "gml_id": "points.437660", "lowerCorner": "47.984377 -121.395984", "upperCorner": "47.984377 -121.395984", "state": "WA", "county": "Snohomish", "ftr_type": "Adit", "ftr_azimut": 241, "topo_name": "Monte Cristo", "topo_date": 1965, "topo_scale": 24000, "compiledby": "USGS", "gda_id": 5406410, "scanid": 242379, "url": "https://mrdata.usgs.gov/usmin/show-usmin.php?type=point&id=437660", "remarks": null, "ftr_name": null, "dir": "sw" }, "geometry": { "type": "Point", "coordinates": [ 47.984377, -121.395984 ] } },
{ "type": "Feature", "properties": { "gml_id": "points.437642", "lowerCorner": "47.979759 -121.365061", "upperCorner": "47.979759 -121.365061", "state": "WA", "county": "Snohomish", "ftr_type": "Adit", "ftr_azimut": 277, "topo_name": "Blanca Lake", "topo_date": 1965, "topo_scale": 24000, "compiledby": "USGS", "gda_id": 5402806, "scanid": 240108, "url": "https://mrdata.usgs.gov/usmin/show-usmin.php?type=point&id=437642", "remarks": null, "ftr_name": "Mine", "dir": "w" }, "geometry": { "type": "Point", "coordinates": [ 47.979759, -121.365061 ] } },
{ "type": "Feature", "properties": { "gml_id": "points.437654", "lowerCorner": "47.917398 -121.439615", "upperCorner": "47.917398 -121.439615", "state": "WA", "county": "Snohomish", "ftr_type": "Adit", "ftr_azimut": 289, "topo_name": "Monte Cristo", "topo_date": 1965, "topo_scale": 24000, "compiledby": "USGS", "gda_id": 5406410, "scanid": 242379, "url": "https://mrdata.usgs.gov/usmin/show-usmin.php?type=point&id=437654", "remarks": null, "ftr_name": null, "dir": "w" }, "geometry": { "type": "Point", "coordinates": [ 47.917398, -121.439615 ] } },
{ "type": "Feature", "properties": { "gml_id": "points.437663", "lowerCorner": "47.962119 -121.419625", "upperCorner": "47.962119 -121.419625", "state": "WA", "county": "Snohomish", "ftr_type": "Adit", "ftr_azimut": 305, "topo_name": "Monte Cristo", "topo_date": 1965, "topo_scale": 24000, "compiledby": "USGS", "gda_id": 5406410, "scanid": 242379, "url": "https://mrdata.usgs.gov/usmin/show-usmin.php?type=point&id=437663", "remarks": null, "ftr_name": null, "dir": "nw" }, "geometry": { "type": "Point", "coordinates": [ 47.962119, -121.419625 ] } },
{ "type": "Feature", "properties": { "gml_id": "points.445244", "lowerCorner": "47.792719 -121.572212", "upperCorner": "47.792719 -121.572212", "state": "WA", "county": "Snohomish", "ftr_type": "Prospect Pit", "ftr_azimut": 0, "topo_name": "Index", "topo_date": 1989, "topo_scale": 24000, "compiledby": "USGS", "gda_id": 5404890, "scanid": 241660, "url": "https://mrdata.usgs.gov/usmin/show-usmin.php?type=point&id=445244", "remarks": null, "ftr_name": null, "dir": null }, "geometry": { "type": "Point", "coordinates": [ 47.792719, -121.572212 ] } },
{ "type": "Feature", "properties": { "gml_id": "points.445247", "lowerCorner": "47.848641 -121.612623", "upperCorner": "47.848641 -121.612623", "state": "WA", "county": "Snohomish", "ftr_type": "Prospect Pit", "ftr_azimut": 0, "topo_name": "Index", "topo_date": 1989, "topo_scale": 24000, "compiledby": "USGS", "gda_id": 5404890, "scanid": 241660, "url": "https://mrdata.usgs.gov/usmin/show-usmin.php?type=point&id=445247", "remarks": null, "ftr_name": null, "dir": null }, "geometry": { "type": "Point", "coordinates": [ 47.848641, -121.612623 ] } },
{ "type": "Feature", "properties": { "gml_id": "points.445823", "lowerCorner": "47.757399 -121.602961", "upperCorner": "47.757399 -121.602961", "state": "WA", "county": "King", "ftr_type": "Quarry", "ftr_azimut": 0, "topo_name": "Index", "topo_date": 1989, "topo_scale": 24000, "compiledby": "USGS", "gda_id": 5404890, "scanid": 241660, "url": "https://mrdata.usgs.gov/usmin/show-usmin.php?type=point&id=445823", "remarks": null, "ftr_name": null, "dir": null }, "geometry": { "type": "Point", "coordinates": [ 47.757399, -121.602961 ] } },
{ "type": "Feature", "properties": { "gml_id": "points.445830", "lowerCorner": "47.756749 -121.655510", "upperCorner": "47.756749 -121.655510", "state": "WA", "county": "King", "ftr_type": "Quarry", "ftr_azimut": 0, "topo_name": "Gold Bar", "topo_date": 1989, "topo_scale": 24000, "compiledby": "USGS", "gda_id": 5404500, "scanid": 241341, "url": "https://mrdata.usgs.gov/usmin/show-usmin.php?type=point&id=445830", "remarks": null, "ftr_name": null, "dir": null }, "geometry": { "type": "Point", "coordinates": [ 47.756749, -121.65551 ] } },
{ "type": "Feature", "properties": { "gml_id": "points.446135", "lowerCorner": "47.826966 -121.650944", "upperCorner": "47.826966 -121.650944", "state": "WA", "county": "Snohomish", "ftr_type": "Quarry", "ftr_azimut": 0, "topo_name": "Gold Bar", "topo_date": 1989, "topo_scale": 24000, "compiledby": "USGS", "gda_id": 5404500, "scanid": 241341, "url": "https://mrdata.usgs.gov/usmin/show-usmin.php?type=point&id=446135", "remarks": null, "ftr_name": null, "dir": null }, "geometry": { "type": "Point", "coordinates": [ 47.826966, -121.650944 ] } },
{ "type": "Feature", "properties": { "gml_id": "points.446140", "lowerCorner": "47.830068 -121.647358", "upperCorner": "47.830068 -121.647358", "state": "WA", "county": "Snohomish", "ftr_type": "Quarry", "ftr_azimut": 0, "topo_name": "Gold Bar", "topo_date": 1989, "topo_scale": 24000, "compiledby": "USGS", "gda_id": 5404500, "scanid": 241341, "url": "https://mrdata.usgs.gov/usmin/show-usmin.php?type=point&id=446140", "remarks": null, "ftr_name": null, "dir": null }, "geometry": { "type": "Point", "coordinates": [ 47.830068, -121.647358 ] } },
{ "type": "Feature", "properties": { "gml_id": "points.446143", "lowerCorner": "47.823255 -121.649654", "upperCorner": "47.823255 -121.649654", "state": "WA", "county": "Snohomish", "ftr_type": "Quarry", "ftr_azimut": 0, "topo_name": "Gold Bar", "topo_date": 1989, "topo_scale": 24000, "compiledby": "USGS", "gda_id": 5404500, "scanid": 241341, "url": "https://mrdata.usgs.gov/usmin/show-usmin.php?type=point&id=446143", "remarks": null, "ftr_name": null, "dir": null }, "geometry": { "type": "Point", "coordinates": [ 47.823255, -121.649654 ] } },
{ "type": "Feature", "properties": { "gml_id": "points.446145", "lowerCorner": "47.809461 -121.573532", "upperCorner": "47.809461 -121.573532", "state": "WA", "county": "Snohomish", "ftr_type": "Quarry", "ftr_azimut": 0, "topo_name": "Index", "topo_date": 1989, "topo_scale": 24000, "compiledby": "USGS", "gda_id": 5404890, "scanid": 241660, "url": "https://mrdata.usgs.gov/usmin/show-usmin.php?type=point&id=446145", "remarks": null, "ftr_name": null, "dir": null }, "geometry": { "type": "Point", "coordinates": [ 47.809461, -121.573532 ] } },
{ "type": "Feature", "properties": { "gml_id": "points.446148", "lowerCorner": "47.824123 -121.649535", "upperCorner": "47.824123 -121.649535", "state": "WA", "county": "Snohomish", "ftr_type": "Quarry", "ftr_azimut": 0, "topo_name": "Gold Bar", "topo_date": 1989, "topo_scale": 24000, "compiledby": "USGS", "gda_id": 5404500, "scanid": 241341, "url": "https://mrdata.usgs.gov/usmin/show-usmin.php?type=point&id=446148", "remarks": null, "ftr_name": null, "dir": null }, "geometry": { "type": "Point", "coordinates": [ 47.824123, -121.649535 ] } },
{ "type": "Feature", "properties": { "gml_id": "points.446156", "lowerCorner": "47.830056 -121.635048", "upperCorner": "47.830056 -121.635048", "state": "WA", "county": "Snohomish", "ftr_type": "Quarry", "ftr_azimut": 0, "topo_name": "Gold Bar", "topo_date": 1989, "topo_scale": 24000, "compiledby": "USGS", "gda_id": 5404500, "scanid": 241341, "url": "https://mrdata.usgs.gov/usmin/show-usmin.php?type=point&id=446156", "remarks": null, "ftr_name": null, "dir": null }, "geometry": { "type": "Point", "coordinates": [ 47.830056, -121.635048 ] } },
{ "type": "Feature", "properties": { "gml_id": "points.446164", "lowerCorner": "47.924031 -121.717994", "upperCorner": "47.924031 -121.717994", "state": "WA", "county": "Snohomish", "ftr_type": "Quarry", "ftr_azimut": 0, "topo_name": "Wallace Lake", "topo_date": 1989, "topo_scale": 24000, "compiledby": "USGS", "gda_id": 5409028, "scanid": 244517, "url": "https://mrdata.usgs.gov/usmin/show-usmin.php?type=point&id=446164", "remarks": null, "ftr_name": null, "dir": null }, "geometry": { "type": "Point", "coordinates": [ 47.924031, -121.717994 ] } },
{ "type": "Feature", "properties": { "gml_id": "points.446168", "lowerCorner": "47.840986 -121.629333", "upperCorner": "47.840986 -121.629333", "state": "WA", "county": "Snohomish", "ftr_type": "Quarry", "ftr_azimut": 0, "topo_name": "Gold Bar", "topo_date": 1989, "topo_scale": 24000, "compiledby": "USGS", "gda_id": 5404500, "scanid": 241341, "url": "https://mrdata.usgs.gov/usmin/show-usmin.php?type=point&id=446168", "remarks": null, "ftr_name": null, "dir": null }, "geometry": { "type": "Point", "coordinates": [ 47.840986, -121.629333 ] } },
{ "type": "Feature", "properties": { "gml_id": "points.562850", "lowerCorner": "47.844257 -121.630531", "upperCorner": "47.844257 -121.630531", "state": "WA", "county": "Snohomish", "ftr_type": "Gravel Pit", "ftr_azimut": 0, "topo_name": "Index", "topo_date": 1957, "topo_scale": 62500, "compiledby": "USGS", "gda_id": 5410004, "scanid": 241654, "url": "https://mrdata.usgs.gov/usmin/show-usmin.php?type=point&id=562850", "remarks": "Symbolized as Open Pit Mine or Quarry, but labeled Gravel Pit.", "ftr_name": null, "dir": null }, "geometry": { "type": "Point", "coordinates": [ 47.844257, -121.630531 ] } },
{ "type": "Feature", "properties": { "gml_id": "points.563194", "lowerCorner": "47.887641 -121.712391", "upperCorner": "47.887641 -121.712391", "state": "WA", "county": "Snohomish", "ftr_type": "Open Pit Mine or Quarry", "ftr_azimut": 0, "topo_name": "Index", "topo_date": 1957, "topo_scale": 62500, "compiledby": "USGS", "gda_id": 5410004, "scanid": 241654, "url": "https://mrdata.usgs.gov/usmin/show-usmin.php?type=point&id=563194", "remarks": null, "ftr_name": null, "dir": null }, "geometry": { "type": "Point", "coordinates": [ 47.887641, -121.712391 ] } },
{ "type": "Feature", "properties": { "gml_id": "points.563558", "lowerCorner": "47.835897 -121.626171", "upperCorner": "47.835897 -121.626171", "state": "WA", "county": "Snohomish", "ftr_type": "Quarry", "ftr_azimut": 0, "topo_name": "Index", "topo_date": 1957, "topo_scale": 62500, "compiledby": "USGS", "gda_id": 5410004, "scanid": 241654, "url": "https://mrdata.usgs.gov/usmin/show-usmin.php?type=point&id=563558", "remarks": null, "ftr_name": null, "dir": null }, "geometry": { "type": "Point", "coordinates": [ 47.835897, -121.626171 ] } },
{ "type": "Feature", "properties": { "gml_id": "points.563560", "lowerCorner": "47.818657 -121.569967", "upperCorner": "47.818657 -121.569967", "state": "WA", "county": "Snohomish", "ftr_type": "Quarry", "ftr_azimut": 0, "topo_name": "Index", "topo_date": 1957, "topo_scale": 62500, "compiledby": "USGS", "gda_id": 5410004, "scanid": 241654, "url": "https://mrdata.usgs.gov/usmin/show-usmin.php?type=point&id=563560", "remarks": null, "ftr_name": null, "dir": null }, "geometry": { "type": "Point", "coordinates": [ 47.818657, -121.569967 ] } },
{ "type": "Feature", "properties": { "gml_id": "points.563561", "lowerCorner": "47.826317 -121.651253", "upperCorner": "47.826317 -121.651253", "state": "WA", "county": "Snohomish", "ftr_type": "Quarry", "ftr_azimut": 0, "topo_name": "Index", "topo_date": 1957, "topo_scale": 62500, "compiledby": "USGS", "gda_id": 5410004, "scanid": 241654, "url": "https://mrdata.usgs.gov/usmin/show-usmin.php?type=point&id=563561", "remarks": null, "ftr_name": null, "dir": null }, "geometry": { "type": "Point", "coordinates": [ 47.826317, -121.651253 ] } },
{ "type": "Feature", "properties": { "gml_id": "points.562235", "lowerCorner": "47.848270 -121.613241", "upperCorner": "47.848270 -121.613241", "state": "WA", "county": "Snohomish", "ftr_type": "Adit", "ftr_azimut": 18, "topo_name": "Index", "topo_date": 1957, "topo_scale": 62500, "compiledby": "USGS", "gda_id": 5410004, "scanid": 241654, "url": "https://mrdata.usgs.gov/usmin/show-usmin.php?type=point&id=562235", "remarks": null, "ftr_name": "Copperbell Mine", "dir": "n" }, "geometry": { "type": "Point", "coordinates": [ 47.84827, -121.613241 ] } },
{ "type": "Feature", "properties": { "gml_id": "points.437641", "lowerCorner": "47.848471 -121.614025", "upperCorner": "47.848471 -121.614025", "state": "WA", "county": "Snohomish", "ftr_type": "Adit", "ftr_azimut": 26, "topo_name": "Index", "topo_date": 1989, "topo_scale": 24000, "compiledby": "USGS", "gda_id": 5404890, "scanid": 241660, "url": "https://mrdata.usgs.gov/usmin/show-usmin.php?type=point&id=437641", "remarks": null, "ftr_name": "Mine", "dir": "ne" }, "geometry": { "type": "Point", "coordinates": [ 47.848471, -121.614025 ] } },
{ "type": "Feature", "properties": { "gml_id": "points.437655", "lowerCorner": "47.915944 -121.593887", "upperCorner": "47.915944 -121.593887", "state": "WA", "county": "Snohomish", "ftr_type": "Adit", "ftr_azimut": 66, "topo_name": "Mount Stickney", "topo_date": 1989, "topo_scale": 24000, "compiledby": "USGS", "gda_id": 5406634, "scanid": 242555, "url": "https://mrdata.usgs.gov/usmin/show-usmin.php?type=point&id=437655", "remarks": null, "ftr_name": "Kromona Mine", "dir": "ne" }, "geometry": { "type": "Point", "coordinates": [ 47.915944, -121.593887 ] } },
{ "type": "Feature", "properties": { "gml_id": "points.437666", "lowerCorner": "47.849089 -121.615503", "upperCorner": "47.849089 -121.615503", "state": "WA", "county": "Snohomish", "ftr_type": "Adit", "ftr_azimut": 42, "topo_name": "Index", "topo_date": 1989, "topo_scale": 24000, "compiledby": "USGS", "gda_id": 5404890, "scanid": 241660, "url": "https://mrdata.usgs.gov/usmin/show-usmin.php?type=point&id=437666", "remarks": null, "ftr_name": "Mine", "dir": "ne" }, "geometry": { "type": "Point", "coordinates": [ 47.849089, -121.615503 ] } },
{ "type": "Feature", "properties": { "gml_id": "points.562236", "lowerCorner": "47.916045 -121.593887", "upperCorner": "47.916045 -121.593887", "state": "WA", "county": "Snohomish", "ftr_type": "Adit", "ftr_azimut": 69, "topo_name": "Index", "topo_date": 1957, "topo_scale": 62500, "compiledby": "USGS", "gda_id": 5410004, "scanid": 241654, "url": "https://mrdata.usgs.gov/usmin/show-usmin.php?type=point&id=562236", "remarks": null, "ftr_name": "Kromona Mine", "dir": "e" }, "geometry": { "type": "Point", "coordinates": [ 47.916045, -121.593887 ] } },
{ "type": "Feature", "properties": { "gml_id": "points.562240", "lowerCorner": "47.790972 -121.569820", "upperCorner": "47.790972 -121.569820", "state": "WA", "county": "Snohomish", "ftr_type": "Adit", "ftr_azimut": 147, "topo_name": "Index", "topo_date": 1957, "topo_scale": 62500, "compiledby": "USGS", "gda_id": 5410004, "scanid": 241654, "url": "https://mrdata.usgs.gov/usmin/show-usmin.php?type=point&id=562240", "remarks": null, "ftr_name": "Honeymoon Mine", "dir": "se" }, "geometry": { "type": "Point", "coordinates": [ 47.790972, -121.56982 ] } },
{ "type": "Feature", "properties": { "gml_id": "points.437656", "lowerCorner": "47.790164 -121.569994", "upperCorner": "47.790164 -121.569994", "state": "WA", "county": "Snohomish", "ftr_type": "Adit", "ftr_azimut": 192, "topo_name": "Index", "topo_date": 1989, "topo_scale": 24000, "compiledby": "USGS", "gda_id": 5404890, "scanid": 241660, "url": "https://mrdata.usgs.gov/usmin/show-usmin.php?type=point&id=437656", "remarks": null, "ftr_name": "Mine", "dir": "s" }, "geometry": { "type": "Point", "coordinates": [ 47.790164, -121.569994 ] } },
{ "type": "Feature", "properties": { "gml_id": "points.562241", "lowerCorner": "47.793283 -121.572287", "upperCorner": "47.793283 -121.572287", "state": "WA", "county": "Snohomish", "ftr_type": "Adit", "ftr_azimut": 217, "topo_name": "Index", "topo_date": 1957, "topo_scale": 62500, "compiledby": "USGS", "gda_id": 5410004, "scanid": 241654, "url": "https://mrdata.usgs.gov/usmin/show-usmin.php?type=point&id=562241", "remarks": null, "ftr_name": null, "dir": "sw" }, "geometry": { "type": "Point", "coordinates": [ 47.793283, -121.572287 ] } },
{ "type": "Feature", "properties": { "gml_id": "points.437646", "lowerCorner": "47.819617 -121.569035", "upperCorner": "47.819617 -121.569035", "state": "WA", "county": "Snohomish", "ftr_type": "Adit", "ftr_azimut": 324, "topo_name": "Index", "topo_date": 1989, "topo_scale": 24000, "compiledby": "USGS", "gda_id": 5404890, "scanid": 241660, "url": "https://mrdata.usgs.gov/usmin/show-usmin.php?type=point&id=437646", "remarks": null, "ftr_name": "Mine", "dir": "nw" }, "geometry": { "type": "Point", "coordinates": [ 47.819617, -121.569035 ] } },
{ "type": "Feature", "properties": { "gml_id": "points.446128", "lowerCorner": "47.973970 -121.594596", "upperCorner": "47.973970 -121.594596", "state": "WA", "county": "Snohomish", "ftr_type": "Quarry", "ftr_azimut": 0, "topo_name": "Mount Stickney", "topo_date": 1989, "topo_scale": 24000, "compiledby": "USGS", "gda_id": 5406634, "scanid": 242555, "url": "https://mrdata.usgs.gov/usmin/show-usmin.php?type=point&id=446128", "remarks": null, "ftr_name": null, "dir": null }, "geometry": { "type": "Point", "coordinates": [ 47.97397, -121.594596 ] } },
{ "type": "Feature", "properties": { "gml_id": "points.446132", "lowerCorner": "48.038680 -121.686590", "upperCorner": "48.038680 -121.686590", "state": "WA", "county": "Snohomish", "ftr_type": "Quarry", "ftr_azimut": 0, "topo_name": "Mallardy Ridge", "topo_date": 1989, "topo_scale": 24000, "compiledby": "USGS", "gda_id": 5405564, "scanid": 242144, "url": "https://mrdata.usgs.gov/usmin/show-usmin.php?type=point&id=446132", "remarks": null, "ftr_name": null, "dir": null }, "geometry": { "type": "Point", "coordinates": [ 48.03868, -121.68659 ] } },
{ "type": "Feature", "properties": { "gml_id": "points.446137", "lowerCorner": "48.090118 -121.524714", "upperCorner": "48.090118 -121.524714", "state": "WA", "county": "Snohomish", "ftr_type": "Quarry", "ftr_azimut": 0, "topo_name": "Silverton", "topo_date": 1989, "topo_scale": 24000, "compiledby": "USGS", "gda_id": 5407988, "scanid": 243727, "url": "https://mrdata.usgs.gov/usmin/show-usmin.php?type=point&id=446137", "remarks": null, "ftr_name": null, "dir": null }, "geometry": { "type": "Point", "coordinates": [ 48.090118, -121.524714 ] } },
{ "type": "Feature", "properties": { "gml_id": "points.446139", "lowerCorner": "48.052620 -121.689471", "upperCorner": "48.052620 -121.689471", "state": "WA", "county": "Snohomish", "ftr_type": "Quarry", "ftr_azimut": 0, "topo_name": "Mallardy Ridge", "topo_date": 1989, "topo_scale": 24000, "compiledby": "USGS", "gda_id": 5405564, "scanid": 242144, "url": "https://mrdata.usgs.gov/usmin/show-usmin.php?type=point&id=446139", "remarks": null, "ftr_name": null, "dir": null }, "geometry": { "type": "Point", "coordinates": [ 48.05262, -121.689471 ] } },
{ "type": "Feature", "properties": { "gml_id": "points.446142", "lowerCorner": "47.989055 -121.676638", "upperCorner": "47.989055 -121.676638", "state": "WA", "county": "Snohomish", "ftr_type": "Quarry", "ftr_azimut": 0, "topo_name": "Wallace Lake", "topo_date": 1989, "topo_scale": 24000, "compiledby": "USGS", "gda_id": 5409028, "scanid": 244517, "url": "https://mrdata.usgs.gov/usmin/show-usmin.php?type=point&id=446142", "remarks": null, "ftr_name": null, "dir": null }, "geometry": { "type": "Point", "coordinates": [ 47.989055, -121.676638 ] } },
{ "type": "Feature", "properties": { "gml_id": "points.446146", "lowerCorner": "48.078821 -121.588839", "upperCorner": "48.078821 -121.588839", "state": "WA", "county": "Snohomish", "ftr_type": "Quarry", "ftr_azimut": 0, "topo_name": "Silverton", "topo_date": 1989, "topo_scale": 24000, "compiledby": "USGS", "gda_id": 5407988, "scanid": 243727, "url": "https://mrdata.usgs.gov/usmin/show-usmin.php?type=point&id=446146", "remarks": null, "ftr_name": null, "dir": null }, "geometry": { "type": "Point", "coordinates": [ 48.078821, -121.588839 ] } },
{ "type": "Feature", "properties": { "gml_id": "points.446149", "lowerCorner": "47.967402 -121.541394", "upperCorner": "47.967402 -121.541394", "state": "WA", "county": "Snohomish", "ftr_type": "Quarry", "ftr_azimut": 0, "topo_name": "Mount Stickney", "topo_date": 1989, "topo_scale": 24000, "compiledby": "USGS", "gda_id": 5406634, "scanid": 242555, "url": "https://mrdata.usgs.gov/usmin/show-usmin.php?type=point&id=446149", "remarks": null, "ftr_name": null, "dir": null }, "geometry": { "type": "Point", "coordinates": [ 47.967402, -121.541394 ] } },
{ "type": "Feature", "properties": { "gml_id": "points.446160", "lowerCorner": "48.053969 -121.710311", "upperCorner": "48.053969 -121.710311", "state": "WA", "county": "Snohomish", "ftr_type": "Quarry", "ftr_azimut": 0, "topo_name": "Mallardy Ridge", "topo_date": 1989, "topo_scale": 24000, "compiledby": "USGS", "gda_id": 5405564, "scanid": 242144, "url": "https://mrdata.usgs.gov/usmin/show-usmin.php?type=point&id=446160", "remarks": null, "ftr_name": null, "dir": null }, "geometry": { "type": "Point", "coordinates": [ 48.053969, -121.710311 ] } },
{ "type": "Feature", "properties": { "gml_id": "points.446161", "lowerCorner": "47.985219 -121.661250", "upperCorner": "47.985219 -121.661250", "state": "WA", "county": "Snohomish", "ftr_type": "Quarry", "ftr_azimut": 0, "topo_name": "Wallace Lake", "topo_date": 1989, "topo_scale": 24000, "compiledby": "USGS", "gda_id": 5409028, "scanid": 244517, "url": "https://mrdata.usgs.gov/usmin/show-usmin.php?type=point&id=446161", "remarks": null, "ftr_name": null, "dir": null }, "geometry": { "type": "Point", "coordinates": [ 47.985219, -121.66125 ] } },
{ "type": "Feature", "properties": { "gml_id": "points.446162", "lowerCorner": "47.968627 -121.539506", "upperCorner": "47.968627 -121.539506", "state": "WA", "county": "Snohomish", "ftr_type": "Quarry", "ftr_azimut": 0, "topo_name": "Mount Stickney", "topo_date": 1989, "topo_scale": 24000, "compiledby": "USGS", "gda_id": 5406634, "scanid": 242555, "url": "https://mrdata.usgs.gov/usmin/show-usmin.php?type=point&id=446162", "remarks": null, "ftr_name": null, "dir": null }, "geometry": { "type": "Point", "coordinates": [ 47.968627, -121.539506 ] } },
{ "type": "Feature", "properties": { "gml_id": "points.446167", "lowerCorner": "48.063080 -121.623100", "upperCorner": "48.063080 -121.623100", "state": "WA", "county": "Snohomish", "ftr_type": "Quarry", "ftr_azimut": 0, "topo_name": "Silverton", "topo_date": 1989, "topo_scale": 24000, "compiledby": "USGS", "gda_id": 5407988, "scanid": 243727, "url": "https://mrdata.usgs.gov/usmin/show-usmin.php?type=point&id=446167", "remarks": null, "ftr_name": null, "dir": null }, "geometry": { "type": "Point", "coordinates": [ 48.06308, -121.6231 ] } },
{ "type": "Feature", "properties": { "gml_id": "points.562237", "lowerCorner": "48.075314 -121.560473", "upperCorner": "48.075314 -121.560473", "state": "WA", "county": "Snohomish", "ftr_type": "Adit", "ftr_azimut": 90, "topo_name": "Silverton", "topo_date": 1957, "topo_scale": 62500, "compiledby": "USGS", "gda_id": 5410668, "scanid": 243724, "url": "https://mrdata.usgs.gov/usmin/show-usmin.php?type=point&id=562237", "remarks": null, "ftr_name": "Tunnel", "dir": "e" }, "geometry": { "type": "Point", "coordinates": [ 48.075314, -121.560473 ] } },
{ "type": "Feature", "properties": { "gml_id": "points.562234", "lowerCorner": "48.073315 -121.560126", "upperCorner": "48.073315 -121.560126", "state": "WA", "county": "Snohomish", "ftr_type": "Adit", "ftr_azimut": 116, "topo_name": "Silverton", "topo_date": 1957, "topo_scale": 62500, "compiledby": "USGS", "gda_id": 5410668, "scanid": 243724, "url": "https://mrdata.usgs.gov/usmin/show-usmin.php?type=point&id=562234", "remarks": null, "ftr_name": "Tunnel", "dir": "se" }, "geometry": { "type": "Point", "coordinates": [ 48.073315, -121.560126 ] } },
{ "type": "Feature", "properties": { "gml_id": "points.562244", "lowerCorner": "48.075587 -121.568120", "upperCorner": "48.075587 -121.568120", "state": "WA", "county": "Snohomish", "ftr_type": "Adit", "ftr_azimut": 127, "topo_name": "Silverton", "topo_date": 1957, "topo_scale": 62500, "compiledby": "USGS", "gda_id": 5410668, "scanid": 243724, "url": "https://mrdata.usgs.gov/usmin/show-usmin.php?type=point&id=562244", "remarks": null, "ftr_name": null, "dir": "se" }, "geometry": { "type": "Point", "coordinates": [ 48.075587, -121.56812 ] } },
{ "type": "Feature", "properties": { "gml_id": "points.437659", "lowerCorner": "48.075637 -121.568515", "upperCorner": "48.075637 -121.568515", "state": "WA", "county": "Snohomish", "ftr_type": "Adit", "ftr_azimut": 181, "topo_name": "Silverton", "topo_date": 1989, "topo_scale": 24000, "compiledby": "USGS", "gda_id": 5407988, "scanid": 243727, "url": "https://mrdata.usgs.gov/usmin/show-usmin.php?type=point&id=437659", "remarks": null, "ftr_name": "Tunnel", "dir": "s" }, "geometry": { "type": "Point", "coordinates": [ 48.075637, -121.568515 ] } },
{ "type": "Feature", "properties": { "gml_id": "points.437667", "lowerCorner": "48.075603 -121.568927", "upperCorner": "48.075603 -121.568927", "state": "WA", "county": "Snohomish", "ftr_type": "Adit", "ftr_azimut": 183, "topo_name": "Silverton", "topo_date": 1989, "topo_scale": 24000, "compiledby": "USGS", "gda_id": 5407988, "scanid": 243727, "url": "https://mrdata.usgs.gov/usmin/show-usmin.php?type=point&id=437667", "remarks": null, "ftr_name": "Tunnel", "dir": "s" }, "geometry": { "type": "Point", "coordinates": [ 48.075603, -121.568927 ] } },
{ "type": "Feature", "properties": { "gml_id": "points.562232", "lowerCorner": "47.962857 -121.717970", "upperCorner": "47.962857 -121.717970", "state": "WA", "county": "Snohomish", "ftr_type": "Adit", "ftr_azimut": 181, "topo_name": "Index", "topo_date": 1957, "topo_scale": 62500, "compiledby": "USGS", "gda_id": 5410004, "scanid": 241654, "url": "https://mrdata.usgs.gov/usmin/show-usmin.php?type=point&id=562232", "remarks": null, "ftr_name": "Lockwood Mine", "dir": "s" }, "geometry": { "type": "Point", "coordinates": [ 47.962857, -121.71797 ] } },
{ "type": "Feature", "properties": { "gml_id": "points.562238", "lowerCorner": "48.098879 -121.565361", "upperCorner": "48.098879 -121.565361", "state": "WA", "county": "Snohomish", "ftr_type": "Adit", "ftr_azimut": 184, "topo_name": "Silverton", "topo_date": 1957, "topo_scale": 62500, "compiledby": "USGS", "gda_id": 5410668, "scanid": 243724, "url": "https://mrdata.usgs.gov/usmin/show-usmin.php?type=point&id=562238", "remarks": null, "ftr_name": "Bonanza Queen Mine", "dir": "s" }, "geometry": { "type": "Point", "coordinates": [ 48.098879, -121.565361 ] } },
{ "type": "Feature", "properties": { "gml_id": "points.562239", "lowerCorner": "48.075550 -121.568430", "upperCorner": "48.075550 -121.568430", "state": "WA", "county": "Snohomish", "ftr_type": "Adit", "ftr_azimut": 168, "topo_name": "Silverton", "topo_date": 1957, "topo_scale": 62500, "compiledby": "USGS", "gda_id": 5410668, "scanid": 243724, "url": "https://mrdata.usgs.gov/usmin/show-usmin.php?type=point&id=562239", "remarks": null, "ftr_name": null, "dir": "s" }, "geometry": { "type": "Point", "coordinates": [ 48.07555, -121.56843 ] } },
{ "type": "Feature", "properties": { "gml_id": "points.562243", "lowerCorner": "48.098689 -121.564949", "upperCorner": "48.098689 -121.564949", "state": "WA", "county": "Snohomish", "ftr_type": "Adit", "ftr_azimut": 166, "topo_name": "Silverton", "topo_date": 1957, "topo_scale": 62500, "compiledby": "USGS", "gda_id": 5410668, "scanid": 243724, "url": "https://mrdata.usgs.gov/usmin/show-usmin.php?type=point&id=562243", "remarks": null, "ftr_name": null, "dir": "s" }, "geometry": { "type": "Point", "coordinates": [ 48.098689, -121.564949 ] } },
{ "type": "Feature", "properties": { "gml_id": "points.437643", "lowerCorner": "47.962731 -121.717619", "upperCorner": "47.962731 -121.717619", "state": "WA", "county": "Snohomish", "ftr_type": "Adit", "ftr_azimut": 231, "topo_name": "Wallace Lake", "topo_date": 1989, "topo_scale": 24000, "compiledby": "USGS", "gda_id": 5409028, "scanid": 244517, "url": "https://mrdata.usgs.gov/usmin/show-usmin.php?type=point&id=437643", "remarks": null, "ftr_name": "Lockwood Mine", "dir": "sw" }, "geometry": { "type": "Point", "coordinates": [ 47.962731, -121.717619 ] } },
{ "type": "Feature", "properties": { "gml_id": "points.437644", "lowerCorner": "48.098767 -121.564405", "upperCorner": "48.098767 -121.564405", "state": "WA", "county": "Snohomish", "ftr_type": "Adit", "ftr_azimut": 246, "topo_name": "Silverton", "topo_date": 1989, "topo_scale": 24000, "compiledby": "USGS", "gda_id": 5407988, "scanid": 243727, "url": "https://mrdata.usgs.gov/usmin/show-usmin.php?type=point&id=437644", "remarks": null, "ftr_name": "Bonanza Queen Mine", "dir": "sw" }, "geometry": { "type": "Point", "coordinates": [ 48.098767, -121.564405 ] } },
{ "type": "Feature", "properties": { "gml_id": "points.437648", "lowerCorner": "48.074528 -121.595088", "upperCorner": "48.074528 -121.595088", "state": "WA", "county": "Snohomish", "ftr_type": "Adit", "ftr_azimut": 302, "topo_name": "Silverton", "topo_date": 1989, "topo_scale": 24000, "compiledby": "USGS", "gda_id": 5407988, "scanid": 243727, "url": "https://mrdata.usgs.gov/usmin/show-usmin.php?type=point&id=437648", "remarks": null, "ftr_name": "Sperry-Iverson Mine", "dir": "nw" }, "geometry": { "type": "Point", "coordinates": [ 48.074528, -121.595088 ] } }
]
}
