{"type":"FeatureCollection","features":[{"type":"Feature","id":2,"geometry":{"type":"Point","coordinates":[-121.5439,48.0003]},"properties":{"OBJECTID":2,"SITE_ID":581,"SITE_NAME":"Mountain Cedar","ALTERNATE_NAMES":"Mystery, Paystreak","PRIMARY_COMMODITY":"Gold (Au)","COMMODITIES":"Gold","ORE_MINERALS":"Gold","GANGUE":"Quartz","LOCATION_DESCRIPTION":"","LEGAL_DESCRIPTION":"near center of sec. 17, T29N, R10E","LOCATION_ACCURACY":"coordinate accuracy highly variable","COUNTY":"Snohomish","LATITUDE":48.0003,"LONGITUDE":-121.5439,"MINING_DISTRICT":"","LOCATION_SOURCE":"USGS MAS/MILS Database ","ASSAYS":"yes","PRODUCTION":"","COMMENTS":"Assays are in Bulletin 37."}},{"type":"Feature","id":213,"geometry":{"type":"Point","coordinates":[-121.67445,47.772433]},"properties":{"OBJECTID":213,"SITE_ID":975,"SITE_NAME":"Della Jane","ALTERNATE_NAMES":"","PRIMARY_COMMODITY":"Gold (Au)","COMMODITIES":"Gold","ORE_MINERALS":"","GANGUE":"","LOCATION_DESCRIPTION":"On Profile Mtn.","LEGAL_DESCRIPTION":"sec. 5, T26N, R9E","LOCATION_ACCURACY":"coordinates estimated from legal description","COUNTY":"King","LATITUDE":47.7724327562007,"LONGITUDE":-121.67444972087,"MINING_DISTRICT":"","LOCATION_SOURCE":"Bulletin 37","ASSAYS":"","PRODUCTION":"","COMMENTS":""}},{"type":"Feature","id":256,"geometry":{"type":"Point","coordinates":[-121.5042,47.7528]},"properties":{"OBJECTID":256,"SITE_ID":1020,"SITE_NAME":"Salmon Creek","ALTERNATE_NAMES":"","PRIMARY_COMMODITY":"Gold (Au)","COMMODITIES":"Gold, silver, lead, zinc","ORE_MINERALS":"","GANGUE":"","LOCATION_DESCRIPTION":"About 1 mi S of Baring","LEGAL_DESCRIPTION":"S 1/2 of sec. 10, T26N, R10E","LOCATION_ACCURACY":"coordinate accuracy highly variable","COUNTY":"King","LATITUDE":47.7528,"LONGITUDE":-121.5042,"MINING_DISTRICT":"","LOCATION_SOURCE":"USGS MAS/MILS Database ","ASSAYS":"","PRODUCTION":"","COMMENTS":""}},{"type":"Feature","id":570,"geometry":{"type":"Point","coordinates":[-121.3848,47.9751]},"properties":{"OBJECTID":570,"SITE_ID":1402,"SITE_NAME":"Ajax","ALTERNATE_NAMES":"","PRIMARY_COMMODITY":"Gold (Au)","COMMODITIES":"Gold, silver","ORE_MINERALS":"","GANGUE":"","LOCATION_DESCRIPTION":"At the headwaters of Glacier Creek","LEGAL_DESCRIPTION":"sec. 26, T29N, R11E","LOCATION_ACCURACY":"USGS 7.5-minute topographic map","COUNTY":"Snohomish","LATITUDE":47.9751,"LONGITUDE":-121.3848,"MINING_DISTRICT":"","LOCATION_SOURCE":"USGS 7.5-minute topographic map","ASSAYS":"","PRODUCTION":"","COMMENTS":""}},{"type":"Feature","id":571,"geometry":{"type":"Point","coordinates":[-121.5528,47.7917]},"properties":{"OBJECTID":571,"SITE_ID":1403,"SITE_NAME":"Alpha","ALTERNATE_NAMES":"","PRIMARY_COMMODITY":"Gold (Au)","COMMODITIES":"Gold, copper","ORE_MINERALS":"","GANGUE":"","LOCATION_DESCRIPTION":"2 mi S of Index","LEGAL_DESCRIPTION":"","LOCATION_ACCURACY":"coordinate accuracy highly variable","COUNTY":"Snohomish","LATITUDE":47.7917,"LONGITUDE":-121.5528,"MINING_DISTRICT":"","LOCATION_SOURCE":"USGS MAS/MILS Database ","ASSAYS":"","PRODUCTION":"","COMMENTS":""}},{"type":"Feature","id":573,"geometry":{"type":"Point","coordinates":[-121.45,47.8944]},"properties":{"OBJECTID":573,"SITE_ID":1405,"SITE_NAME":"Anaconda","ALTERNATE_NAMES":"","PRIMARY_COMMODITY":"Gold (Au)","COMMODITIES":"Gold","ORE_MINERALS":"","GANGUE":"","LOCATION_DESCRIPTION":"On the mountain above Michigan Gulch","LEGAL_DESCRIPTION":"SW 1/4 of sec. 19, T28N, R11E","LOCATION_ACCURACY":"coordinate accuracy highly variable","COUNTY":"Snohomish","LATITUDE":47.8944,"LONGITUDE":-121.45,"MINING_DISTRICT":"","LOCATION_SOURCE":"USGS MAS/MILS Database ","ASSAYS":"","PRODUCTION":"","COMMENTS":""}},{"type":"Feature","id":574,"geometry":{"type":"Point","coordinates":[-121.3997,47.9719]},"properties":{"OBJECTID":574,"SITE_ID":1407,"SITE_NAME":"Annie Laurie and Ethel","ALTERNATE_NAMES":"Annie Laurie, Ethel","PRIMARY_COMMODITY":"Gold (Au)","COMMODITIES":"Gold","ORE_MINERALS":"Pyrite","GANGUE":"","LOCATION_DESCRIPTION":"0.5 mi SE of Monte Cristo","LEGAL_DESCRIPTION":"NW 1/4 of sec. 28, T29N, R11E","LOCATION_ACCURACY":"coordinate accuracy highly variable","COUNTY":"Snohomish","LATITUDE":47.9719,"LONGITUDE":-121.3997,"MINING_DISTRICT":"","LOCATION_SOURCE":"USGS MAS/MILS Database ","ASSAYS":"yes","PRODUCTION":"","COMMENTS":"Assays are in Bulletin 37."}},{"type":"Feature","id":575,"geometry":{"type":"Point","coordinates":[-121.3831,47.9781]},"properties":{"OBJECTID":575,"SITE_ID":1408,"SITE_NAME":"Argonaut and Typo","ALTERNATE_NAMES":"Argonaut, Typo","PRIMARY_COMMODITY":"Gold (Au)","COMMODITIES":"Gold","ORE_MINERALS":"Arsenopyrite","GANGUE":"","LOCATION_DESCRIPTION":"On the W side of Wilmon Peak","LEGAL_DESCRIPTION":"NW 1/4 of sec. 27, T29N, R11E","LOCATION_ACCURACY":"coordinate accuracy highly variable","COUNTY":"Snohomish","LATITUDE":47.9781,"LONGITUDE":-121.3831,"MINING_DISTRICT":"Monte Cristo","LOCATION_SOURCE":"USGS MAS/MILS Database ","ASSAYS":"yes","PRODUCTION":"","COMMENTS":"Assays are in Bulletin 37."}},{"type":"Feature","id":576,"geometry":{"type":"Point","coordinates":[-121.3328,48.0117]},"properties":{"OBJECTID":576,"SITE_ID":1409,"SITE_NAME":"Baltimore","ALTERNATE_NAMES":"","PRIMARY_COMMODITY":"Gold (Au)","COMMODITIES":"Gold, silver, lead","ORE_MINERALS":"Pyrite, galena","GANGUE":"","LOCATION_DESCRIPTION":"0.5 mi SE of Goat Lake, Monte Cristo","LEGAL_DESCRIPTION":"SE 1/4 of sec. 12, T29N, R11E","LOCATION_ACCURACY":"coordinate accuracy highly variable","COUNTY":"Snohomish","LATITUDE":48.0117,"LONGITUDE":-121.3328,"MINING_DISTRICT":"Monte Cristo","LOCATION_SOURCE":"USGS MAS/MILS Database ","ASSAYS":"yes","PRODUCTION":"","COMMENTS":"Assays are in Bulletin 37."}},{"type":"Feature","id":577,"geometry":{"type":"Point","coordinates":[-121.4461,47.9431]},"properties":{"OBJECTID":577,"SITE_ID":1410,"SITE_NAME":"Bear","ALTERNATE_NAMES":"","PRIMARY_COMMODITY":"Gold (Au)","COMMODITIES":"Gold, silver, lead, copper","ORE_MINERALS":"","GANGUE":"","LOCATION_DESCRIPTION":"","LEGAL_DESCRIPTION":"sec. 6, T28N, R11E","LOCATION_ACCURACY":"coordinate accuracy highly variable","COUNTY":"Snohomish","LATITUDE":47.9431,"LONGITUDE":-121.4461,"MINING_DISTRICT":"Silver Creek","LOCATION_SOURCE":"USGS MAS/MILS Database ","ASSAYS":"","PRODUCTION":"","COMMENTS":""}},{"type":"Feature","id":578,"geometry":{"type":"Point","coordinates":[-121.4356,47.9475]},"properties":{"OBJECTID":578,"SITE_ID":1411,"SITE_NAME":"Ben Butler","ALTERNATE_NAMES":"","PRIMARY_COMMODITY":"Gold (Au)","COMMODITIES":"Gold","ORE_MINERALS":"","GANGUE":"","LOCATION_DESCRIPTION":"On W side of Silver Creek","LEGAL_DESCRIPTION":"NE 1/4 of sec. 6, T28N, R11E","LOCATION_ACCURACY":"coordinate accuracy highly variable","COUNTY":"Snohomish","LATITUDE":47.9475,"LONGITUDE":-121.4356,"MINING_DISTRICT":"","LOCATION_SOURCE":"USGS MAS/MILS Database ","ASSAYS":"","PRODUCTION":"","COMMENTS":""}},{"type":"Feature","id":580,"geometry":{"type":"Point","coordinates":[-121.4181,47.9722]},"properties":{"OBJECTID":580,"SITE_ID":1413,"SITE_NAME":"Big Raymond","ALTERNATE_NAMES":"","PRIMARY_COMMODITY":"Gold (Au)","COMMODITIES":"Gold, silver, copper","ORE_MINERALS":"","GANGUE":"","LOCATION_DESCRIPTION":"","LEGAL_DESCRIPTION":"sec. 29, T29N, R11E","LOCATION_ACCURACY":"coordinate accuracy highly variable","COUNTY":"Snohomish","LATITUDE":47.9722,"LONGITUDE":-121.4181,"MINING_DISTRICT":"Silver Creek","LOCATION_SOURCE":"USGS MAS/MILS Database ","ASSAYS":"yes","PRODUCTION":"","COMMENTS":"Assays are in Bulletin 37."}},{"type":"Feature","id":581,"geometry":{"type":"Point","coordinates":[-121.4458,47.8625]},"properties":{"OBJECTID":581,"SITE_ID":1414,"SITE_NAME":"Black Hawk","ALTERNATE_NAMES":"","PRIMARY_COMMODITY":"Gold (Au)","COMMODITIES":"Gold, copper","ORE_MINERALS":"Iron, copper sulfides","GANGUE":"","LOCATION_DESCRIPTION":"On W slope of Iron Mtn.","LEGAL_DESCRIPTION":"sec. 29 possible, T28N, R11E","LOCATION_ACCURACY":"coordinate accuracy highly variable","COUNTY":"Snohomish","LATITUDE":47.8625,"LONGITUDE":-121.4458,"MINING_DISTRICT":"","LOCATION_SOURCE":"USGS MAS/MILS Database ","ASSAYS":"","PRODUCTION":"","COMMENTS":""}},{"type":"Feature","id":582,"geometry":{"type":"Point","coordinates":[-121.4383,47.91]},"properties":{"OBJECTID":582,"SITE_ID":1415,"SITE_NAME":"Blue Bird","ALTERNATE_NAMES":"","PRIMARY_COMMODITY":"Gold (Au)","COMMODITIES":"Gold, silver, lead","ORE_MINERALS":"Galena","GANGUE":"","LOCATION_DESCRIPTION":"On the W side of Silver Creek 2 mi N of Galena","LEGAL_DESCRIPTION":"center of S 1/2 of sec. 18, T28N, R11E","LOCATION_ACCURACY":"coordinate accuracy highly variable","COUNTY":"Snohomish","LATITUDE":47.91,"LONGITUDE":-121.4383,"MINING_DISTRICT":"Silver Creek","LOCATION_SOURCE":"USGS MAS/MILS Database ","ASSAYS":"yes","PRODUCTION":"yes","COMMENTS":"Assays are in Bulletin 37. Production information is in Bulletin 37."}},{"type":"Feature","id":584,"geometry":{"type":"Point","coordinates":[-121.4361,47.95]},"properties":{"OBJECTID":584,"SITE_ID":1417,"SITE_NAME":"Bluebell","ALTERNATE_NAMES":"","PRIMARY_COMMODITY":"Gold (Au)","COMMODITIES":"Gold, silver, lead, copper","ORE_MINERALS":"","GANGUE":"","LOCATION_DESCRIPTION":"At Mineral City","LEGAL_DESCRIPTION":"sec. 6, T28N, R11E","LOCATION_ACCURACY":"coordinate accuracy highly variable","COUNTY":"Snohomish","LATITUDE":47.95,"LONGITUDE":-121.4361,"MINING_DISTRICT":"Silver Creek","LOCATION_SOURCE":"USGS MAS/MILS Database ","ASSAYS":"","PRODUCTION":"","COMMENTS":""}},{"type":"Feature","id":585,"geometry":{"type":"Point","coordinates":[-121.4322,47.9336]},"properties":{"OBJECTID":585,"SITE_ID":1418,"SITE_NAME":"Bluff","ALTERNATE_NAMES":"","PRIMARY_COMMODITY":"Gold (Au)","COMMODITIES":"Gold, copper","ORE_MINERALS":"Chalcopyrite, pyrite","GANGUE":"","LOCATION_DESCRIPTION":"On the E side of Silver Creek","LEGAL_DESCRIPTION":"NW 1/4 of sec. 8, T28N, R11E","LOCATION_ACCURACY":"coordinate accuracy highly variable","COUNTY":"Snohomish","LATITUDE":47.9336,"LONGITUDE":-121.4322,"MINING_DISTRICT":"","LOCATION_SOURCE":"USGS MAS/MILS Database ","ASSAYS":"yes","PRODUCTION":"","COMMENTS":"Assays are in Bulletin 37."}},{"type":"Feature","id":586,"geometry":{"type":"Point","coordinates":[-121.3461,48.0044]},"properties":{"OBJECTID":586,"SITE_ID":1419,"SITE_NAME":"Brooklyn","ALTERNATE_NAMES":"","PRIMARY_COMMODITY":"Gold (Au)","COMMODITIES":"Gold","ORE_MINERALS":"","GANGUE":"","LOCATION_DESCRIPTION":"Above the El Dorado prospect","LEGAL_DESCRIPTION":"secs. 11, 13, and 14, T29N, R11E","LOCATION_ACCURACY":"coordinate accuracy highly variable","COUNTY":"Snohomish","LATITUDE":48.0044,"LONGITUDE":-121.3461,"MINING_DISTRICT":"Monte Cristo","LOCATION_SOURCE":"USGS MAS/MILS Database ","ASSAYS":"","PRODUCTION":"","COMMENTS":""}},{"type":"Feature","id":588,"geometry":{"type":"Point","coordinates":[-121.5044,47.9747]},"properties":{"OBJECTID":588,"SITE_ID":1422,"SITE_NAME":"Calumet","ALTERNATE_NAMES":"","PRIMARY_COMMODITY":"Gold (Au)","COMMODITIES":"Gold, silver, copper, zinc","ORE_MINERALS":"Chalcopyrite, pyrrhotite, marcasite, arsenopyrite, sphalerite, galena","GANGUE":"","LOCATION_DESCRIPTION":"In Sultan Basin","LEGAL_DESCRIPTION":"near center N 1/2 of sec. 27, T29N, R10E","LOCATION_ACCURACY":"coordinate accuracy highly variable","COUNTY":"Snohomish","LATITUDE":47.9747,"LONGITUDE":-121.5044,"MINING_DISTRICT":"","LOCATION_SOURCE":"USGS MAS/MILS Database ","ASSAYS":"yes","PRODUCTION":"","COMMENTS":"Assays are in Bulletin 37."}},{"type":"Feature","id":589,"geometry":{"type":"Point","coordinates":[-121.3975,47.9608]},"properties":{"OBJECTID":589,"SITE_ID":1423,"SITE_NAME":"Caplin-Holbrooke","ALTERNATE_NAMES":"","PRIMARY_COMMODITY":"Gold (Au)","COMMODITIES":"Gold, silver, copper","ORE_MINERALS":"","GANGUE":"","LOCATION_DESCRIPTION":"On the E Fork of Silver Creek about 2 mi N of Mineral City","LEGAL_DESCRIPTION":"sec. 33, T29N, R11E","LOCATION_ACCURACY":"coordinate accuracy highly variable","COUNTY":"Snohomish","LATITUDE":47.9608,"LONGITUDE":-121.3975,"MINING_DISTRICT":"","LOCATION_SOURCE":"USGS MAS/MILS Database ","ASSAYS":"yes","PRODUCTION":"","COMMENTS":"Assays are in Bulletin 37."}},{"type":"Feature","id":590,"geometry":{"type":"Point","coordinates":[-121.3536,47.9758]},"properties":{"OBJECTID":590,"SITE_ID":1424,"SITE_NAME":"Cassidy","ALTERNATE_NAMES":"","PRIMARY_COMMODITY":"Gold (Au)","COMMODITIES":"Gold, silver","ORE_MINERALS":"Arsenopyrite","GANGUE":"","LOCATION_DESCRIPTION":"At the entrance of Glacier Basin","LEGAL_DESCRIPTION":"NE 1/4 of sec. 26, T29N, R11E","LOCATION_ACCURACY":"coordinate accuracy highly variable","COUNTY":"Snohomish","LATITUDE":47.9758,"LONGITUDE":-121.3536,"MINING_DISTRICT":"Monte Cristo","LOCATION_SOURCE":"USGS MAS/MILS Database ","ASSAYS":"yes","PRODUCTION":"","COMMENTS":"Assays are in Bulletin 37."}},{"type":"Feature","id":591,"geometry":{"type":"Point","coordinates":[-121.4422,48.0289]},"properties":{"OBJECTID":591,"SITE_ID":1425,"SITE_NAME":"Castle","ALTERNATE_NAMES":"","PRIMARY_COMMODITY":"Gold (Au)","COMMODITIES":"Gold, silver","ORE_MINERALS":"","GANGUE":"","LOCATION_DESCRIPTION":"NW of the Edison prospect","LEGAL_DESCRIPTION":"sec. 29, T29N, R11E","LOCATION_ACCURACY":"coordinate accuracy highly variable","COUNTY":"Snohomish","LATITUDE":48.0289,"LONGITUDE":-121.4422,"MINING_DISTRICT":"Silver Creek","LOCATION_SOURCE":"USGS MAS/MILS Database ","ASSAYS":"yes","PRODUCTION":"","COMMENTS":"Assays are in Bulletin 37."}},{"type":"Feature","id":592,"geometry":{"type":"Point","coordinates":[-121.4419,47.9439]},"properties":{"OBJECTID":592,"SITE_ID":1426,"SITE_NAME":"Champion","ALTERNATE_NAMES":"","PRIMARY_COMMODITY":"Gold (Au)","COMMODITIES":"Gold, silver, lead, copper","ORE_MINERALS":"","GANGUE":"","LOCATION_DESCRIPTION":"","LEGAL_DESCRIPTION":"sec. 6, T28N, R11E","LOCATION_ACCURACY":"coordinate accuracy highly variable","COUNTY":"Snohomish","LATITUDE":47.9439,"LONGITUDE":-121.4419,"MINING_DISTRICT":"Silver Creek","LOCATION_SOURCE":"USGS MAS/MILS Database ","ASSAYS":"yes","PRODUCTION":"","COMMENTS":"Assays are in Bulletin 37."}},{"type":"Feature","id":594,"geometry":{"type":"Point","coordinates":[-121.5675,48.0758]},"properties":{"OBJECTID":594,"SITE_ID":1430,"SITE_NAME":"Copper Independent","ALTERNATE_NAMES":"Independent","PRIMARY_COMMODITY":"Gold (Au)","COMMODITIES":"Gold, silver","ORE_MINERALS":"Pyrite, arsenopyrite","GANGUE":"Sheared granite, quartz","LOCATION_DESCRIPTION":"At mouth of Silver Gulch, 1/2 mi SE of Silverton","LEGAL_DESCRIPTION":"NE 1/4 of sec. 19, T30N, R10E","LOCATION_ACCURACY":"coordinate accuracy highly variable","COUNTY":"Snohomish","LATITUDE":48.0758,"LONGITUDE":-121.5675,"MINING_DISTRICT":"","LOCATION_SOURCE":"USGS MAS/MILS Database ","ASSAYS":"yes","PRODUCTION":"yes","COMMENTS":"Assays are in Bulletin 37. Production information is in Bulletin 37."}},{"type":"Feature","id":595,"geometry":{"type":"Point","coordinates":[-121.5592,48.0669]},"properties":{"OBJECTID":595,"SITE_ID":1431,"SITE_NAME":"Copper Prince","ALTERNATE_NAMES":"","PRIMARY_COMMODITY":"Gold (Au)","COMMODITIES":"Gold, silver, copper","ORE_MINERALS":"","GANGUE":"","LOCATION_DESCRIPTION":"","LEGAL_DESCRIPTION":"SW 1/4 of sec. 20, T30N, R10E","LOCATION_ACCURACY":"coordinate accuracy highly variable","COUNTY":"Snohomish","LATITUDE":48.0669,"LONGITUDE":-121.5592,"MINING_DISTRICT":"Silverton","LOCATION_SOURCE":"USGS MAS/MILS Database ","ASSAYS":"","PRODUCTION":"","COMMENTS":""}},{"type":"Feature","id":596,"geometry":{"type":"Point","coordinates":[-121.4089,47.9475]},"properties":{"OBJECTID":596,"SITE_ID":1432,"SITE_NAME":"Cora M","ALTERNATE_NAMES":"","PRIMARY_COMMODITY":"Gold (Au)","COMMODITIES":"Gold","ORE_MINERALS":"","GANGUE":"","LOCATION_DESCRIPTION":"","LEGAL_DESCRIPTION":"NW 1/4 of sec. 4, T28N, R11E","LOCATION_ACCURACY":"coordinate accuracy highly variable","COUNTY":"Snohomish","LATITUDE":47.9475,"LONGITUDE":-121.4089,"MINING_DISTRICT":"Silver Creek","LOCATION_SOURCE":"USGS MAS/MILS Database ","ASSAYS":"yes","PRODUCTION":"","COMMENTS":"Assays are in Bulletin 37."}},{"type":"Feature","id":597,"geometry":{"type":"Point","coordinates":[-121.5369,48.0392]},"properties":{"OBJECTID":597,"SITE_ID":1433,"SITE_NAME":"Cornucopia","ALTERNATE_NAMES":"","PRIMARY_COMMODITY":"Gold (Au)","COMMODITIES":"Gold, silver, lead","ORE_MINERALS":"Galena, pyrite","GANGUE":"","LOCATION_DESCRIPTION":"1,000 ft below the outlet of Copper Lake","LEGAL_DESCRIPTION":"SW 1/4 of sec. 33, T30N, R10E","LOCATION_ACCURACY":"coordinate accuracy highly variable","COUNTY":"Snohomish","LATITUDE":48.0392,"LONGITUDE":-121.5369,"MINING_DISTRICT":"Silverton","LOCATION_SOURCE":"USGS MAS/MILS Database ","ASSAYS":"yes","PRODUCTION":"","COMMENTS":"Assays are in Bulletin 37."}},{"type":"Feature","id":598,"geometry":{"type":"Point","coordinates":[-121.4042,47.9261]},"properties":{"OBJECTID":598,"SITE_ID":1434,"SITE_NAME":"Daisy","ALTERNATE_NAMES":"","PRIMARY_COMMODITY":"Gold (Au)","COMMODITIES":"Gold, silver, lead","ORE_MINERALS":"Galena, arsenopyrite","GANGUE":"","LOCATION_DESCRIPTION":"","LEGAL_DESCRIPTION":"sec. 9, T28N, R11E","LOCATION_ACCURACY":"coordinate accuracy highly variable","COUNTY":"Snohomish","LATITUDE":47.9261,"LONGITUDE":-121.4042,"MINING_DISTRICT":"Silver Creek","LOCATION_SOURCE":"USGS MAS/MILS Database ","ASSAYS":"yes","PRODUCTION":"","COMMENTS":"Assays are in Bulletin 37."}},{"type":"Feature","id":599,"geometry":{"type":"Point","coordinates":[-121.4478,47.9844]},"properties":{"OBJECTID":599,"SITE_ID":1435,"SITE_NAME":"Del Campo","ALTERNATE_NAMES":"","PRIMARY_COMMODITY":"Gold (Au)","COMMODITIES":"Gold, silver, copper","ORE_MINERALS":"Chalcopyrite","GANGUE":"","LOCATION_DESCRIPTION":"On the E slope of the ridge dividing the Sauk, Sultan, and Stillaguamish watersheds, overlooking Crater Lake, 2.5 mi W of Monte Cristo","LEGAL_DESCRIPTION":"","LOCATION_ACCURACY":"coordinate accuracy highly variable","COUNTY":"Snohomish","LATITUDE":47.9844,"LONGITUDE":-121.4478,"MINING_DISTRICT":"","LOCATION_SOURCE":"USGS MAS/MILS Database ","ASSAYS":"yes","PRODUCTION":"","COMMENTS":"Assays are in Bulletin 37."}},{"type":"Feature","id":600,"geometry":{"type":"Point","coordinates":[-121.3958,47.9597]},"properties":{"OBJECTID":600,"SITE_ID":1436,"SITE_NAME":"Delco and Marengo","ALTERNATE_NAMES":"Delco, Marengo","PRIMARY_COMMODITY":"Gold (Au)","COMMODITIES":"Gold","ORE_MINERALS":"Pyrite","GANGUE":"","LOCATION_DESCRIPTION":"","LEGAL_DESCRIPTION":"sec. 33, T29N, R11E","LOCATION_ACCURACY":"coordinate accuracy highly variable","COUNTY":"Snohomish","LATITUDE":47.9597,"LONGITUDE":-121.3958,"MINING_DISTRICT":"Silver Creek","LOCATION_SOURCE":"USGS MAS/MILS Database ","ASSAYS":"","PRODUCTION":"","COMMENTS":""}},{"type":"Feature","id":601,"geometry":{"type":"Point","coordinates":[-121.4444,47.9097]},"properties":{"OBJECTID":601,"SITE_ID":1437,"SITE_NAME":"Deway","ALTERNATE_NAMES":"","PRIMARY_COMMODITY":"Gold (Au)","COMMODITIES":"Gold, silver, copper","ORE_MINERALS":"","GANGUE":"","LOCATION_DESCRIPTION":"","LEGAL_DESCRIPTION":"S 1/2 of sec. 18, T28N, R11E","LOCATION_ACCURACY":"coordinate accuracy highly variable","COUNTY":"Snohomish","LATITUDE":47.9097,"LONGITUDE":-121.4444,"MINING_DISTRICT":"Silver Creek","LOCATION_SOURCE":"USGS MAS/MILS Database ","ASSAYS":"","PRODUCTION":"","COMMENTS":""}},{"type":"Feature","id":603,"geometry":{"type":"Point","coordinates":[-121.6031,48.0869]},"properties":{"OBJECTID":603,"SITE_ID":1439,"SITE_NAME":"Dry Creek","ALTERNATE_NAMES":"","PRIMARY_COMMODITY":"Gold (Au)","COMMODITIES":"Gold, silver, copper","ORE_MINERALS":"Arsenopyrite, chalcopyrite","GANGUE":"","LOCATION_DESCRIPTION":"On W end of Long Mtn.","LEGAL_DESCRIPTION":"","LOCATION_ACCURACY":"coordinate accuracy highly variable","COUNTY":"Snohomish","LATITUDE":48.0869,"LONGITUDE":-121.6031,"MINING_DISTRICT":"","LOCATION_SOURCE":"USGS MAS/MILS Database ","ASSAYS":"yes","PRODUCTION":"","COMMENTS":"Assays are in Bulletin 37."}},{"type":"Feature","id":604,"geometry":{"type":"Point","coordinates":[-121.5611,48.0806]},"properties":{"OBJECTID":604,"SITE_ID":1440,"SITE_NAME":"Eclipse","ALTERNATE_NAMES":"Dahl","PRIMARY_COMMODITY":"Gold (Au)","COMMODITIES":"Gold, silver, copper, mercury","ORE_MINERALS":"Arsenopyrite, native mercury","GANGUE":"","LOCATION_DESCRIPTION":"On S side of Stilaguamish River","LEGAL_DESCRIPTION":"secs. 17 and 19, T30N, R10E","LOCATION_ACCURACY":"coordinate accuracy highly variable","COUNTY":"Snohomish","LATITUDE":48.0806,"LONGITUDE":-121.5611,"MINING_DISTRICT":"Silverton","LOCATION_SOURCE":"USGS MAS/MILS Database ","ASSAYS":"yes","PRODUCTION":"","COMMENTS":"Assays are in Bulletin 37."}},{"type":"Feature","id":605,"geometry":{"type":"Point","coordinates":[-121.4111,47.9778]},"properties":{"OBJECTID":605,"SITE_ID":1441,"SITE_NAME":"Edison","ALTERNATE_NAMES":"","PRIMARY_COMMODITY":"Gold (Au)","COMMODITIES":"Gold, copper, silver","ORE_MINERALS":"Chalcopyrite, arsenopyrite","GANGUE":"","LOCATION_DESCRIPTION":"","LEGAL_DESCRIPTION":"NE 1/4 of sec. 29, T29N, R11E","LOCATION_ACCURACY":"coordinate accuracy highly variable","COUNTY":"Snohomish","LATITUDE":47.9778,"LONGITUDE":-121.4111,"MINING_DISTRICT":"Silver Creek","LOCATION_SOURCE":"USGS MAS/MILS Database ","ASSAYS":"yes","PRODUCTION":"","COMMENTS":"Assays are in Bulletin 37."}},{"type":"Feature","id":607,"geometry":{"type":"Point","coordinates":[-121.4347,47.9461]},"properties":{"OBJECTID":607,"SITE_ID":1443,"SITE_NAME":"Emma Bess","ALTERNATE_NAMES":"","PRIMARY_COMMODITY":"Gold (Au)","COMMODITIES":"Gold","ORE_MINERALS":"","GANGUE":"","LOCATION_DESCRIPTION":"On E side of Silver Creek","LEGAL_DESCRIPTION":"NE 1/4 of sec. 6, T28N, R11E","LOCATION_ACCURACY":"coordinate accuracy highly variable","COUNTY":"Snohomish","LATITUDE":47.9461,"LONGITUDE":-121.4347,"MINING_DISTRICT":"","LOCATION_SOURCE":"USGS MAS/MILS Database ","ASSAYS":"","PRODUCTION":"","COMMENTS":""}},{"type":"Feature","id":608,"geometry":{"type":"Point","coordinates":[-121.5667,48.0692]},"properties":{"OBJECTID":608,"SITE_ID":1444,"SITE_NAME":"Fanny","ALTERNATE_NAMES":"","PRIMARY_COMMODITY":"Gold (Au)","COMMODITIES":"Gold, silver, copper","ORE_MINERALS":"","GANGUE":"","LOCATION_DESCRIPTION":"On a spur of the mountain S of Silver Gulch","LEGAL_DESCRIPTION":"SE 1/4 of sec. 19, T30N, R10E","LOCATION_ACCURACY":"coordinate accuracy highly variable","COUNTY":"Snohomish","LATITUDE":48.0692,"LONGITUDE":-121.5667,"MINING_DISTRICT":"Silverton","LOCATION_SOURCE":"USGS MAS/MILS Database ","ASSAYS":"yes","PRODUCTION":"","COMMENTS":"Assays are in Bulletin 37."}},{"type":"Feature","id":609,"geometry":{"type":"Point","coordinates":[-121.416802,47.954062]},"properties":{"OBJECTID":609,"SITE_ID":1446,"SITE_NAME":"Fortunate","ALTERNATE_NAMES":"","PRIMARY_COMMODITY":"Gold (Au)","COMMODITIES":"Gold, silver","ORE_MINERALS":"","GANGUE":"","LOCATION_DESCRIPTION":"1 mi NE of Mineral City","LEGAL_DESCRIPTION":"sec. 32, T29N, R11E","LOCATION_ACCURACY":"coordinates estimated from legal description","COUNTY":"Snohomish","LATITUDE":47.954061746444,"LONGITUDE":-121.416801950169,"MINING_DISTRICT":"Silver Creek","LOCATION_SOURCE":"Bulletin 37","ASSAYS":"","PRODUCTION":"yes","COMMENTS":"Production information is in Bulletin 37."}},{"type":"Feature","id":610,"geometry":{"type":"Point","coordinates":[-121.3667,48.0167]},"properties":{"OBJECTID":610,"SITE_ID":1447,"SITE_NAME":"Gift","ALTERNATE_NAMES":"","PRIMARY_COMMODITY":"Gold (Au)","COMMODITIES":"Gold, silver","ORE_MINERALS":"Pyrite","GANGUE":"","LOCATION_DESCRIPTION":"On the divide between Goat Lake and the N Fork of Sauk River","LEGAL_DESCRIPTION":"","LOCATION_ACCURACY":"coordinate accuracy highly variable","COUNTY":"Snohomish","LATITUDE":48.0167,"LONGITUDE":-121.3667,"MINING_DISTRICT":"","LOCATION_SOURCE":"USGS MAS/MILS Database ","ASSAYS":"","PRODUCTION":"","COMMENTS":""}},{"type":"Feature","id":611,"geometry":{"type":"Point","coordinates":[-121.3528,48.0264]},"properties":{"OBJECTID":611,"SITE_ID":1448,"SITE_NAME":"Glory of the Mountain","ALTERNATE_NAMES":"","PRIMARY_COMMODITY":"Gold (Au)","COMMODITIES":"Gold, silver","ORE_MINERALS":"Arsenopyrite, pyrite","GANGUE":"","LOCATION_DESCRIPTION":"0.5 mi NE of Goat Lake","LEGAL_DESCRIPTION":"SE 1/4 of sec. 2, T29N, R11E","LOCATION_ACCURACY":"coordinate accuracy highly variable","COUNTY":"Snohomish","LATITUDE":48.0264,"LONGITUDE":-121.3528,"MINING_DISTRICT":"Monte Cristo","LOCATION_SOURCE":"USGS MAS/MILS Database ","ASSAYS":"yes","PRODUCTION":"yes","COMMENTS":"Assays are in Bulletin 37. Production information is in Bulletin 37."}},{"type":"Feature","id":612,"geometry":{"type":"Point","coordinates":[-121.4408,47.9272]},"properties":{"OBJECTID":612,"SITE_ID":1449,"SITE_NAME":"Gold Boy","ALTERNATE_NAMES":"","PRIMARY_COMMODITY":"Gold (Au)","COMMODITIES":"Gold","ORE_MINERALS":"","GANGUE":"","LOCATION_DESCRIPTION":"On W side of Silver Creek","LEGAL_DESCRIPTION":"sec. 7, T28N, R11E","LOCATION_ACCURACY":"coordinate accuracy highly variable","COUNTY":"Snohomish","LATITUDE":47.9272,"LONGITUDE":-121.4408,"MINING_DISTRICT":"","LOCATION_SOURCE":"USGS MAS/MILS Database ","ASSAYS":"yes","PRODUCTION":"","COMMENTS":"Assays are in Bulletin 37."}},{"type":"Feature","id":613,"geometry":{"type":"Point","coordinates":[-121.4158,47.9725]},"properties":{"OBJECTID":613,"SITE_ID":1450,"SITE_NAME":"Gold Eagle","ALTERNATE_NAMES":"","PRIMARY_COMMODITY":"Gold (Au)","COMMODITIES":"Gold, copper","ORE_MINERALS":"Chalcopyrite, chalcocite, arsenopyrite","GANGUE":"","LOCATION_DESCRIPTION":"On Silver Tip Mtn.","LEGAL_DESCRIPTION":"sec. 29, T29N, R11E","LOCATION_ACCURACY":"coordinate accuracy highly variable","COUNTY":"Snohomish","LATITUDE":47.9725,"LONGITUDE":-121.4158,"MINING_DISTRICT":"","LOCATION_SOURCE":"USGS MAS/MILS Database ","ASSAYS":"yes","PRODUCTION":"","COMMENTS":"Assays are in Bulletin 37."}},{"type":"Feature","id":614,"geometry":{"type":"Point","coordinates":[-121.4294,47.9472]},"properties":{"OBJECTID":614,"SITE_ID":1451,"SITE_NAME":"Gold Standard","ALTERNATE_NAMES":"","PRIMARY_COMMODITY":"Gold (Au)","COMMODITIES":"Gold, silver","ORE_MINERALS":"","GANGUE":"","LOCATION_DESCRIPTION":"","LEGAL_DESCRIPTION":"NW 1/4 of sec. 5, T28N, R11E","LOCATION_ACCURACY":"coordinate accuracy highly variable","COUNTY":"Snohomish","LATITUDE":47.9472,"LONGITUDE":-121.4294,"MINING_DISTRICT":"Silver Creek","LOCATION_SOURCE":"USGS MAS/MILS Database ","ASSAYS":"","PRODUCTION":"","COMMENTS":""}},{"type":"Feature","id":616,"geometry":{"type":"Point","coordinates":[-121.4069,47.9581]},"properties":{"OBJECTID":616,"SITE_ID":1453,"SITE_NAME":"Good Hope","ALTERNATE_NAMES":"","PRIMARY_COMMODITY":"Gold (Au)","COMMODITIES":"Gold, silver, copper, lead, zinc, vanadium","ORE_MINERALS":"","GANGUE":"","LOCATION_DESCRIPTION":"2 mi from Monte Cristo","LEGAL_DESCRIPTION":"sec. 33, T29N, R11E","LOCATION_ACCURACY":"coordinate accuracy highly variable","COUNTY":"Snohomish","LATITUDE":47.9581,"LONGITUDE":-121.4069,"MINING_DISTRICT":"","LOCATION_SOURCE":"USGS MAS/MILS Database ","ASSAYS":"","PRODUCTION":"yes","COMMENTS":"Production information is in Bulletin 37."}},{"type":"Feature","id":617,"geometry":{"type":"Point","coordinates":[-121.5603,48.0708]},"properties":{"OBJECTID":617,"SITE_ID":1454,"SITE_NAME":"Granite and Maud","ALTERNATE_NAMES":"Granite, Maud","PRIMARY_COMMODITY":"Gold (Au)","COMMODITIES":"Gold, silver, lead","ORE_MINERALS":"Arsenopyrite, galena","GANGUE":"","LOCATION_DESCRIPTION":"On Silver Gulch","LEGAL_DESCRIPTION":"SW 1/4 of sec. 20, T30N, R10E","LOCATION_ACCURACY":"coordinate accuracy highly variable","COUNTY":"Snohomish","LATITUDE":48.0708,"LONGITUDE":-121.5603,"MINING_DISTRICT":"Silverton","LOCATION_SOURCE":"USGS MAS/MILS Database ","ASSAYS":"yes","PRODUCTION":"","COMMENTS":"Assays are in Bulletin 37."}},{"type":"Feature","id":618,"geometry":{"type":"Point","coordinates":[-121.3778,47.9736]},"properties":{"OBJECTID":618,"SITE_ID":1455,"SITE_NAME":"Grant","ALTERNATE_NAMES":"","PRIMARY_COMMODITY":"Gold (Au)","COMMODITIES":"Gold","ORE_MINERALS":"","GANGUE":"","LOCATION_DESCRIPTION":"","LEGAL_DESCRIPTION":"sec. 27, T29N, R11E","LOCATION_ACCURACY":"coordinate accuracy highly variable","COUNTY":"Snohomish","LATITUDE":47.9736,"LONGITUDE":-121.3778,"MINING_DISTRICT":"Monte Cristo","LOCATION_SOURCE":"USGS MAS/MILS Database ","ASSAYS":"","PRODUCTION":"","COMMENTS":""}},{"type":"Feature","id":620,"geometry":{"type":"Point","coordinates":[-121.7492,47.9611]},"properties":{"OBJECTID":620,"SITE_ID":1457,"SITE_NAME":"Great Northern","ALTERNATE_NAMES":"","PRIMARY_COMMODITY":"Gold (Au)","COMMODITIES":"Gold, copper, silver","ORE_MINERALS":"Chalcopyrite, pyrite","GANGUE":"","LOCATION_DESCRIPTION":"On S side of Sultan River","LEGAL_DESCRIPTION":"NW 1/4 of sec. 35, T29N, R8E","LOCATION_ACCURACY":"coordinate accuracy highly variable","COUNTY":"Snohomish","LATITUDE":47.9611,"LONGITUDE":-121.7492,"MINING_DISTRICT":"","LOCATION_SOURCE":"USGS MAS/MILS Database ","ASSAYS":"yes","PRODUCTION":"","COMMENTS":"Assays are in Bulletin 37."}},{"type":"Feature","id":621,"geometry":{"type":"Point","coordinates":[-121.3778,47.9461]},"properties":{"OBJECTID":621,"SITE_ID":1458,"SITE_NAME":"Great Scott","ALTERNATE_NAMES":"","PRIMARY_COMMODITY":"Gold (Au)","COMMODITIES":"Gold, silver, copper","ORE_MINERALS":"Arsenopyrite, chalcopyrite, pyrite","GANGUE":"","LOCATION_DESCRIPTION":"","LEGAL_DESCRIPTION":"sec. 3, T28N, R11E","LOCATION_ACCURACY":"coordinate accuracy highly variable","COUNTY":"Snohomish","LATITUDE":47.9461,"LONGITUDE":-121.3778,"MINING_DISTRICT":"Silver Creek","LOCATION_SOURCE":"USGS MAS/MILS Database ","ASSAYS":"yes","PRODUCTION":"","COMMENTS":"Assays are in Bulletin 37."}},{"type":"Feature","id":623,"geometry":{"type":"Point","coordinates":[-121.4006,47.9608]},"properties":{"OBJECTID":623,"SITE_ID":1460,"SITE_NAME":"Hiawatha","ALTERNATE_NAMES":"","PRIMARY_COMMODITY":"Gold (Au)","COMMODITIES":"Gold, silver","ORE_MINERALS":"","GANGUE":"","LOCATION_DESCRIPTION":"About 1 mi S of Silver Lake on W side of the E Fork of Silver Creek","LEGAL_DESCRIPTION":"sec. 33, T29N, R11E","LOCATION_ACCURACY":"coordinate accuracy highly variable","COUNTY":"Snohomish","LATITUDE":47.9608,"LONGITUDE":-121.4006,"MINING_DISTRICT":"","LOCATION_SOURCE":"USGS MAS/MILS Database ","ASSAYS":"","PRODUCTION":"yes","COMMENTS":"Production information is in OFR 90-18."}},{"type":"Feature","id":624,"geometry":{"type":"Point","coordinates":[-121.4153,47.9361]},"properties":{"OBJECTID":624,"SITE_ID":1461,"SITE_NAME":"Hope","ALTERNATE_NAMES":"","PRIMARY_COMMODITY":"Gold (Au)","COMMODITIES":"Gold, copper","ORE_MINERALS":"Chalcopyrite, pyrite","GANGUE":"","LOCATION_DESCRIPTION":"On Hubbart Peak","LEGAL_DESCRIPTION":"sec. 5, T28N, R11E","LOCATION_ACCURACY":"coordinate accuracy highly variable","COUNTY":"Snohomish","LATITUDE":47.9361,"LONGITUDE":-121.4153,"MINING_DISTRICT":"Silver Creek","LOCATION_SOURCE":"USGS MAS/MILS Database ","ASSAYS":"yes","PRODUCTION":"","COMMENTS":"Assays are in Bulletin 37."}},{"type":"Feature","id":625,"geometry":{"type":"Point","coordinates":[-121.46,47.9594]},"properties":{"OBJECTID":625,"SITE_ID":1462,"SITE_NAME":"Horseshoe and Treasure Box","ALTERNATE_NAMES":"Horseshoe, Treasure Box","PRIMARY_COMMODITY":"Gold (Au)","COMMODITIES":"Gold, copper","ORE_MINERALS":"","GANGUE":"","LOCATION_DESCRIPTION":"Just E of Sheep Gap","LEGAL_DESCRIPTION":"sec. 36, T29N, R10E","LOCATION_ACCURACY":"coordinate accuracy highly variable","COUNTY":"Snohomish","LATITUDE":47.9594,"LONGITUDE":-121.46,"MINING_DISTRICT":"Silver Creek","LOCATION_SOURCE":"USGS MAS/MILS Database ","ASSAYS":"yes","PRODUCTION":"","COMMENTS":"Assays are in Bulletin 37."}},{"type":"Feature","id":626,"geometry":{"type":"Point","coordinates":[-121.451122,47.905706]},"properties":{"OBJECTID":626,"SITE_ID":1463,"SITE_NAME":"Index Gold Mines, Inc.","ALTERNATE_NAMES":"Index Gold Mines","PRIMARY_COMMODITY":"Gold (Au)","COMMODITIES":"Gold, silver, lead, zinc","ORE_MINERALS":"Galena, sphalerite","GANGUE":"Arsenopyrite, quartz","LOCATION_DESCRIPTION":"","LEGAL_DESCRIPTION":"secs. 18 and 19, T28N, R11E","LOCATION_ACCURACY":"generally from USGS 7.5-minute topographic map","COUNTY":"Snohomish","LATITUDE":47.905706,"LONGITUDE":-121.451122,"MINING_DISTRICT":"Silver Creek","LOCATION_SOURCE":"Open File Report 90-18","ASSAYS":"yes","PRODUCTION":"yes","COMMENTS":"Assays are in Bulletin 37 and in the scanned files. Production information is in Bulletin 37."}},{"type":"Feature","id":627,"geometry":{"type":"Point","coordinates":[-121.4347,47.9069]},"properties":{"OBJECTID":627,"SITE_ID":1464,"SITE_NAME":"Iron Clad","ALTERNATE_NAMES":"","PRIMARY_COMMODITY":"Gold (Au)","COMMODITIES":"Gold","ORE_MINERALS":"Arsenopyrite","GANGUE":"","LOCATION_DESCRIPTION":"On E side of Silver Creek, about 1 mi N of Galena","LEGAL_DESCRIPTION":"sec. 18, T28N, R11E","LOCATION_ACCURACY":"coordinate accuracy highly variable","COUNTY":"Snohomish","LATITUDE":47.9069,"LONGITUDE":-121.4347,"MINING_DISTRICT":"","LOCATION_SOURCE":"USGS MAS/MILS Database ","ASSAYS":"yes","PRODUCTION":"","COMMENTS":"Assays are in Bulletin 37."}},{"type":"Feature","id":628,"geometry":{"type":"Point","coordinates":[-121.42629,47.871398]},"properties":{"OBJECTID":628,"SITE_ID":1465,"SITE_NAME":"Iron Mountain","ALTERNATE_NAMES":"","PRIMARY_COMMODITY":"Gold (Au)","COMMODITIES":"Gold, copper","ORE_MINERALS":"","GANGUE":"","LOCATION_DESCRIPTION":"On Howard Creek","LEGAL_DESCRIPTION":"","LOCATION_ACCURACY":"coordinates estimated from location description","COUNTY":"Snohomish","LATITUDE":47.8713983962748,"LONGITUDE":-121.426290345068,"MINING_DISTRICT":"Index","LOCATION_SOURCE":"Bulletin 37","ASSAYS":"","PRODUCTION":"","COMMENTS":""}},{"type":"Feature","id":629,"geometry":{"type":"Point","coordinates":[-121.3806,47.9722]},"properties":{"OBJECTID":629,"SITE_ID":1466,"SITE_NAME":"J. B.","ALTERNATE_NAMES":"","PRIMARY_COMMODITY":"Gold (Au)","COMMODITIES":"Gold, silver, lead","ORE_MINERALS":"","GANGUE":"","LOCATION_DESCRIPTION":"","LEGAL_DESCRIPTION":"sec. 27, T29N, R11E","LOCATION_ACCURACY":"coordinate accuracy highly variable","COUNTY":"Snohomish","LATITUDE":47.9722,"LONGITUDE":-121.3806,"MINING_DISTRICT":"Monte Cristo","LOCATION_SOURCE":"USGS MAS/MILS Database ","ASSAYS":"","PRODUCTION":"","COMMENTS":""}},{"type":"Feature","id":630,"geometry":{"type":"Point","coordinates":[-121.4522,47.9514]},"properties":{"OBJECTID":630,"SITE_ID":1468,"SITE_NAME":"Jasperson","ALTERNATE_NAMES":"Clara Thompson, Commonwealth, McCombs, Webster","PRIMARY_COMMODITY":"Gold (Au)","COMMODITIES":"Gold, silver, copper, lead, mercury, vanadium","ORE_MINERALS":"Cinnabar, pyrite, arsenopyrite, chalcopyrite, galena, sphalerite, stibnite, vanadinite","GANGUE":"Quartz","LOCATION_DESCRIPTION":"N of the Bear claim on S slope of Mineral Mtn., on W side of the W Fork of Silver Creek","LEGAL_DESCRIPTION":"sec. 36, T29N, R10E; sec. 6, T28N, R11E","LOCATION_ACCURACY":"coordinate accuracy highly variable","COUNTY":"Snohomish","LATITUDE":47.9514,"LONGITUDE":-121.4522,"MINING_DISTRICT":"Silver Creek","LOCATION_SOURCE":"USGS MAS/MILS Database ","ASSAYS":"yes","PRODUCTION":"","COMMENTS":"Assays are in Bulletin 37."}},{"type":"Feature","id":632,"geometry":{"type":"Point","coordinates":[-121.4253,47.9539]},"properties":{"OBJECTID":632,"SITE_ID":1470,"SITE_NAME":"Jessie","ALTERNATE_NAMES":"","PRIMARY_COMMODITY":"Gold (Au)","COMMODITIES":"Gold","ORE_MINERALS":"","GANGUE":"","LOCATION_DESCRIPTION":"","LEGAL_DESCRIPTION":"SW 1/4 of sec. 32, T29N, R11E","LOCATION_ACCURACY":"coordinate accuracy highly variable","COUNTY":"Snohomish","LATITUDE":47.9539,"LONGITUDE":-121.4253,"MINING_DISTRICT":"Silver Creek","LOCATION_SOURCE":"USGS MAS/MILS Database ","ASSAYS":"","PRODUCTION":"","COMMENTS":""}},{"type":"Feature","id":633,"geometry":{"type":"Point","coordinates":[-121.4322,47.9225]},"properties":{"OBJECTID":633,"SITE_ID":1471,"SITE_NAME":"Jim Dandy","ALTERNATE_NAMES":"","PRIMARY_COMMODITY":"Gold (Au)","COMMODITIES":"Gold, silver, copper","ORE_MINERALS":"Chalcopyrite, pyrite, arsenopyrite","GANGUE":"","LOCATION_DESCRIPTION":"","LEGAL_DESCRIPTION":"SW 1/4 of sec. 8, T28N, R11E","LOCATION_ACCURACY":"coordinate accuracy highly variable","COUNTY":"Snohomish","LATITUDE":47.9225,"LONGITUDE":-121.4322,"MINING_DISTRICT":"Silver Creek","LOCATION_SOURCE":"USGS MAS/MILS Database ","ASSAYS":"yes","PRODUCTION":"","COMMENTS":"Assays are in Bulletin 37."}},{"type":"Feature","id":634,"geometry":{"type":"Point","coordinates":[-121.5547,47.9831]},"properties":{"OBJECTID":634,"SITE_ID":1472,"SITE_NAME":"John Newhouse","ALTERNATE_NAMES":"","PRIMARY_COMMODITY":"Gold (Au)","COMMODITIES":"Gold?","ORE_MINERALS":"Pyrite in argillite on dump","GANGUE":"","LOCATION_DESCRIPTION":"","LEGAL_DESCRIPTION":"SW 1/4 of sec. 20, T29N, R10E","LOCATION_ACCURACY":"coordinate accuracy highly variable","COUNTY":"Snohomish","LATITUDE":47.9831,"LONGITUDE":-121.5547,"MINING_DISTRICT":"","LOCATION_SOURCE":"USGS MAS/MILS Database ","ASSAYS":"","PRODUCTION":"yes","COMMENTS":"Production information is in OFR 90-18."}},{"type":"Feature","id":635,"geometry":{"type":"Point","coordinates":[-121.4208,47.9708]},"properties":{"OBJECTID":635,"SITE_ID":1473,"SITE_NAME":"Jumbo","ALTERNATE_NAMES":"","PRIMARY_COMMODITY":"Gold (Au)","COMMODITIES":"Gold, silver, copper","ORE_MINERALS":"Pyrite","GANGUE":"","LOCATION_DESCRIPTION":"On W side of the E Fork of Silver Creek","LEGAL_DESCRIPTION":"sec. 29, T29N, R11E","LOCATION_ACCURACY":"coordinate accuracy highly variable","COUNTY":"Snohomish","LATITUDE":47.9708,"LONGITUDE":-121.4208,"MINING_DISTRICT":"Monte Cristo","LOCATION_SOURCE":"USGS MAS/MILS Database ","ASSAYS":"yes","PRODUCTION":"","COMMENTS":"Assays are in Bulletin 37."}},{"type":"Feature","id":637,"geometry":{"type":"Point","coordinates":[-121.379092,47.979867]},"properties":{"OBJECTID":637,"SITE_ID":1475,"SITE_NAME":"Justice","ALTERNATE_NAMES":"Chord, Cord, Golden Chord, Monte Cristo, Mystery, New Discovery, Pride, Pride of the Mountains, Pride of the woods","PRIMARY_COMMODITY":"Gold (Au)","COMMODITIES":"Gold, silver","ORE_MINERALS":"Arsenopyrite, pyrite","GANGUE":"Arsenopyrite, pyrite, quartz","LOCATION_DESCRIPTION":"On NW side of Wilmon Peak overlooking Monte Cristo","LEGAL_DESCRIPTION":"sec. 27, T29N, R11E","LOCATION_ACCURACY":"GPS coordinates","COUNTY":"Snohomish","LATITUDE":47.979867,"LONGITUDE":-121.379092,"MINING_DISTRICT":"Monte Cristo","LOCATION_SOURCE":"IAML Database ","ASSAYS":"yes","PRODUCTION":"yes","COMMENTS":"Assays are in Bulletin 37. Production information is in Bulletin 37."}},{"type":"Feature","id":639,"geometry":{"type":"Point","coordinates":[-121.3814,47.9842]},"properties":{"OBJECTID":639,"SITE_ID":1477,"SITE_NAME":"Keystone","ALTERNATE_NAMES":"","PRIMARY_COMMODITY":"Gold (Au)","COMMODITIES":"Gold, silver, copper, lead","ORE_MINERALS":"Galena, chalcopyrite, pyrite","GANGUE":"","LOCATION_DESCRIPTION":"1 mi E of Monte Cristo","LEGAL_DESCRIPTION":"sec. 22, T29N, R11E","LOCATION_ACCURACY":"coordinate accuracy highly variable","COUNTY":"Snohomish","LATITUDE":47.9842,"LONGITUDE":-121.3814,"MINING_DISTRICT":"","LOCATION_SOURCE":"USGS MAS/MILS Database ","ASSAYS":"yes","PRODUCTION":"","COMMENTS":"Assays are in Bulletin 37."}},{"type":"Feature","id":641,"geometry":{"type":"Point","coordinates":[-121.4383,47.9181]},"properties":{"OBJECTID":641,"SITE_ID":1479,"SITE_NAME":"Last Chance","ALTERNATE_NAMES":"","PRIMARY_COMMODITY":"Gold (Au)","COMMODITIES":"Gold, silver, lead","ORE_MINERALS":"","GANGUE":"","LOCATION_DESCRIPTION":"On W side of Silver Creek, 2 mi N of Galena","LEGAL_DESCRIPTION":"sec. 18, T28N, R11E","LOCATION_ACCURACY":"coordinate accuracy highly variable","COUNTY":"Snohomish","LATITUDE":47.9181,"LONGITUDE":-121.4383,"MINING_DISTRICT":"","LOCATION_SOURCE":"USGS MAS/MILS Database ","ASSAYS":"","PRODUCTION":"yes","COMMENTS":"Production information is in Bulletin 37."}},{"type":"Feature","id":642,"geometry":{"type":"Point","coordinates":[-121.5569,48.0906]},"properties":{"OBJECTID":642,"SITE_ID":1481,"SITE_NAME":"Lily James","ALTERNATE_NAMES":"","PRIMARY_COMMODITY":"Gold (Au)","COMMODITIES":"Gold, silver","ORE_MINERALS":"Arsenopyrite","GANGUE":"","LOCATION_DESCRIPTION":"","LEGAL_DESCRIPTION":"NW 1/4 of sec. 17, T30N, R10E","LOCATION_ACCURACY":"coordinate accuracy highly variable","COUNTY":"Snohomish","LATITUDE":48.0906,"LONGITUDE":-121.5569,"MINING_DISTRICT":"Silverton","LOCATION_SOURCE":"USGS MAS/MILS Database ","ASSAYS":"yes","PRODUCTION":"","COMMENTS":"Assays are in Bulletin 37."}},{"type":"Feature","id":643,"geometry":{"type":"Point","coordinates":[-121.3458,48.0161]},"properties":{"OBJECTID":643,"SITE_ID":1482,"SITE_NAME":"Lily of the West","ALTERNATE_NAMES":"","PRIMARY_COMMODITY":"Gold (Au)","COMMODITIES":"Gold","ORE_MINERALS":"Arsenopyrite","GANGUE":"","LOCATION_DESCRIPTION":"Just E of Goat Lake","LEGAL_DESCRIPTION":"sec. 11, T29N, R11E","LOCATION_ACCURACY":"coordinate accuracy highly variable","COUNTY":"Snohomish","LATITUDE":48.0161,"LONGITUDE":-121.3458,"MINING_DISTRICT":"Monte Cristo","LOCATION_SOURCE":"USGS MAS/MILS Database ","ASSAYS":"","PRODUCTION":"","COMMENTS":""}},{"type":"Feature","id":644,"geometry":{"type":"Point","coordinates":[-121.3325,48.0031]},"properties":{"OBJECTID":644,"SITE_ID":1483,"SITE_NAME":"Little Giant","ALTERNATE_NAMES":"","PRIMARY_COMMODITY":"Gold (Au)","COMMODITIES":"Gold, silver","ORE_MINERALS":"Sulfides","GANGUE":"","LOCATION_DESCRIPTION":"1 mi SE of Goat Lake at head of the basin","LEGAL_DESCRIPTION":"sec. 13, T29N, R11E","LOCATION_ACCURACY":"coordinate accuracy highly variable","COUNTY":"Snohomish","LATITUDE":48.0031,"LONGITUDE":-121.3325,"MINING_DISTRICT":"Monte Cristo","LOCATION_SOURCE":"USGS MAS/MILS Database ","ASSAYS":"","PRODUCTION":"","COMMENTS":""}},{"type":"Feature","id":645,"geometry":{"type":"Point","coordinates":[-121.4444,47.9294]},"properties":{"OBJECTID":645,"SITE_ID":1484,"SITE_NAME":"Lucky Joe","ALTERNATE_NAMES":"","PRIMARY_COMMODITY":"Gold (Au)","COMMODITIES":"Gold","ORE_MINERALS":"","GANGUE":"","LOCATION_DESCRIPTION":"Just W of Mineral City","LEGAL_DESCRIPTION":"sec. 7, T28N, R11E","LOCATION_ACCURACY":"coordinate accuracy highly variable","COUNTY":"Snohomish","LATITUDE":47.9294,"LONGITUDE":-121.4444,"MINING_DISTRICT":"Silver Creek","LOCATION_SOURCE":"USGS MAS/MILS Database ","ASSAYS":"yes","PRODUCTION":"","COMMENTS":"Assays are in Bulletin 37."}},{"type":"Feature","id":646,"geometry":{"type":"Point","coordinates":[-121.5636,48.0667]},"properties":{"OBJECTID":646,"SITE_ID":1485,"SITE_NAME":"Lulu","ALTERNATE_NAMES":"","PRIMARY_COMMODITY":"Gold (Au)","COMMODITIES":"Gold, silver, lead","ORE_MINERALS":"Arsenopyrite, galena","GANGUE":"","LOCATION_DESCRIPTION":"Across Silver Gulch from the Granite and Maud prospect","LEGAL_DESCRIPTION":"SE 1/4 of sec. 19, T30N, R10E","LOCATION_ACCURACY":"coordinate accuracy highly variable","COUNTY":"Snohomish","LATITUDE":48.0667,"LONGITUDE":-121.5636,"MINING_DISTRICT":"Silverton","LOCATION_SOURCE":"USGS MAS/MILS Database ","ASSAYS":"yes","PRODUCTION":"","COMMENTS":"Assays are in Bulletin 37."}},{"type":"Feature","id":647,"geometry":{"type":"Point","coordinates":[-121.4397,47.9261]},"properties":{"OBJECTID":647,"SITE_ID":1486,"SITE_NAME":"M and H No. 2","ALTERNATE_NAMES":"M & H No. 2","PRIMARY_COMMODITY":"Gold (Au)","COMMODITIES":"Gold, silver, copper","ORE_MINERALS":"","GANGUE":"","LOCATION_DESCRIPTION":"On W side of Silver Creek","LEGAL_DESCRIPTION":"sec. 7, T28N, R11E","LOCATION_ACCURACY":"coordinate accuracy highly variable","COUNTY":"Snohomish","LATITUDE":47.9261,"LONGITUDE":-121.4397,"MINING_DISTRICT":"","LOCATION_SOURCE":"USGS MAS/MILS Database ","ASSAYS":"yes","PRODUCTION":"","COMMENTS":"Assays are in Bulletin 37."}},{"type":"Feature","id":648,"geometry":{"type":"Point","coordinates":[-121.4292,47.9097]},"properties":{"OBJECTID":648,"SITE_ID":1487,"SITE_NAME":"Mayflower","ALTERNATE_NAMES":"","PRIMARY_COMMODITY":"Gold (Au)","COMMODITIES":"Gold","ORE_MINERALS":"Pyrite","GANGUE":"","LOCATION_DESCRIPTION":"","LEGAL_DESCRIPTION":"SW 1/4 of sec. 17, T28N, R11E","LOCATION_ACCURACY":"coordinate accuracy highly variable","COUNTY":"Snohomish","LATITUDE":47.9097,"LONGITUDE":-121.4292,"MINING_DISTRICT":"Silver Creek","LOCATION_SOURCE":"USGS MAS/MILS Database ","ASSAYS":"yes","PRODUCTION":"","COMMENTS":"Assays are in Bulletin 37."}},{"type":"Feature","id":649,"geometry":{"type":"Point","coordinates":[-121.4361,47.9139]},"properties":{"OBJECTID":649,"SITE_ID":1488,"SITE_NAME":"McKinley","ALTERNATE_NAMES":"","PRIMARY_COMMODITY":"Gold (Au)","COMMODITIES":"Gold","ORE_MINERALS":"Pyrite","GANGUE":"","LOCATION_DESCRIPTION":"On E side of Silver Creek","LEGAL_DESCRIPTION":"sec. 18, T28N, R11E","LOCATION_ACCURACY":"coordinate accuracy highly variable","COUNTY":"Snohomish","LATITUDE":47.9139,"LONGITUDE":-121.4361,"MINING_DISTRICT":"","LOCATION_SOURCE":"USGS MAS/MILS Database ","ASSAYS":"","PRODUCTION":"","COMMENTS":""}},{"type":"Feature","id":650,"geometry":{"type":"Point","coordinates":[-121.4389,47.9028]},"properties":{"OBJECTID":650,"SITE_ID":1489,"SITE_NAME":"Michigan","ALTERNATE_NAMES":"","PRIMARY_COMMODITY":"Gold (Au)","COMMODITIES":"Gold, silver, zinc","ORE_MINERALS":"Pyrite, sphalerite","GANGUE":"Quartz","LOCATION_DESCRIPTION":"On W side of Silver Creek","LEGAL_DESCRIPTION":"NE 1/4 of sec. 19, T28N, R11E","LOCATION_ACCURACY":"coordinate accuracy highly variable","COUNTY":"Snohomish","LATITUDE":47.9028,"LONGITUDE":-121.4389,"MINING_DISTRICT":"","LOCATION_SOURCE":"USGS MAS/MILS Database ","ASSAYS":"yes","PRODUCTION":"","COMMENTS":"Assays are in Bulletin 37."}},{"type":"Feature","id":651,"geometry":{"type":"Point","coordinates":[-121.4633,47.9597]},"properties":{"OBJECTID":651,"SITE_ID":1490,"SITE_NAME":"Miiki Maru","ALTERNATE_NAMES":"","PRIMARY_COMMODITY":"Gold (Au)","COMMODITIES":"Gold, silver, copper","ORE_MINERALS":"Chalcopyrite, pyrite","GANGUE":"","LOCATION_DESCRIPTION":"Just below Sheep Gap","LEGAL_DESCRIPTION":"sec. 36, T29N, R10E","LOCATION_ACCURACY":"coordinate accuracy highly variable","COUNTY":"Snohomish","LATITUDE":47.9597,"LONGITUDE":-121.4633,"MINING_DISTRICT":"Silver Creek","LOCATION_SOURCE":"USGS MAS/MILS Database ","ASSAYS":"yes","PRODUCTION":"","COMMENTS":"Assays are in Bulletin 37."}},{"type":"Feature","id":652,"geometry":{"type":"Point","coordinates":[-121.4242,47.9589]},"properties":{"OBJECTID":652,"SITE_ID":1491,"SITE_NAME":"Mineral Center","ALTERNATE_NAMES":"Bonanza, Edison, Louise, Washington-Iowa","PRIMARY_COMMODITY":"Gold (Au)","COMMODITIES":"Gold, copper, silver, lead, zinc","ORE_MINERALS":"Pyrite, chalcopyrite, malachite, azurite, galena, arsenopyrite, pyrrhotite, sphalerite, molybdenite","GANGUE":"Silicified rock","LOCATION_DESCRIPTION":"0.25 mi E of Red Gulch on N side of Silver Creek","LEGAL_DESCRIPTION":"W 1/2 of sec. 32, T29N, R11E","LOCATION_ACCURACY":"coordinate accuracy highly variable","COUNTY":"Snohomish","LATITUDE":47.9589,"LONGITUDE":-121.4242,"MINING_DISTRICT":"Silver Creek","LOCATION_SOURCE":"USGS MAS/MILS Database ","ASSAYS":"yes","PRODUCTION":"yes","COMMENTS":"Assays are in Bulletin 37 and in the scanned files. Production information is in OFR 90-18."}},{"type":"Feature","id":653,"geometry":{"type":"Point","coordinates":[-121.3986,47.9642]},"properties":{"OBJECTID":653,"SITE_ID":1492,"SITE_NAME":"Minnehaha","ALTERNATE_NAMES":"","PRIMARY_COMMODITY":"Gold (Au)","COMMODITIES":"Gold, silver","ORE_MINERALS":"Pyrite","GANGUE":"Quartz","LOCATION_DESCRIPTION":"On E side of the E Fork Silver Creek","LEGAL_DESCRIPTION":"sec. 33, T29N, R11E","LOCATION_ACCURACY":"coordinate accuracy highly variable","COUNTY":"Snohomish","LATITUDE":47.9642,"LONGITUDE":-121.3986,"MINING_DISTRICT":"","LOCATION_SOURCE":"USGS MAS/MILS Database ","ASSAYS":"yes","PRODUCTION":"","COMMENTS":"Assays are in Bulletin 37."}},{"type":"Feature","id":655,"geometry":{"type":"Point","coordinates":[-121.368619,47.981128]},"properties":{"OBJECTID":655,"SITE_ID":1494,"SITE_NAME":"Monte Cristo","ALTERNATE_NAMES":"Chord, Cord, Justice, Mystery, New Discovery, Pride, Pride of the Mountains, Pride of the woods","PRIMARY_COMMODITY":"Gold (Au)","COMMODITIES":"Gold, silver, lead, zinc, copper","ORE_MINERALS":"Chalcopyrite, galena, sphalerite, jamesonite, realgar","GANGUE":"Arsenopyrite, pyrite, quartz, calcite, epidote, blue soda-amphibole","LOCATION_DESCRIPTION":"1 mi E of Monte Cristo","LEGAL_DESCRIPTION":"sec. 26, T29N, R11E","LOCATION_ACCURACY":"GPS coordinates","COUNTY":"Snohomish","LATITUDE":47.981128,"LONGITUDE":-121.368619,"MINING_DISTRICT":"Monte Cristo","LOCATION_SOURCE":"IAML Database ","ASSAYS":"yes","PRODUCTION":"yes","COMMENTS":"Assays are in Bulletin 37. Production information is in Bulletin 37."}},{"type":"Feature","id":656,"geometry":{"type":"Point","coordinates":[-121.5589,48.0919]},"properties":{"OBJECTID":656,"SITE_ID":1495,"SITE_NAME":"Nemo","ALTERNATE_NAMES":"","PRIMARY_COMMODITY":"Gold (Au)","COMMODITIES":"Gold, silver, copper","ORE_MINERALS":"Chalcopyrite, arsenopyrite","GANGUE":"","LOCATION_DESCRIPTION":"","LEGAL_DESCRIPTION":"NW 1/4 of sec. 17, T30N, R10E","LOCATION_ACCURACY":"coordinate accuracy highly variable","COUNTY":"Snohomish","LATITUDE":48.0919,"LONGITUDE":-121.5589,"MINING_DISTRICT":"Silverton","LOCATION_SOURCE":"USGS MAS/MILS Database ","ASSAYS":"yes","PRODUCTION":"","COMMENTS":"Assays are in Bulletin 37."}},{"type":"Feature","id":657,"geometry":{"type":"Point","coordinates":[-121.4522,47.9872]},"properties":{"OBJECTID":657,"SITE_ID":1496,"SITE_NAME":"Northwest Consolidated","ALTERNATE_NAMES":"","PRIMARY_COMMODITY":"Gold (Au)","COMMODITIES":"Gold, silver, copper","ORE_MINERALS":"","GANGUE":"","LOCATION_DESCRIPTION":"On W side of Weden Creek","LEGAL_DESCRIPTION":"","LOCATION_ACCURACY":"coordinate accuracy highly variable","COUNTY":"Snohomish","LATITUDE":47.9872,"LONGITUDE":-121.4522,"MINING_DISTRICT":"Monte Cristo","LOCATION_SOURCE":"USGS MAS/MILS Database ","ASSAYS":"","PRODUCTION":"yes","COMMENTS":"Production information is in Bulletin 37."}},{"type":"Feature","id":658,"geometry":{"type":"Point","coordinates":[-121.51,48.0139]},"properties":{"OBJECTID":658,"SITE_ID":1497,"SITE_NAME":"Occidental","ALTERNATE_NAMES":"","PRIMARY_COMMODITY":"Gold (Au)","COMMODITIES":"Gold, silver, copper","ORE_MINERALS":"","GANGUE":"","LOCATION_DESCRIPTION":"On Vesper Peak","LEGAL_DESCRIPTION":"sec. 10, T29N, R10E","LOCATION_ACCURACY":"coordinate accuracy highly variable","COUNTY":"Snohomish","LATITUDE":48.0139,"LONGITUDE":-121.51,"MINING_DISTRICT":"","LOCATION_SOURCE":"USGS MAS/MILS Database ","ASSAYS":"","PRODUCTION":"","COMMENTS":""}},{"type":"Feature","id":659,"geometry":{"type":"Point","coordinates":[-121.390545,47.962788]},"properties":{"OBJECTID":659,"SITE_ID":1498,"SITE_NAME":"Orphan Boy","ALTERNATE_NAMES":"","PRIMARY_COMMODITY":"Gold (Au)","COMMODITIES":"Gold, silver","ORE_MINERALS":"","GANGUE":"","LOCATION_DESCRIPTION":"","LEGAL_DESCRIPTION":"NE 1/4 of sec. 33, T29N, R11E","LOCATION_ACCURACY":"coordinates estimated from legal description","COUNTY":"Snohomish","LATITUDE":47.9627876288863,"LONGITUDE":-121.390545261043,"MINING_DISTRICT":"Silver Creek","LOCATION_SOURCE":"Bulletin 37","ASSAYS":"","PRODUCTION":"","COMMENTS":""}},{"type":"Feature","id":660,"geometry":{"type":"Point","coordinates":[-121.3986,47.9861]},"properties":{"OBJECTID":660,"SITE_ID":1499,"SITE_NAME":"P. & I.","ALTERNATE_NAMES":"P & I","PRIMARY_COMMODITY":"Gold (Au)","COMMODITIES":"Gold, silver, copper","ORE_MINERALS":"Chalcopyrite, pyrite","GANGUE":"","LOCATION_DESCRIPTION":"","LEGAL_DESCRIPTION":"sec. 21, T29N, R11E","LOCATION_ACCURACY":"coordinate accuracy highly variable","COUNTY":"Snohomish","LATITUDE":47.9861,"LONGITUDE":-121.3986,"MINING_DISTRICT":"Monte Cristo","LOCATION_SOURCE":"USGS MAS/MILS Database ","ASSAYS":"yes","PRODUCTION":"","COMMENTS":"Assays are in Bulletin 37."}},{"type":"Feature","id":661,"geometry":{"type":"Point","coordinates":[-121.3769,47.9722]},"properties":{"OBJECTID":661,"SITE_ID":1500,"SITE_NAME":"Peabody","ALTERNATE_NAMES":"","PRIMARY_COMMODITY":"Gold (Au)","COMMODITIES":"Gold, silver, lead, zinc","ORE_MINERALS":"Arsenopyrite, pyrite, galena, sphalerite","GANGUE":"Quartz, altered andesite","LOCATION_DESCRIPTION":"On W slope of Wilmon Peak","LEGAL_DESCRIPTION":"NE 1/4 of sec. 27, T29N, R11E","LOCATION_ACCURACY":"coordinate accuracy highly variable","COUNTY":"Snohomish","LATITUDE":47.9722,"LONGITUDE":-121.3769,"MINING_DISTRICT":"Monte Cristo","LOCATION_SOURCE":"USGS MAS/MILS Database ","ASSAYS":"yes","PRODUCTION":"yes","COMMENTS":"Assays are in Bulletin 37. Production information is in Bulletin 37."}},{"type":"Feature","id":664,"geometry":{"type":"Point","coordinates":[-121.3911,47.9531]},"properties":{"OBJECTID":664,"SITE_ID":1503,"SITE_NAME":"Q. T.","ALTERNATE_NAMES":"","PRIMARY_COMMODITY":"Gold (Au)","COMMODITIES":"Gold, silver","ORE_MINERALS":"","GANGUE":"","LOCATION_DESCRIPTION":"","LEGAL_DESCRIPTION":"SE 1/4 of sec. 33, T29N, R11E","LOCATION_ACCURACY":"coordinate accuracy highly variable","COUNTY":"Snohomish","LATITUDE":47.9531,"LONGITUDE":-121.3911,"MINING_DISTRICT":"Silver Creek","LOCATION_SOURCE":"USGS MAS/MILS Database ","ASSAYS":"","PRODUCTION":"","COMMENTS":""}},{"type":"Feature","id":666,"geometry":{"type":"Point","coordinates":[-121.388925,47.986772]},"properties":{"OBJECTID":666,"SITE_ID":1505,"SITE_NAME":"Rainy","ALTERNATE_NAMES":"Ben Lomond","PRIMARY_COMMODITY":"Gold (Au)","COMMODITIES":"Gold, silver","ORE_MINERALS":"Arsenopyrite, pyrite","GANGUE":"Arsenopyrite, pyrite","LOCATION_DESCRIPTION":"0.25 mi NE of Monte Cristo","LEGAL_DESCRIPTION":"sec. 22, T29N, R11E","LOCATION_ACCURACY":"generally from USGS 7.5-minute topographic map","COUNTY":"Snohomish","LATITUDE":47.986772,"LONGITUDE":-121.388925,"MINING_DISTRICT":"","LOCATION_SOURCE":"Open File Report 90-18","ASSAYS":"yes","PRODUCTION":"yes","COMMENTS":"Assays are in Bulletin 37. Production information is in Bulletin 37."}},{"type":"Feature","id":667,"geometry":{"type":"Point","coordinates":[-121.4403,47.9303]},"properties":{"OBJECTID":667,"SITE_ID":1506,"SITE_NAME":"Red Cloud","ALTERNATE_NAMES":"","PRIMARY_COMMODITY":"Gold (Au)","COMMODITIES":"Gold, silver, lead","ORE_MINERALS":"Pyrite, cerussite","GANGUE":"","LOCATION_DESCRIPTION":"On W side of Silver Creek","LEGAL_DESCRIPTION":"sec. 6, T28N, R11E","LOCATION_ACCURACY":"coordinate accuracy highly variable","COUNTY":"Snohomish","LATITUDE":47.9303,"LONGITUDE":-121.4403,"MINING_DISTRICT":"","LOCATION_SOURCE":"USGS MAS/MILS Database ","ASSAYS":"","PRODUCTION":"","COMMENTS":""}},{"type":"Feature","id":668,"geometry":{"type":"Point","coordinates":[-121.3736,47.9389]},"properties":{"OBJECTID":668,"SITE_ID":1507,"SITE_NAME":"Remonille","ALTERNATE_NAMES":"","PRIMARY_COMMODITY":"Gold (Au)","COMMODITIES":"Gold","ORE_MINERALS":"Pyrite","GANGUE":"","LOCATION_DESCRIPTION":"","LEGAL_DESCRIPTION":"SE 1/4 of sec. 3, T28N, R11E","LOCATION_ACCURACY":"coordinate accuracy highly variable","COUNTY":"Snohomish","LATITUDE":47.9389,"LONGITUDE":-121.3736,"MINING_DISTRICT":"Silver Creek","LOCATION_SOURCE":"USGS MAS/MILS Database ","ASSAYS":"yes","PRODUCTION":"","COMMENTS":"Assays are in Bulletin 37."}},{"type":"Feature","id":669,"geometry":{"type":"Point","coordinates":[-121.44,47.9231]},"properties":{"OBJECTID":669,"SITE_ID":1508,"SITE_NAME":"Ruby King","ALTERNATE_NAMES":"","PRIMARY_COMMODITY":"Gold (Au)","COMMODITIES":"Gold, silver, copper, lead","ORE_MINERALS":"Arsenopyrite, chalcopyrite","GANGUE":"","LOCATION_DESCRIPTION":"On Cascade Gulch","LEGAL_DESCRIPTION":"SE 1/4 of sec. 7, T28N, R11E","LOCATION_ACCURACY":"coordinate accuracy highly variable","COUNTY":"Snohomish","LATITUDE":47.9231,"LONGITUDE":-121.44,"MINING_DISTRICT":"Silver Creek","LOCATION_SOURCE":"USGS MAS/MILS Database ","ASSAYS":"yes","PRODUCTION":"","COMMENTS":"Assays are in Bulletin 37."}},{"type":"Feature","id":670,"geometry":{"type":"Point","coordinates":[-121.3994,47.9708]},"properties":{"OBJECTID":670,"SITE_ID":1509,"SITE_NAME":"Seattle","ALTERNATE_NAMES":"","PRIMARY_COMMODITY":"Gold (Au)","COMMODITIES":"Gold, silver, copper","ORE_MINERALS":"","GANGUE":"","LOCATION_DESCRIPTION":"In Red Gulch","LEGAL_DESCRIPTION":"","LOCATION_ACCURACY":"coordinate accuracy highly variable","COUNTY":"Snohomish","LATITUDE":47.9708,"LONGITUDE":-121.3994,"MINING_DISTRICT":"Monte Cristo","LOCATION_SOURCE":"USGS MAS/MILS Database ","ASSAYS":"","PRODUCTION":"","COMMENTS":""}},{"type":"Feature","id":671,"geometry":{"type":"Point","coordinates":[-121.443011,47.914334]},"properties":{"OBJECTID":671,"SITE_ID":1510,"SITE_NAME":"Shirley","ALTERNATE_NAMES":"","PRIMARY_COMMODITY":"Gold (Au)","COMMODITIES":"Gold, silver, copper","ORE_MINERALS":"","GANGUE":"","LOCATION_DESCRIPTION":"1.5 mi N of Galena bridge","LEGAL_DESCRIPTION":"sec. 18, T28N, R11E","LOCATION_ACCURACY":"coordinates estimated from legal description","COUNTY":"Snohomish","LATITUDE":47.9143338590088,"LONGITUDE":-121.443011013915,"MINING_DISTRICT":"","LOCATION_SOURCE":"Bulletin 37","ASSAYS":"","PRODUCTION":"","COMMENTS":""}},{"type":"Feature","id":672,"geometry":{"type":"Point","coordinates":[-121.3847,47.9778]},"properties":{"OBJECTID":672,"SITE_ID":1511,"SITE_NAME":"Sidney","ALTERNATE_NAMES":"","PRIMARY_COMMODITY":"Gold (Au)","COMMODITIES":"Gold, silver, copper","ORE_MINERALS":"Pyrite, chalcopyrite","GANGUE":"Quartz","LOCATION_DESCRIPTION":"","LEGAL_DESCRIPTION":"sec. 27, T29N, R11E","LOCATION_ACCURACY":"coordinate accuracy highly variable","COUNTY":"Snohomish","LATITUDE":47.9778,"LONGITUDE":-121.3847,"MINING_DISTRICT":"Monte Cristo","LOCATION_SOURCE":"USGS MAS/MILS Database ","ASSAYS":"","PRODUCTION":"","COMMENTS":""}},{"type":"Feature","id":674,"geometry":{"type":"Point","coordinates":[-121.4011,47.9631]},"properties":{"OBJECTID":674,"SITE_ID":1513,"SITE_NAME":"Silver Lake","ALTERNATE_NAMES":"","PRIMARY_COMMODITY":"Gold (Au)","COMMODITIES":"Gold, silver, lead","ORE_MINERALS":"Pyrite, galena","GANGUE":"","LOCATION_DESCRIPTION":"On Silver Tip Mtn.","LEGAL_DESCRIPTION":"sec. 33, T29N, R11E","LOCATION_ACCURACY":"coordinate accuracy highly variable","COUNTY":"Snohomish","LATITUDE":47.9631,"LONGITUDE":-121.4011,"MINING_DISTRICT":"","LOCATION_SOURCE":"USGS MAS/MILS Database ","ASSAYS":"yes","PRODUCTION":"","COMMENTS":"Assays are in Bulletin 37."}},{"type":"Feature","id":675,"geometry":{"type":"Point","coordinates":[-121.3986,47.9661]},"properties":{"OBJECTID":675,"SITE_ID":1514,"SITE_NAME":"Silver Queen","ALTERNATE_NAMES":"","PRIMARY_COMMODITY":"Gold (Au)","COMMODITIES":"Gold, silver, lead, zinc","ORE_MINERALS":"Pyrite, galena, sphalerite","GANGUE":"","LOCATION_DESCRIPTION":"On E Fork of Silver Creek","LEGAL_DESCRIPTION":"secs. 28 and 33, T29N, R11E","LOCATION_ACCURACY":"coordinate accuracy highly variable","COUNTY":"Snohomish","LATITUDE":47.9661,"LONGITUDE":-121.3986,"MINING_DISTRICT":"","LOCATION_SOURCE":"USGS MAS/MILS Database ","ASSAYS":"yes","PRODUCTION":"","COMMENTS":"Assays are in Bulletin 37."}},{"type":"Feature","id":676,"geometry":{"type":"Point","coordinates":[-121.4503,47.9469]},"properties":{"OBJECTID":676,"SITE_ID":1515,"SITE_NAME":"Silver Slipper","ALTERNATE_NAMES":"","PRIMARY_COMMODITY":"Gold (Au)","COMMODITIES":"Gold, copper, silver","ORE_MINERALS":"Arsenopyrite, chalcopyrite, argentite","GANGUE":"","LOCATION_DESCRIPTION":"On W side of Silver Creek","LEGAL_DESCRIPTION":"NW 1/4 of sec. 6, T28N, R11E","LOCATION_ACCURACY":"coordinate accuracy highly variable","COUNTY":"Snohomish","LATITUDE":47.9469,"LONGITUDE":-121.4503,"MINING_DISTRICT":"","LOCATION_SOURCE":"USGS MAS/MILS Database ","ASSAYS":"yes","PRODUCTION":"","COMMENTS":"Assays are in Bulletin 37."}},{"type":"Feature","id":678,"geometry":{"type":"Point","coordinates":[-121.4389,47.9917]},"properties":{"OBJECTID":678,"SITE_ID":1517,"SITE_NAME":"Steele","ALTERNATE_NAMES":"","PRIMARY_COMMODITY":"Gold (Au)","COMMODITIES":"Gold","ORE_MINERALS":"Pyrite","GANGUE":"Quartz, calcite","LOCATION_DESCRIPTION":"","LEGAL_DESCRIPTION":"N 1/2 of sec. 19, T29N, R11E","LOCATION_ACCURACY":"coordinate accuracy highly variable","COUNTY":"Snohomish","LATITUDE":47.9917,"LONGITUDE":-121.4389,"MINING_DISTRICT":"Silver Creek","LOCATION_SOURCE":"USGS MAS/MILS Database ","ASSAYS":"","PRODUCTION":"","COMMENTS":""}},{"type":"Feature","id":680,"geometry":{"type":"Point","coordinates":[-121.34,48.0114]},"properties":{"OBJECTID":680,"SITE_ID":1520,"SITE_NAME":"Sunset","ALTERNATE_NAMES":"","PRIMARY_COMMODITY":"Gold (Au)","COMMODITIES":"Gold, silver","ORE_MINERALS":"Arsenopyrite, pyrite","GANGUE":"","LOCATION_DESCRIPTION":"About 0.5 mi S of Goat Lake","LEGAL_DESCRIPTION":"sec. 12, T29N, R11E","LOCATION_ACCURACY":"coordinate accuracy highly variable","COUNTY":"Snohomish","LATITUDE":48.0114,"LONGITUDE":-121.34,"MINING_DISTRICT":"","LOCATION_SOURCE":"USGS MAS/MILS Database ","ASSAYS":"yes","PRODUCTION":"","COMMENTS":"Assays are in Bulletin 37."}},{"type":"Feature","id":682,"geometry":{"type":"Point","coordinates":[-121.4181,47.9181]},"properties":{"OBJECTID":682,"SITE_ID":1522,"SITE_NAME":"Texas","ALTERNATE_NAMES":"","PRIMARY_COMMODITY":"Gold (Au)","COMMODITIES":"Gold, silver","ORE_MINERALS":"Arsenopyrite","GANGUE":"","LOCATION_DESCRIPTION":"","LEGAL_DESCRIPTION":"sec. 17, T28N, R11E","LOCATION_ACCURACY":"coordinate accuracy highly variable","COUNTY":"Snohomish","LATITUDE":47.9181,"LONGITUDE":-121.4181,"MINING_DISTRICT":"Silver Creek","LOCATION_SOURCE":"USGS MAS/MILS Database ","ASSAYS":"yes","PRODUCTION":"","COMMENTS":"Assays are in Bulletin 37."}},{"type":"Feature","id":683,"geometry":{"type":"Point","coordinates":[-121.5711,48.0878]},"properties":{"OBJECTID":683,"SITE_ID":1524,"SITE_NAME":"Three Sisters","ALTERNATE_NAMES":"","PRIMARY_COMMODITY":"Gold (Au)","COMMODITIES":"Gold, silver","ORE_MINERALS":"","GANGUE":"","LOCATION_DESCRIPTION":"","LEGAL_DESCRIPTION":"sec. 18, T30N, R10E","LOCATION_ACCURACY":"coordinate accuracy highly variable","COUNTY":"Snohomish","LATITUDE":48.0878,"LONGITUDE":-121.5711,"MINING_DISTRICT":"Silverton","LOCATION_SOURCE":"USGS MAS/MILS Database ","ASSAYS":"","PRODUCTION":"","COMMENTS":""}},{"type":"Feature","id":684,"geometry":{"type":"Point","coordinates":[-121.3594,48.0275]},"properties":{"OBJECTID":684,"SITE_ID":1525,"SITE_NAME":"Three Star","ALTERNATE_NAMES":"","PRIMARY_COMMODITY":"Gold (Au)","COMMODITIES":"Gold, silver","ORE_MINERALS":"Pyrite","GANGUE":"","LOCATION_DESCRIPTION":"About 0.5 mi W of Goat Lake","LEGAL_DESCRIPTION":"sec. 11, T29N, R11E","LOCATION_ACCURACY":"coordinate accuracy highly variable","COUNTY":"Snohomish","LATITUDE":48.0275,"LONGITUDE":-121.3594,"MINING_DISTRICT":"","LOCATION_SOURCE":"USGS MAS/MILS Database ","ASSAYS":"","PRODUCTION":"","COMMENTS":""}},{"type":"Feature","id":685,"geometry":{"type":"Point","coordinates":[-121.3908,47.9933]},"properties":{"OBJECTID":685,"SITE_ID":1526,"SITE_NAME":"Tobique and Lalla Rookh","ALTERNATE_NAMES":"Lalla Rookh, Tobique","PRIMARY_COMMODITY":"Gold (Au)","COMMODITIES":"Gold, silver, lead","ORE_MINERALS":"Pyrite, galena","GANGUE":"","LOCATION_DESCRIPTION":"Just N of the O and B mine","LEGAL_DESCRIPTION":"sec. 21, T29N, R11E","LOCATION_ACCURACY":"coordinate accuracy highly variable","COUNTY":"Snohomish","LATITUDE":47.9933,"LONGITUDE":-121.3908,"MINING_DISTRICT":"Monte Cristo","LOCATION_SOURCE":"USGS MAS/MILS Database ","ASSAYS":"yes","PRODUCTION":"","COMMENTS":"Assays are in Bulletin 37."}},{"type":"Feature","id":686,"geometry":{"type":"Point","coordinates":[-121.4406,47.9564]},"properties":{"OBJECTID":686,"SITE_ID":1527,"SITE_NAME":"Undaunted","ALTERNATE_NAMES":"","PRIMARY_COMMODITY":"Gold (Au)","COMMODITIES":"Gold, silver","ORE_MINERALS":"Pyrite","GANGUE":"","LOCATION_DESCRIPTION":"On Mineral Mtn.","LEGAL_DESCRIPTION":"sec. 31, T29N, R11E","LOCATION_ACCURACY":"coordinate accuracy highly variable","COUNTY":"Snohomish","LATITUDE":47.9564,"LONGITUDE":-121.4406,"MINING_DISTRICT":"","LOCATION_SOURCE":"USGS MAS/MILS Database ","ASSAYS":"yes","PRODUCTION":"","COMMENTS":"Assays are in Bulletin 37."}},{"type":"Feature","id":687,"geometry":{"type":"Point","coordinates":[-121.3392,48.0108]},"properties":{"OBJECTID":687,"SITE_ID":1528,"SITE_NAME":"Union","ALTERNATE_NAMES":"","PRIMARY_COMMODITY":"Gold (Au)","COMMODITIES":"Gold, silver","ORE_MINERALS":"Arsenopyrite, pyrite","GANGUE":"","LOCATION_DESCRIPTION":"0.25 mi E of the SE end of Goat Lake","LEGAL_DESCRIPTION":"sec. 12, T29N, R11E","LOCATION_ACCURACY":"coordinate accuracy highly variable","COUNTY":"Snohomish","LATITUDE":48.0108,"LONGITUDE":-121.3392,"MINING_DISTRICT":"","LOCATION_SOURCE":"USGS MAS/MILS Database ","ASSAYS":"","PRODUCTION":"","COMMENTS":""}},{"type":"Feature","id":689,"geometry":{"type":"Point","coordinates":[-121.4178,47.9739]},"properties":{"OBJECTID":689,"SITE_ID":1531,"SITE_NAME":"Whaleback","ALTERNATE_NAMES":"","PRIMARY_COMMODITY":"Gold (Au)","COMMODITIES":"Gold, silver, copper","ORE_MINERALS":"Chalcopyrite, pyrite","GANGUE":"","LOCATION_DESCRIPTION":"","LEGAL_DESCRIPTION":"sec. 29, T29N, R11E","LOCATION_ACCURACY":"coordinate accuracy highly variable","COUNTY":"Snohomish","LATITUDE":47.9739,"LONGITUDE":-121.4178,"MINING_DISTRICT":"Silver Creek","LOCATION_SOURCE":"USGS MAS/MILS Database ","ASSAYS":"yes","PRODUCTION":"","COMMENTS":"Assays are in Bulletin 37."}},{"type":"Feature","id":690,"geometry":{"type":"Point","coordinates":[-121.3894,47.9528]},"properties":{"OBJECTID":690,"SITE_ID":1532,"SITE_NAME":"Wildcat","ALTERNATE_NAMES":"","PRIMARY_COMMODITY":"Gold (Au)","COMMODITIES":"Gold, silver","ORE_MINERALS":"","GANGUE":"","LOCATION_DESCRIPTION":"","LEGAL_DESCRIPTION":"SE 1/4 of sec. 33, T29N, R11E","LOCATION_ACCURACY":"coordinate accuracy highly variable","COUNTY":"Snohomish","LATITUDE":47.9528,"LONGITUDE":-121.3894,"MINING_DISTRICT":"Silver Creek","LOCATION_SOURCE":"USGS MAS/MILS Database ","ASSAYS":"yes","PRODUCTION":"","COMMENTS":"Assays are in Bulletin 37."}},{"type":"Feature","id":691,"geometry":{"type":"Point","coordinates":[-121.373408,47.97538]},"properties":{"OBJECTID":691,"SITE_ID":1533,"SITE_NAME":"Wilmon Peak","ALTERNATE_NAMES":"","PRIMARY_COMMODITY":"Gold (Au)","COMMODITIES":"Gold","ORE_MINERALS":"","GANGUE":"","LOCATION_DESCRIPTION":"On Wilmon Peak","LEGAL_DESCRIPTION":"","LOCATION_ACCURACY":"coordinates estimated from location description","COUNTY":"Snohomish","LATITUDE":47.9753799245615,"LONGITUDE":-121.373407632097,"MINING_DISTRICT":"Monte Cristo","LOCATION_SOURCE":"Bulletin 37","ASSAYS":"","PRODUCTION":"","COMMENTS":""}},{"type":"Feature","id":692,"geometry":{"type":"Point","coordinates":[-121.5717,48.0717]},"properties":{"OBJECTID":692,"SITE_ID":1534,"SITE_NAME":"Winter Coon","ALTERNATE_NAMES":"","PRIMARY_COMMODITY":"Gold (Au)","COMMODITIES":"Gold, silver, copper, arsenic","ORE_MINERALS":"","GANGUE":"","LOCATION_DESCRIPTION":"","LEGAL_DESCRIPTION":"sec. 19, T30N, R10E","LOCATION_ACCURACY":"coordinate accuracy highly variable","COUNTY":"Snohomish","LATITUDE":48.0717,"LONGITUDE":-121.5717,"MINING_DISTRICT":"Silverton","LOCATION_SOURCE":"USGS MAS/MILS Database ","ASSAYS":"","PRODUCTION":"","COMMENTS":""}},{"type":"Feature","id":693,"geometry":{"type":"Point","coordinates":[-121.3958,47.9708]},"properties":{"OBJECTID":693,"SITE_ID":1536,"SITE_NAME":"Zeta","ALTERNATE_NAMES":"","PRIMARY_COMMODITY":"Gold (Au)","COMMODITIES":"Gold, silver, copper","ORE_MINERALS":"Pyrite, chalcopyrite, bornite","GANGUE":"","LOCATION_DESCRIPTION":"About 1 mi E of Silver Lake on the Monte Cristo side of the divide","LEGAL_DESCRIPTION":"sec. 34, T29N, R11E","LOCATION_ACCURACY":"coordinate accuracy highly variable","COUNTY":"Snohomish","LATITUDE":47.9708,"LONGITUDE":-121.3958,"MINING_DISTRICT":"","LOCATION_SOURCE":"USGS MAS/MILS Database ","ASSAYS":"yes","PRODUCTION":"","COMMENTS":"Assays are in Bulletin 37."}},{"type":"Feature","id":1034,"geometry":{"type":"Point","coordinates":[-121.8211,47.8561]},"properties":{"OBJECTID":1034,"SITE_ID":1938,"SITE_NAME":"Alder Placer","ALTERNATE_NAMES":"","PRIMARY_COMMODITY":"Gold (Au)","COMMODITIES":"Gold","ORE_MINERALS":"","GANGUE":"","LOCATION_DESCRIPTION":"","LEGAL_DESCRIPTION":"sec. 6, T27N, R8E","LOCATION_ACCURACY":"coordinate accuracy highly variable","COUNTY":"Snohomish","LATITUDE":47.8561,"LONGITUDE":-121.8211,"MINING_DISTRICT":"Sultan","LOCATION_SOURCE":"USGS MAS/MILS Database ","ASSAYS":"","PRODUCTION":"","COMMENTS":""}},{"type":"Feature","id":1035,"geometry":{"type":"Point","coordinates":[-121.5614,48.0375]},"properties":{"OBJECTID":1035,"SITE_ID":1939,"SITE_NAME":"Alpha and Beta Placers","ALTERNATE_NAMES":"Alpha, Beta Placers","PRIMARY_COMMODITY":"Gold (Au)","COMMODITIES":"Gold","ORE_MINERALS":"","GANGUE":"","LOCATION_DESCRIPTION":"","LEGAL_DESCRIPTION":"SW 1/4 of sec. 32 and SE 1/4 of sec. 31, T30N, R10E; E 1/2 of sec. 6, T29N, R10E","LOCATION_ACCURACY":"coordinate accuracy highly variable","COUNTY":"Snohomish","LATITUDE":48.0375,"LONGITUDE":-121.5614,"MINING_DISTRICT":"","LOCATION_SOURCE":"USGS MAS/MILS Database ","ASSAYS":"","PRODUCTION":"","COMMENTS":""}},{"type":"Feature","id":1036,"geometry":{"type":"Point","coordinates":[-121.8083,47.9153]},"properties":{"OBJECTID":1036,"SITE_ID":1940,"SITE_NAME":"Aristo Placer","ALTERNATE_NAMES":"","PRIMARY_COMMODITY":"Gold (Au)","COMMODITIES":"Gold","ORE_MINERALS":"","GANGUE":"","LOCATION_DESCRIPTION":"On Sultan River just below the mouth of Sultan River Canyon","LEGAL_DESCRIPTION":"sec. 17, T28N, R8E","LOCATION_ACCURACY":"coordinate accuracy highly variable","COUNTY":"Snohomish","LATITUDE":47.9153,"LONGITUDE":-121.8083,"MINING_DISTRICT":"","LOCATION_SOURCE":"USGS MAS/MILS Database ","ASSAYS":"","PRODUCTION":"yes","COMMENTS":"Production information is in Bulletin 37."}},{"type":"Feature","id":1037,"geometry":{"type":"Point","coordinates":[-121.4361,47.895]},"properties":{"OBJECTID":1037,"SITE_ID":1941,"SITE_NAME":"Bench Placer","ALTERNATE_NAMES":"","PRIMARY_COMMODITY":"Gold (Au)","COMMODITIES":"Gold","ORE_MINERALS":"","GANGUE":"","LOCATION_DESCRIPTION":"800 ft from junction of Silver Creek with N Fork of Skykomish River","LEGAL_DESCRIPTION":"sec. 19, T28N, R11E","LOCATION_ACCURACY":"coordinate accuracy highly variable","COUNTY":"Snohomish","LATITUDE":47.895,"LONGITUDE":-121.4361,"MINING_DISTRICT":"","LOCATION_SOURCE":"USGS MAS/MILS Database ","ASSAYS":"yes","PRODUCTION":"","COMMENTS":"Assays are in Bulletin 37."}},{"type":"Feature","id":1038,"geometry":{"type":"Point","coordinates":[-121.8017,47.9214]},"properties":{"OBJECTID":1038,"SITE_ID":1942,"SITE_NAME":"Bertha D. Placer","ALTERNATE_NAMES":"","PRIMARY_COMMODITY":"Gold (Au)","COMMODITIES":"Gold","ORE_MINERALS":"","GANGUE":"","LOCATION_DESCRIPTION":"","LEGAL_DESCRIPTION":"secs. 8 and 17, T28N, R8E","LOCATION_ACCURACY":"coordinate accuracy highly variable","COUNTY":"Snohomish","LATITUDE":47.9214,"LONGITUDE":-121.8017,"MINING_DISTRICT":"Sultan","LOCATION_SOURCE":"USGS MAS/MILS Database ","ASSAYS":"","PRODUCTION":"","COMMENTS":""}},{"type":"Feature","id":1039,"geometry":{"type":"Point","coordinates":[-121.7986,47.9486]},"properties":{"OBJECTID":1039,"SITE_ID":1943,"SITE_NAME":"Black Hawk Placer","ALTERNATE_NAMES":"","PRIMARY_COMMODITY":"Gold (Au)","COMMODITIES":"Gold","ORE_MINERALS":"","GANGUE":"","LOCATION_DESCRIPTION":"","LEGAL_DESCRIPTION":"N 1/2 of secs. 4 and 5, T28N, R8E","LOCATION_ACCURACY":"coordinate accuracy highly variable","COUNTY":"Snohomish","LATITUDE":47.9486,"LONGITUDE":-121.7986,"MINING_DISTRICT":"Sultan","LOCATION_SOURCE":"USGS MAS/MILS Database ","ASSAYS":"","PRODUCTION":"","COMMENTS":""}},{"type":"Feature","id":1040,"geometry":{"type":"Point","coordinates":[-121.3967,47.9878]},"properties":{"OBJECTID":1040,"SITE_ID":1944,"SITE_NAME":"Blake Placer","ALTERNATE_NAMES":"","PRIMARY_COMMODITY":"Gold (Au)","COMMODITIES":"Gold","ORE_MINERALS":"","GANGUE":"","LOCATION_DESCRIPTION":"","LEGAL_DESCRIPTION":"sec. 21, T29N, R11E","LOCATION_ACCURACY":"coordinate accuracy highly variable","COUNTY":"Snohomish","LATITUDE":47.9878,"LONGITUDE":-121.3967,"MINING_DISTRICT":"Monte Cristo","LOCATION_SOURCE":"USGS MAS/MILS Database ","ASSAYS":"","PRODUCTION":"","COMMENTS":""}},{"type":"Feature","id":1041,"geometry":{"type":"Point","coordinates":[-121.4342,47.8986]},"properties":{"OBJECTID":1041,"SITE_ID":1945,"SITE_NAME":"Bonnie Belle Placer","ALTERNATE_NAMES":"","PRIMARY_COMMODITY":"Gold (Au)","COMMODITIES":"Gold","ORE_MINERALS":"","GANGUE":"","LOCATION_DESCRIPTION":"9 mi from Index on N Fork of Skykomish River","LEGAL_DESCRIPTION":"secs. 19 and 20, T28N, R11E","LOCATION_ACCURACY":"coordinate accuracy highly variable","COUNTY":"Snohomish","LATITUDE":47.8986,"LONGITUDE":-121.4342,"MINING_DISTRICT":"","LOCATION_SOURCE":"USGS MAS/MILS Database ","ASSAYS":"","PRODUCTION":"","COMMENTS":""}},{"type":"Feature","id":1043,"geometry":{"type":"Point","coordinates":[-121.4056,47.9967]},"properties":{"OBJECTID":1043,"SITE_ID":1947,"SITE_NAME":"Condor Placer","ALTERNATE_NAMES":"","PRIMARY_COMMODITY":"Gold (Au)","COMMODITIES":"Gold","ORE_MINERALS":"","GANGUE":"","LOCATION_DESCRIPTION":"","LEGAL_DESCRIPTION":"sec. 16, T29N, R11E","LOCATION_ACCURACY":"coordinate accuracy highly variable","COUNTY":"Snohomish","LATITUDE":47.9967,"LONGITUDE":-121.4056,"MINING_DISTRICT":"Monte Cristo","LOCATION_SOURCE":"USGS MAS/MILS Database ","ASSAYS":"","PRODUCTION":"","COMMENTS":""}},{"type":"Feature","id":1045,"geometry":{"type":"Point","coordinates":[-121.3778,47.985]},"properties":{"OBJECTID":1045,"SITE_ID":1949,"SITE_NAME":"Cox Placer","ALTERNATE_NAMES":"","PRIMARY_COMMODITY":"Gold (Au)","COMMODITIES":"Gold","ORE_MINERALS":"","GANGUE":"","LOCATION_DESCRIPTION":"","LEGAL_DESCRIPTION":"sec. 22, T29N, R11E","LOCATION_ACCURACY":"coordinate accuracy highly variable","COUNTY":"Snohomish","LATITUDE":47.985,"LONGITUDE":-121.3778,"MINING_DISTRICT":"Monte Cristo","LOCATION_SOURCE":"USGS MAS/MILS Database ","ASSAYS":"","PRODUCTION":"","COMMENTS":""}},{"type":"Feature","id":1048,"geometry":{"type":"Point","coordinates":[-121.4361,47.8972]},"properties":{"OBJECTID":1048,"SITE_ID":1952,"SITE_NAME":"Dixie Placer","ALTERNATE_NAMES":"","PRIMARY_COMMODITY":"Gold (Au)","COMMODITIES":"Gold","ORE_MINERALS":"","GANGUE":"","LOCATION_DESCRIPTION":"","LEGAL_DESCRIPTION":"sec. 19, T28N, R11E","LOCATION_ACCURACY":"coordinate accuracy highly variable","COUNTY":"Snohomish","LATITUDE":47.8972,"LONGITUDE":-121.4361,"MINING_DISTRICT":"Silver Creek","LOCATION_SOURCE":"USGS MAS/MILS Database ","ASSAYS":"","PRODUCTION":"","COMMENTS":""}},{"type":"Feature","id":1050,"geometry":{"type":"Point","coordinates":[-121.4333,47.8967]},"properties":{"OBJECTID":1050,"SITE_ID":1954,"SITE_NAME":"Douglas Placer","ALTERNATE_NAMES":"","PRIMARY_COMMODITY":"Gold (Au)","COMMODITIES":"Gold","ORE_MINERALS":"","GANGUE":"","LOCATION_DESCRIPTION":"","LEGAL_DESCRIPTION":"sec. 20, T28N, R11E","LOCATION_ACCURACY":"coordinate accuracy highly variable","COUNTY":"Snohomish","LATITUDE":47.8967,"LONGITUDE":-121.4333,"MINING_DISTRICT":"Silver Creek","LOCATION_SOURCE":"USGS MAS/MILS Database ","ASSAYS":"","PRODUCTION":"","COMMENTS":""}},{"type":"Feature","id":1051,"geometry":{"type":"Point","coordinates":[-121.3994,47.9953]},"properties":{"OBJECTID":1051,"SITE_ID":1955,"SITE_NAME":"Emerson Placer","ALTERNATE_NAMES":"","PRIMARY_COMMODITY":"Gold (Au)","COMMODITIES":"Gold","ORE_MINERALS":"","GANGUE":"","LOCATION_DESCRIPTION":"","LEGAL_DESCRIPTION":"sec. 16, T29N, R11E","LOCATION_ACCURACY":"coordinate accuracy highly variable","COUNTY":"Snohomish","LATITUDE":47.9953,"LONGITUDE":-121.3994,"MINING_DISTRICT":"Monte Cristo","LOCATION_SOURCE":"USGS MAS/MILS Database ","ASSAYS":"","PRODUCTION":"","COMMENTS":""}},{"type":"Feature","id":1052,"geometry":{"type":"Point","coordinates":[-121.4011,48.0017]},"properties":{"OBJECTID":1052,"SITE_ID":1957,"SITE_NAME":"Franklin Placer","ALTERNATE_NAMES":"","PRIMARY_COMMODITY":"Gold (Au)","COMMODITIES":"Gold","ORE_MINERALS":"","GANGUE":"","LOCATION_DESCRIPTION":"","LEGAL_DESCRIPTION":"sec. 16, T29N, R11E","LOCATION_ACCURACY":"coordinate accuracy highly variable","COUNTY":"Snohomish","LATITUDE":48.0017,"LONGITUDE":-121.4011,"MINING_DISTRICT":"Monte Cristo","LOCATION_SOURCE":"USGS MAS/MILS Database ","ASSAYS":"","PRODUCTION":"","COMMENTS":""}},{"type":"Feature","id":1053,"geometry":{"type":"Point","coordinates":[-121.6914,47.8475]},"properties":{"OBJECTID":1053,"SITE_ID":1958,"SITE_NAME":"Gold Bar Placer","ALTERNATE_NAMES":"","PRIMARY_COMMODITY":"Gold (Au)","COMMODITIES":"Gold","ORE_MINERALS":"","GANGUE":"","LOCATION_DESCRIPTION":"On Skykomish River","LEGAL_DESCRIPTION":"secs. 6, 7, and 8, T27N, R9E","LOCATION_ACCURACY":"coordinate accuracy highly variable","COUNTY":"Snohomish","LATITUDE":47.8475,"LONGITUDE":-121.6914,"MINING_DISTRICT":"","LOCATION_SOURCE":"USGS MAS/MILS Database ","ASSAYS":"","PRODUCTION":"yes","COMMENTS":"Production information is in Bulletin 37 and in OFR 90-18."}},{"type":"Feature","id":1055,"geometry":{"type":"Point","coordinates":[-121.8017,47.9214]},"properties":{"OBJECTID":1055,"SITE_ID":1960,"SITE_NAME":"Helen Deahn Placer","ALTERNATE_NAMES":"","PRIMARY_COMMODITY":"Gold (Au)","COMMODITIES":"Gold","ORE_MINERALS":"","GANGUE":"","LOCATION_DESCRIPTION":"","LEGAL_DESCRIPTION":"secs. 8 and 17, T28N, R8E","LOCATION_ACCURACY":"coordinate accuracy highly variable","COUNTY":"Snohomish","LATITUDE":47.9214,"LONGITUDE":-121.8017,"MINING_DISTRICT":"Sultan","LOCATION_SOURCE":"USGS MAS/MILS Database ","ASSAYS":"","PRODUCTION":"","COMMENTS":""}},{"type":"Feature","id":1056,"geometry":{"type":"Point","coordinates":[-121.808197,47.928528]},"properties":{"OBJECTID":1056,"SITE_ID":1961,"SITE_NAME":"Horseshoe Bend Placer","ALTERNATE_NAMES":"","PRIMARY_COMMODITY":"Gold (Au)","COMMODITIES":"Gold","ORE_MINERALS":"Gold","GANGUE":"Sand, gravel","LOCATION_DESCRIPTION":"On Sultan River 5 mi N of the town of Sultan","LEGAL_DESCRIPTION":"sec. 8, T28N, R8E","LOCATION_ACCURACY":"generally from USGS 7.5-minute topographic map","COUNTY":"Snohomish","LATITUDE":47.928528,"LONGITUDE":-121.808197,"MINING_DISTRICT":"","LOCATION_SOURCE":"Open File Report 90-18","ASSAYS":"yes","PRODUCTION":"yes","COMMENTS":"Assays are in Bulletin 37. Production information is in Bulletin 37."}},{"type":"Feature","id":1057,"geometry":{"type":"Point","coordinates":[-121.4181,47.8667]},"properties":{"OBJECTID":1057,"SITE_ID":1962,"SITE_NAME":"Howard Placer","ALTERNATE_NAMES":"","PRIMARY_COMMODITY":"Gold (Au)","COMMODITIES":"Gold","ORE_MINERALS":"","GANGUE":"","LOCATION_DESCRIPTION":"On Howard Creek","LEGAL_DESCRIPTION":"NE 1/4 of sec. 5, T27N, R11E","LOCATION_ACCURACY":"coordinate accuracy highly variable","COUNTY":"Snohomish","LATITUDE":47.8667,"LONGITUDE":-121.4181,"MINING_DISTRICT":"","LOCATION_SOURCE":"USGS MAS/MILS Database ","ASSAYS":"","PRODUCTION":"","COMMENTS":""}},{"type":"Feature","id":1058,"geometry":{"type":"Point","coordinates":[-121.8222,47.8511]},"properties":{"OBJECTID":1058,"SITE_ID":1963,"SITE_NAME":"Ida Placer","ALTERNATE_NAMES":"","PRIMARY_COMMODITY":"Gold (Au)","COMMODITIES":"Gold","ORE_MINERALS":"","GANGUE":"","LOCATION_DESCRIPTION":"","LEGAL_DESCRIPTION":"sec. 6, T27N, R8E","LOCATION_ACCURACY":"coordinate accuracy highly variable","COUNTY":"Snohomish","LATITUDE":47.8511,"LONGITUDE":-121.8222,"MINING_DISTRICT":"Sultan","LOCATION_SOURCE":"USGS MAS/MILS Database ","ASSAYS":"","PRODUCTION":"","COMMENTS":""}},{"type":"Feature","id":1059,"geometry":{"type":"Point","coordinates":[-121.4019,48.0008]},"properties":{"OBJECTID":1059,"SITE_ID":1964,"SITE_NAME":"Jones Placer","ALTERNATE_NAMES":"","PRIMARY_COMMODITY":"Gold (Au)","COMMODITIES":"Gold","ORE_MINERALS":"","GANGUE":"","LOCATION_DESCRIPTION":"","LEGAL_DESCRIPTION":"sec. 16, T29N, R11E","LOCATION_ACCURACY":"coordinate accuracy highly variable","COUNTY":"Snohomish","LATITUDE":48.0008,"LONGITUDE":-121.4019,"MINING_DISTRICT":"Monte Cristo","LOCATION_SOURCE":"USGS MAS/MILS Database ","ASSAYS":"","PRODUCTION":"","COMMENTS":""}},{"type":"Feature","id":1060,"geometry":{"type":"Point","coordinates":[-121.4017,48.0025]},"properties":{"OBJECTID":1060,"SITE_ID":1965,"SITE_NAME":"Junctiion Placer","ALTERNATE_NAMES":"","PRIMARY_COMMODITY":"Gold (Au)","COMMODITIES":"Gold","ORE_MINERALS":"","GANGUE":"","LOCATION_DESCRIPTION":"","LEGAL_DESCRIPTION":"sec. 16, T29N, R11E","LOCATION_ACCURACY":"coordinate accuracy highly variable","COUNTY":"Snohomish","LATITUDE":48.0025,"LONGITUDE":-121.4017,"MINING_DISTRICT":"Monte Cristo","LOCATION_SOURCE":"USGS MAS/MILS Database ","ASSAYS":"","PRODUCTION":"","COMMENTS":""}},{"type":"Feature","id":1061,"geometry":{"type":"Point","coordinates":[-121.3803,47.9839]},"properties":{"OBJECTID":1061,"SITE_ID":1966,"SITE_NAME":"Junction Nos. 1 to 3 Placer","ALTERNATE_NAMES":"","PRIMARY_COMMODITY":"Gold (Au)","COMMODITIES":"Gold","ORE_MINERALS":"","GANGUE":"","LOCATION_DESCRIPTION":"","LEGAL_DESCRIPTION":"sec. 22, T29N, R11E","LOCATION_ACCURACY":"coordinate accuracy highly variable","COUNTY":"Snohomish","LATITUDE":47.9839,"LONGITUDE":-121.3803,"MINING_DISTRICT":"Monte Cristo","LOCATION_SOURCE":"USGS MAS/MILS Database ","ASSAYS":"","PRODUCTION":"","COMMENTS":""}},{"type":"Feature","id":1062,"geometry":{"type":"Point","coordinates":[-121.4181,47.8972]},"properties":{"OBJECTID":1062,"SITE_ID":1967,"SITE_NAME":"Leon Placer","ALTERNATE_NAMES":"","PRIMARY_COMMODITY":"Gold (Au)","COMMODITIES":"Gold","ORE_MINERALS":"","GANGUE":"","LOCATION_DESCRIPTION":"","LEGAL_DESCRIPTION":"sec. 20, T28N, R11E","LOCATION_ACCURACY":"coordinate accuracy highly variable","COUNTY":"Snohomish","LATITUDE":47.8972,"LONGITUDE":-121.4181,"MINING_DISTRICT":"Silver Creek","LOCATION_SOURCE":"USGS MAS/MILS Database ","ASSAYS":"","PRODUCTION":"","COMMENTS":""}},{"type":"Feature","id":1063,"geometry":{"type":"Point","coordinates":[-121.5664,47.8158]},"properties":{"OBJECTID":1063,"SITE_ID":1968,"SITE_NAME":"Line a Little Placer","ALTERNATE_NAMES":"","PRIMARY_COMMODITY":"Gold (Au)","COMMODITIES":"Gold","ORE_MINERALS":"","GANGUE":"","LOCATION_DESCRIPTION":"On the N side of the N Fork of Skykomish River about 0.5 mi W of Index","LEGAL_DESCRIPTION":"NE 1/4 of sec. 19, T27N, R10E","LOCATION_ACCURACY":"coordinate accuracy highly variable","COUNTY":"Snohomish","LATITUDE":47.8158,"LONGITUDE":-121.5664,"MINING_DISTRICT":"","LOCATION_SOURCE":"USGS MAS/MILS Database ","ASSAYS":"","PRODUCTION":"","COMMENTS":""}},{"type":"Feature","id":1064,"geometry":{"type":"Point","coordinates":[-121.3953,47.9989]},"properties":{"OBJECTID":1064,"SITE_ID":1969,"SITE_NAME":"Lockwood Placer","ALTERNATE_NAMES":"","PRIMARY_COMMODITY":"Gold (Au)","COMMODITIES":"Gold","ORE_MINERALS":"","GANGUE":"","LOCATION_DESCRIPTION":"","LEGAL_DESCRIPTION":"sec. 16, T29N, R11E","LOCATION_ACCURACY":"coordinate accuracy highly variable","COUNTY":"Snohomish","LATITUDE":47.9989,"LONGITUDE":-121.3953,"MINING_DISTRICT":"Monte Cristo","LOCATION_SOURCE":"USGS MAS/MILS Database ","ASSAYS":"","PRODUCTION":"","COMMENTS":""}},{"type":"Feature","id":1065,"geometry":{"type":"Point","coordinates":[-121.8017,47.9214]},"properties":{"OBJECTID":1065,"SITE_ID":1970,"SITE_NAME":"Merry Mixer Placer","ALTERNATE_NAMES":"","PRIMARY_COMMODITY":"Gold (Au)","COMMODITIES":"Gold","ORE_MINERALS":"","GANGUE":"","LOCATION_DESCRIPTION":"","LEGAL_DESCRIPTION":"secs. 8 and 17, T28N, R8E","LOCATION_ACCURACY":"coordinate accuracy highly variable","COUNTY":"Snohomish","LATITUDE":47.9214,"LONGITUDE":-121.8017,"MINING_DISTRICT":"Sultan","LOCATION_SOURCE":"USGS MAS/MILS Database ","ASSAYS":"","PRODUCTION":"","COMMENTS":""}},{"type":"Feature","id":1066,"geometry":{"type":"Point","coordinates":[-121.8017,47.9214]},"properties":{"OBJECTID":1066,"SITE_ID":1971,"SITE_NAME":"Mom and Pop Placer","ALTERNATE_NAMES":"Mom, Pop Placer","PRIMARY_COMMODITY":"Gold (Au)","COMMODITIES":"Gold","ORE_MINERALS":"","GANGUE":"","LOCATION_DESCRIPTION":"","LEGAL_DESCRIPTION":"secs. 8 and 17, T28N, R8E","LOCATION_ACCURACY":"coordinate accuracy highly variable","COUNTY":"Snohomish","LATITUDE":47.9214,"LONGITUDE":-121.8017,"MINING_DISTRICT":"Sultan","LOCATION_SOURCE":"USGS MAS/MILS Database ","ASSAYS":"","PRODUCTION":"","COMMENTS":""}},{"type":"Feature","id":1068,"geometry":{"type":"Point","coordinates":[-121.3964,47.9983]},"properties":{"OBJECTID":1068,"SITE_ID":1973,"SITE_NAME":"Orient Placer","ALTERNATE_NAMES":"","PRIMARY_COMMODITY":"Gold (Au)","COMMODITIES":"Gold","ORE_MINERALS":"","GANGUE":"","LOCATION_DESCRIPTION":"","LEGAL_DESCRIPTION":"sec. 16, T29N, R11E","LOCATION_ACCURACY":"coordinate accuracy highly variable","COUNTY":"Snohomish","LATITUDE":47.9983,"LONGITUDE":-121.3964,"MINING_DISTRICT":"Monte Cristo","LOCATION_SOURCE":"USGS MAS/MILS Database ","ASSAYS":"","PRODUCTION":"","COMMENTS":""}},{"type":"Feature","id":1070,"geometry":{"type":"Point","coordinates":[-121.4325,47.8864]},"properties":{"OBJECTID":1070,"SITE_ID":1975,"SITE_NAME":"Phoenix Placer","ALTERNATE_NAMES":"","PRIMARY_COMMODITY":"Gold (Au)","COMMODITIES":"Gold","ORE_MINERALS":"","GANGUE":"","LOCATION_DESCRIPTION":"On Howard Creek","LEGAL_DESCRIPTION":"NW 1/4 of sec. 29, T28N, R11E","LOCATION_ACCURACY":"coordinate accuracy highly variable","COUNTY":"Snohomish","LATITUDE":47.8864,"LONGITUDE":-121.4325,"MINING_DISTRICT":"","LOCATION_SOURCE":"USGS MAS/MILS Database ","ASSAYS":"","PRODUCTION":"","COMMENTS":""}},{"type":"Feature","id":1071,"geometry":{"type":"Point","coordinates":[-121.8017,47.9214]},"properties":{"OBJECTID":1071,"SITE_ID":1976,"SITE_NAME":"Pork Barrel Placer","ALTERNATE_NAMES":"","PRIMARY_COMMODITY":"Gold (Au)","COMMODITIES":"Gold","ORE_MINERALS":"","GANGUE":"","LOCATION_DESCRIPTION":"","LEGAL_DESCRIPTION":"secs. 8 and 17, T28N, R8E","LOCATION_ACCURACY":"coordinate accuracy highly variable","COUNTY":"Snohomish","LATITUDE":47.9214,"LONGITUDE":-121.8017,"MINING_DISTRICT":"Sultan","LOCATION_SOURCE":"USGS MAS/MILS Database ","ASSAYS":"","PRODUCTION":"","COMMENTS":""}},{"type":"Feature","id":1072,"geometry":{"type":"Point","coordinates":[-121.706252,47.971141]},"properties":{"OBJECTID":1072,"SITE_ID":1977,"SITE_NAME":"Sailors Bar Placer","ALTERNATE_NAMES":"","PRIMARY_COMMODITY":"Gold (Au)","COMMODITIES":"Gold","ORE_MINERALS":"","GANGUE":"","LOCATION_DESCRIPTION":"On Sultan River","LEGAL_DESCRIPTION":"","LOCATION_ACCURACY":"coordinates estimated from location description","COUNTY":"Snohomish","LATITUDE":47.9711405087954,"LONGITUDE":-121.706251840581,"MINING_DISTRICT":"","LOCATION_SOURCE":"Bulletin 37","ASSAYS":"","PRODUCTION":"yes","COMMENTS":"Production information is in Bulletin 37."}},{"type":"Feature","id":1073,"geometry":{"type":"Point","coordinates":[-121.4375,47.8931]},"properties":{"OBJECTID":1073,"SITE_ID":1978,"SITE_NAME":"Shirley Placer","ALTERNATE_NAMES":"","PRIMARY_COMMODITY":"Gold (Au)","COMMODITIES":"Gold","ORE_MINERALS":"","GANGUE":"","LOCATION_DESCRIPTION":"On the N Fork of Skykomish River near Galena","LEGAL_DESCRIPTION":"","LOCATION_ACCURACY":"coordinate accuracy highly variable","COUNTY":"Snohomish","LATITUDE":47.8931,"LONGITUDE":-121.4375,"MINING_DISTRICT":"","LOCATION_SOURCE":"USGS MAS/MILS Database ","ASSAYS":"","PRODUCTION":"yes","COMMENTS":"Production information is in Bulletin 37 and in OFR 90-18."}},{"type":"Feature","id":1075,"geometry":{"type":"Point","coordinates":[-121.7986,47.9472]},"properties":{"OBJECTID":1075,"SITE_ID":1980,"SITE_NAME":"Sultan Canyon Placer","ALTERNATE_NAMES":"McCloud","PRIMARY_COMMODITY":"Gold (Au)","COMMODITIES":"Gold","ORE_MINERALS":"","GANGUE":"","LOCATION_DESCRIPTION":"","LEGAL_DESCRIPTION":"SE 1/4 of the SE 1/4 of sec. 32, T29N, R8E; NE 1/4 of sec. 5, T28N, R8E","LOCATION_ACCURACY":"coordinate accuracy highly variable","COUNTY":"Snohomish","LATITUDE":47.9472,"LONGITUDE":-121.7986,"MINING_DISTRICT":"","LOCATION_SOURCE":"USGS MAS/MILS Database ","ASSAYS":"","PRODUCTION":"yes","COMMENTS":"Production information is in Bulletin 37."}},{"type":"Feature","id":1076,"geometry":{"type":"Point","coordinates":[-121.817475,47.860583]},"properties":{"OBJECTID":1076,"SITE_ID":1981,"SITE_NAME":"Sultan Placer","ALTERNATE_NAMES":"","PRIMARY_COMMODITY":"Gold (Au)","COMMODITIES":"Gold","ORE_MINERALS":"Gold","GANGUE":"Sand, gravel","LOCATION_DESCRIPTION":"On Skykomish River, S of the town of Sultan","LEGAL_DESCRIPTION":"NW 1/4 of sec. 5, T27N, R8E","LOCATION_ACCURACY":"generally from USGS 7.5-minute topographic map","COUNTY":"Snohomish","LATITUDE":47.860583,"LONGITUDE":-121.817475,"MINING_DISTRICT":"","LOCATION_SOURCE":"Open File Report 90-18","ASSAYS":"","PRODUCTION":"yes","COMMENTS":"Production information is in Bulletin 37."}},{"type":"Feature","id":1077,"geometry":{"type":"Point","coordinates":[-121.827845,47.870793]},"properties":{"OBJECTID":1077,"SITE_ID":1982,"SITE_NAME":"Sultan River Placer","ALTERNATE_NAMES":"","PRIMARY_COMMODITY":"Gold (Au)","COMMODITIES":"Gold","ORE_MINERALS":"","GANGUE":"","LOCATION_DESCRIPTION":"On Sultan River at W edge of the town of Sultan","LEGAL_DESCRIPTION":"sec. 31 probable, T28N, R8E","LOCATION_ACCURACY":"coordinates estimated from legal description","COUNTY":"Snohomish","LATITUDE":47.8707930836625,"LONGITUDE":-121.82784543197,"MINING_DISTRICT":"","LOCATION_SOURCE":"Bulletin 37","ASSAYS":"","PRODUCTION":"yes","COMMENTS":"Production information is in Bulletin 37."}},{"type":"Feature","id":1078,"geometry":{"type":"Point","coordinates":[-121.8278,47.8694]},"properties":{"OBJECTID":1078,"SITE_ID":1983,"SITE_NAME":"Sultan River Placers","ALTERNATE_NAMES":"","PRIMARY_COMMODITY":"Gold (Au)","COMMODITIES":"Gold","ORE_MINERALS":"","GANGUE":"","LOCATION_DESCRIPTION":"Along Sultan River from its source to its mouth","LEGAL_DESCRIPTION":"","LOCATION_ACCURACY":"coordinate accuracy highly variable","COUNTY":"Snohomish","LATITUDE":47.8694,"LONGITUDE":-121.8278,"MINING_DISTRICT":"","LOCATION_SOURCE":"USGS MAS/MILS Database ","ASSAYS":"yes","PRODUCTION":"","COMMENTS":"Assays are in Bulletin 37."}},{"type":"Feature","id":1079,"geometry":{"type":"Point","coordinates":[-121.772078,47.883769]},"properties":{"OBJECTID":1079,"SITE_ID":1984,"SITE_NAME":"Young Placer","ALTERNATE_NAMES":"","PRIMARY_COMMODITY":"Gold (Au)","COMMODITIES":"Gold","ORE_MINERALS":"","GANGUE":"","LOCATION_DESCRIPTION":"Near Sultan","LEGAL_DESCRIPTION":"","LOCATION_ACCURACY":"coordinates estimated from location description","COUNTY":"Snohomish","LATITUDE":47.8837691929873,"LONGITUDE":-121.772077590917,"MINING_DISTRICT":"","LOCATION_SOURCE":"Bulletin 37","ASSAYS":"","PRODUCTION":"","COMMENTS":""}},{"type":"Feature","id":1080,"geometry":{"type":"Point","coordinates":[-121.7972,47.9431]},"properties":{"OBJECTID":1080,"SITE_ID":1985,"SITE_NAME":"Yreka Placer","ALTERNATE_NAMES":"","PRIMARY_COMMODITY":"Gold (Au)","COMMODITIES":"Gold","ORE_MINERALS":"","GANGUE":"","LOCATION_DESCRIPTION":"","LEGAL_DESCRIPTION":"sec. 5, T28N, R8E","LOCATION_ACCURACY":"coordinate accuracy highly variable","COUNTY":"Snohomish","LATITUDE":47.9431,"LONGITUDE":-121.7972,"MINING_DISTRICT":"Sultan","LOCATION_SOURCE":"USGS MAS/MILS Database ","ASSAYS":"","PRODUCTION":"","COMMENTS":""}},{"type":"Feature","id":1132,"geometry":{"type":"Point","coordinates":[-121.716667,47.962917]},"properties":{"OBJECTID":1132,"SITE_ID":2121,"SITE_NAME":"Lockwood Pyrite","ALTERNATE_NAMES":"","PRIMARY_COMMODITY":"Gold (Au)","COMMODITIES":"Gold, zinc, copper, iron, sulfer, silver","ORE_MINERALS":"Sphalerite, chalcopyrite, pyrite","GANGUE":"Pyrite, barite","LOCATION_DESCRIPTION":"","LEGAL_DESCRIPTION":"NE 1/4 of sec. 36, T29N, R8E","LOCATION_ACCURACY":"generally from USGS 7.5-minute topographic map","COUNTY":"Snohomish","LATITUDE":47.962917,"LONGITUDE":-121.716667,"MINING_DISTRICT":"Sultan","LOCATION_SOURCE":"Open File Report 90-18","ASSAYS":"yes","PRODUCTION":"","COMMENTS":"Assays are in Bulletin 37 and in the scanned files."}},{"type":"Feature","id":1345,"geometry":{"type":"Point","coordinates":[-121.3947,47.9375]},"properties":{"OBJECTID":1345,"SITE_ID":3146,"SITE_NAME":"Corona","ALTERNATE_NAMES":"","PRIMARY_COMMODITY":"Silver (Ag)","COMMODITIES":"Silver, gold","ORE_MINERALS":"","GANGUE":"","LOCATION_DESCRIPTION":"","LEGAL_DESCRIPTION":"sec. 10, T28N, R11E","LOCATION_ACCURACY":"coordinate accuracy highly variable","COUNTY":"Snohomish","LATITUDE":47.9375,"LONGITUDE":-121.3947,"MINING_DISTRICT":"Silver Creek","LOCATION_SOURCE":"USGS MAS/MILS Database ","ASSAYS":"yes","PRODUCTION":"","COMMENTS":"Assays are in Bulletin 37."}},{"type":"Feature","id":1346,"geometry":{"type":"Point","coordinates":[-121.4528,47.9189]},"properties":{"OBJECTID":1346,"SITE_ID":3147,"SITE_NAME":"Editor","ALTERNATE_NAMES":"","PRIMARY_COMMODITY":"Silver (Ag)","COMMODITIES":"Silver, lead","ORE_MINERALS":"Galena","GANGUE":"","LOCATION_DESCRIPTION":"At the head of Pole Gulch","LEGAL_DESCRIPTION":"sec. 18, T28N, R11E","LOCATION_ACCURACY":"coordinate accuracy highly variable","COUNTY":"Snohomish","LATITUDE":47.9189,"LONGITUDE":-121.4528,"MINING_DISTRICT":"Silver Creek","LOCATION_SOURCE":"USGS MAS/MILS Database ","ASSAYS":"yes","PRODUCTION":"","COMMENTS":"Assays are in Bulletin 37."}},{"type":"Feature","id":1348,"geometry":{"type":"Point","coordinates":[-121.550444,48.057192]},"properties":{"OBJECTID":1348,"SITE_ID":3149,"SITE_NAME":"45 Mine","ALTERNATE_NAMES":"\"45\", Magus","PRIMARY_COMMODITY":"Silver (Ag)","COMMODITIES":"Silver, lead, gold, zinc, copper, tungsten","ORE_MINERALS":"Galena, pyrargyrite, sphalerite, chalcopyrite, scheelite, tetrahedrite","GANGUE":"Arsenopyrite, pyrite, pyrrhotite, quartz, calcite","LOCATION_DESCRIPTION":"","LEGAL_DESCRIPTION":"secs. 29 and 30, T30N, R10E","LOCATION_ACCURACY":"generally from USGS 7.5-minute topographic map","COUNTY":"Snohomish","LATITUDE":48.057192,"LONGITUDE":-121.550444,"MINING_DISTRICT":"","LOCATION_SOURCE":"Open File Report 90-18","ASSAYS":"yes","PRODUCTION":"yes","COMMENTS":"Assays are in Bulletin 37. Production information is in Bulletin 37."}},{"type":"Feature","id":1349,"geometry":{"type":"Point","coordinates":[-121.5789,48.0886]},"properties":{"OBJECTID":1349,"SITE_ID":3150,"SITE_NAME":"Glengarry","ALTERNATE_NAMES":"","PRIMARY_COMMODITY":"Silver (Ag)","COMMODITIES":"Silver, gold, copper","ORE_MINERALS":"Tetrahedrite","GANGUE":"","LOCATION_DESCRIPTION":"NW of Silverton near the Three Sisters prospect","LEGAL_DESCRIPTION":"sec. 18, T30N, R10E","LOCATION_ACCURACY":"coordinate accuracy highly variable","COUNTY":"Snohomish","LATITUDE":48.0886,"LONGITUDE":-121.5789,"MINING_DISTRICT":"Silverton","LOCATION_SOURCE":"USGS MAS/MILS Database ","ASSAYS":"yes","PRODUCTION":"","COMMENTS":"Assays are in Bulletin 37."}},{"type":"Feature","id":1351,"geometry":{"type":"Point","coordinates":[-121.4872,47.9336]},"properties":{"OBJECTID":1351,"SITE_ID":3153,"SITE_NAME":"Jones","ALTERNATE_NAMES":"","PRIMARY_COMMODITY":"Silver (Ag)","COMMODITIES":"Reportedly silver, lead","ORE_MINERALS":"","GANGUE":"","LOCATION_DESCRIPTION":"On Elk Creek about 5 mi above confluence with N Fork Sultan River","LEGAL_DESCRIPTION":"center N 1/2 of sec. 11, T28N, R10E","LOCATION_ACCURACY":"coordinate accuracy highly variable","COUNTY":"Snohomish","LATITUDE":47.9336,"LONGITUDE":-121.4872,"MINING_DISTRICT":"","LOCATION_SOURCE":"USGS MAS/MILS Database ","ASSAYS":"","PRODUCTION":"","COMMENTS":""}},{"type":"Feature","id":1352,"geometry":{"type":"Point","coordinates":[-121.4389,47.9908]},"properties":{"OBJECTID":1352,"SITE_ID":3154,"SITE_NAME":"Le Roy","ALTERNATE_NAMES":"","PRIMARY_COMMODITY":"Silver (Ag)","COMMODITIES":"Silver, lead, plutonium, gold","ORE_MINERALS":"","GANGUE":"","LOCATION_DESCRIPTION":"","LEGAL_DESCRIPTION":"N 1/2 of sec. 19, T29N, R11E","LOCATION_ACCURACY":"coordinate accuracy highly variable","COUNTY":"Snohomish","LATITUDE":47.9908,"LONGITUDE":-121.4389,"MINING_DISTRICT":"Silver Creek","LOCATION_SOURCE":"USGS MAS/MILS Database ","ASSAYS":"","PRODUCTION":"","COMMENTS":""}},{"type":"Feature","id":1354,"geometry":{"type":"Point","coordinates":[-121.5344,48.0383]},"properties":{"OBJECTID":1354,"SITE_ID":3156,"SITE_NAME":"Silver Horseshoe","ALTERNATE_NAMES":"","PRIMARY_COMMODITY":"Silver (Ag)","COMMODITIES":"Silver, lead, gold, zinc, copper","ORE_MINERALS":"Galena, sphalerite, chalcopyrite, pyrite, arsenopyrite, pyrrhotite, scheelite, molybdenite","GANGUE":"Quartz, calcite, gouge","LOCATION_DESCRIPTION":"","LEGAL_DESCRIPTION":"SW 1/4 of sec. 33, T30N, R10E","LOCATION_ACCURACY":"coordinate accuracy highly variable","COUNTY":"Snohomish","LATITUDE":48.0383,"LONGITUDE":-121.5344,"MINING_DISTRICT":"","LOCATION_SOURCE":"USGS MAS/MILS Database ","ASSAYS":"yes","PRODUCTION":"","COMMENTS":"Assays are in Bulletin 37."}},{"type":"Feature","id":1355,"geometry":{"type":"Point","coordinates":[-121.3961,47.9331]},"properties":{"OBJECTID":1355,"SITE_ID":3157,"SITE_NAME":"Troublesome Pass","ALTERNATE_NAMES":"","PRIMARY_COMMODITY":"Silver (Ag)","COMMODITIES":"Silver, gold","ORE_MINERALS":"","GANGUE":"","LOCATION_DESCRIPTION":"At Troublesome Pass 0.5 mi E of Hubbart Peak","LEGAL_DESCRIPTION":"","LOCATION_ACCURACY":"coordinate accuracy highly variable","COUNTY":"Snohomish","LATITUDE":47.9331,"LONGITUDE":-121.3961,"MINING_DISTRICT":"","LOCATION_SOURCE":"USGS MAS/MILS Database ","ASSAYS":"yes","PRODUCTION":"","COMMENTS":"Assays are in Bulletin 37."}},{"type":"Feature","id":1356,"geometry":{"type":"Point","coordinates":[-121.3772,47.9706]},"properties":{"OBJECTID":1356,"SITE_ID":3158,"SITE_NAME":"Twentieth Century","ALTERNATE_NAMES":"","PRIMARY_COMMODITY":"Silver (Ag)","COMMODITIES":"Silver, gold","ORE_MINERALS":"","GANGUE":"","LOCATION_DESCRIPTION":"","LEGAL_DESCRIPTION":"sec. 27, T29N, R11E","LOCATION_ACCURACY":"coordinate accuracy highly variable","COUNTY":"Snohomish","LATITUDE":47.9706,"LONGITUDE":-121.3772,"MINING_DISTRICT":"Monte Cristo","LOCATION_SOURCE":"USGS MAS/MILS Database ","ASSAYS":"","PRODUCTION":"","COMMENTS":""}},{"type":"Feature","id":1446,"geometry":{"type":"Point","coordinates":[-121.338,48.0047]},"properties":{"OBJECTID":1446,"SITE_ID":3993,"SITE_NAME":"Monte Cristo Mining District","ALTERNATE_NAMES":"Monte Cristo District","PRIMARY_COMMODITY":"Gold (Au)","COMMODITIES":"Gold","ORE_MINERALS":"","GANGUE":"","LOCATION_DESCRIPTION":"","LEGAL_DESCRIPTION":"","LOCATION_ACCURACY":"mining district centroid","COUNTY":"Snohomish","LATITUDE":48.0047,"LONGITUDE":-121.338,"MINING_DISTRICT":"Monte Cristo","LOCATION_SOURCE":"Washington metal mine files","ASSAYS":"","PRODUCTION":"","COMMENTS":""}},{"type":"Feature","id":1447,"geometry":{"type":"Point","coordinates":[-121.338,48.0047]},"properties":{"OBJECTID":1447,"SITE_ID":3995,"SITE_NAME":"Orient district","ALTERNATE_NAMES":"","PRIMARY_COMMODITY":"Gold (Au)","COMMODITIES":"Gold, silver, copper, lead, zinc, tungsten","ORE_MINERALS":"Chalcopyrite, sphalerite, galena, boulangerite, tetrahedrite","GANGUE":"","LOCATION_DESCRIPTION":"","LEGAL_DESCRIPTION":"","LOCATION_ACCURACY":"mining district centroid","COUNTY":"","LATITUDE":48.0047,"LONGITUDE":-121.338,"MINING_DISTRICT":"Orient","LOCATION_SOURCE":"Washington metal mine files","ASSAYS":"","PRODUCTION":"","COMMENTS":""}}]}